MULTIPOLYGON (((-182.245 2.175, -134.2 33.376, -133.961 33.509, -133.705 33.608, -133.439 33.671, -133.167 33.698, -133.10527826086957 33.69551304347826, -133.097 33.696, -133.07570163934432 33.69432131147541, -132.894 33.687, -118.34159957701118 32.100385971095484, -110.04276514044223 31.19564979519726, -107.193 32.621, -102.25 34.237, -97.123 35.109, -95.941 35.133, -92.9320484874764 34.07432395829291, -88.204 34.734, -84.853 34.116, -79.933 32.43, -75.315 30.04, -74.357 29.348, -70.932 24.193, -70.366 23.341, -69.867 22.589, -72.14812187100485 22.652925852468947, -49.819 13.312, -30.085195335419222 5.056757152702811, -3.1962131088035344 3.174014921685798, -0.156 8.475, 7.861465167153277 7.913695095281463, 7.8 7.918, 29.054 6.43, 41.695 0.087, 41.68 0.033, 54.396 -0.857, 78.162 -2.521, 79.091 -2.653, 79.992 -2.914, 80.848 -3.3, 81.64 -3.803, 82.354 -4.412, 82.974 -5.117, 83.489 -5.901, 84.40369555068224 -7.286753965969347, 84.77587874960501 -7.709091964003453, 85.51160281890172 -8.528657380419663, 85.99888036922155 -8.945029547507833, 86.78454935216416 -9.596442451372894, 87.37660556684635 -9.972029460104274, 88.19383103942675 -10.467215081170936, 88.8767331968845 -10.775280855506228, 89.71280788177341 -11.126186161512065, 90.4558164604981 -11.34153029853208, 91.31933291551599 -11.561219816607233, 92.08084298910067 -11.669060994729785, 92.96565057900739 -11.759850860123535, 93.74246519832344 -11.759373407991196, 94.62815299143058 -11.719091092533873, 95.07319333700526 -11.655237477734028, 95.39546927683563 -11.608997886367062, 96.2639095014321 -11.439278660273343, 97.01129744408124 -11.221091143085118, 97.84236733547763 -10.926732220350226, 98.55474244799836 -10.603711926413702, 99.33309012212942 -10.190360957185783, 99.98821393331065 -9.773029899625731, 100.70313944056362 -9.24574613107992, 101.19830124926995 -8.821550832609228, 102.684 -7.245, 103.303 -6.54, 104.015 -5.929, 104.807 -5.425, 105.662 -5.037, 106.563 -4.774, 107.492 -4.641, 108.43 -4.64, 126.581 -5.91, 128.937 -6.242, 131.224 -6.9, 133.397 -7.871, 135.413 -9.136, 137.233 -10.669, 138.821 -12.442, 140.145 -14.419, 141.18 -16.562, 141.907 -18.829, 142.309 -21.174, 142.38 -23.553, 142.37 -23.553, 142.339 -23.551, 142.29 -23.549, 142.221 -23.547, 142.136 -23.543, 142.035 -23.539, 141.921 -23.534, 141.796 -23.529, 141.662 -23.524, 141.523 -23.518, 141.381 -23.513, 136.048 -23.298, 136.037 -23.559, 135.991 -24.078, 135.919 -24.595, 135.822 -25.108, 135.7 -25.615, 135.553 -26.116, 135.382 -26.609, 135.187 -27.093, 134.969 -27.567, 134.728 -28.03, 134.464 -28.48, 134.179 -28.917, 133.873 -29.339, 133.546 -29.746, 133.2 -30.137, 132.835 -30.51, 132.453 -30.865, 132.053 -31.2, 131.638 -31.516, 131.208 -31.811, 130.763 -32.085, 130.306 -32.336, 129.837 -32.565, 129.358 -32.771, 128.869 -32.953, 129.132 -39.453, 128.469 -39.588, 127.802 -39.698, 127.589 -39.727, 127.5409956834533 -39.72984874100719, 127.13 -39.78, 126.456 -39.836, 126.042 -39.857, 125.628 -39.867, 125.213 -39.868, 111.282 -39.72, 111.264 -39.706, 111.208 -39.665, 111.117 -39.597, 110.993 -39.505, 111.723 -40.049, 112.415 -40.636, 112.966 -40.98, 115.842 -43.12, 110.189 -45.209, 110.18100335645558 -45.20891649867514, 110.181 -45.209, 107.316 -45.179, 107.52777081218274 -39.93099894851341, 107.507 -40.151, 107.432 -40.668, 107.332 -41.18, 107.207 -41.687, 107.058 -42.187, 106.884 -42.679, 106.687 -43.162, 106.466 -43.634, 106.222 -44.096, 105.956 -44.545, 105.669 -44.98, 105.36 -45.401, 105.031 -45.806, 104.683 -46.194, 104.316 -46.566, 103.932 -46.918, 103.531 -47.252, 103.113 -47.565, 102.682 -47.858, 102.236 -48.129, 101.777 -48.378, 101.307 -48.605, 102.17 -55.052, 101.522 -55.249, 100.867 -55.419, 100.658 -55.468, 100.60445842268281 -55.47619513938529, 100.206 -55.563, 99.54 -55.681, 99.13 -55.74, 98.718 -55.789, 98.306 -55.828, 84.42046595596088 -56.9659618134896, 84.89 -57.253, 85.633 -57.774, 86.213 -58.065, 89.274 -59.931, 83.838 -62.533, 83.82998214705742 -62.533658119260046, 83.83 -62.534, 80.975 -62.768, 80.667 -56.873, 75.643 -57.285, 76.896 -58.163, 59.162 -59.1, 62.021 -58.949, 62.299 -64.274, 59.44 -64.425, 40.966 -65.4, 40.691012107052 -60.151231090603424, 22.221 -61.666, 22.038 -62.082, 22.263 -66.388, 19.403 -66.539, 15.933 -66.722, 6.016 -64.761, 3.694 -65.555, 0.877 -66.517, 0.693 -62.987, -1.016 -63.571, -17.75503416219326 -64.94407765831912, -17.938 -65.36, -17.756 -68.83, -35.928 -69.791, -30.787622351923908 -66.4141328937126, -36.1800081212287 -66.85584603503912, -36.18 -66.856, -38.831 -67.073, -38.877 -67.071, -38.924 -67.056, -38.97 -67.028, -39.014 -66.988, -39.098 -66.874, -39.143 -66.786, -39.186 -66.68, -39.222 -66.561, -41.05211813977374 -66.6574787304404, -46.93687901633892 -66.96879870141727, -55.849 -91.475, -55.85750491233889 -91.47973940700703, -55.897 -91.586, -55.931 -91.665, -55.963 -91.728, -56.027 -91.826, -56.088 -91.934, -56.14 -92.001, -56.192 -92.069, -56.238 -92.123, -56.298 -92.184, -56.357 -92.245, -56.409 -92.293, -56.476 -92.346, -56.553 -92.402, -56.672 -92.486, -56.745 -92.531, -56.77134700227814 -92.54134483525031, -56.756 -92.539, -57.014 -92.66, -57.05949999999984 -92.67383333333328, -57.108 -92.69, -57.18985654008472 -92.71346554149095, -57.287 -92.743, -57.569 -92.786, -57.855 -92.788, -58.137 -92.75, -58.412 -92.671, -70.772 -88.177, -70.98 -89.138, -82.419 -88.245, -91.87762797641041 -84.804824223467, -92.56 -84.557, -92.85913372756251 -84.44819077311813, -100.961 -88.756, -101.05435925349923 -88.79713530326595, -101.071 -88.806, -101.149 -88.841, -101.19538059701502 -88.85927114427865, -101.222 -88.871, -101.41473504273485 -88.92566666666661, -101.446 -88.936, -101.45994808405446 -88.93849072929544, -101.497 -88.949, -101.56874647887331 -88.95838028169015, -101.614 -88.967, -101.684 -88.976, -101.72641188666194 -88.97899378023496, -101.78 -88.986, -101.82834821428592 -88.98549107142857, -101.854 -88.987, -101.925 -88.988, -101.99801282051281 -88.98370512820513, -101.99801282051284 -88.98370512820513, -102.065 -88.983, -102.2267607361963 -88.95776073619632, -102.249 -88.955, -102.28046067415742 -88.94938202247188, -102.347 -88.939, -102.62 -88.856, -102.66785483870956 -88.83337096774198, -102.71 -88.815, -102.80535494880571 -88.76835153583605, -102.878 -88.734, -102.92339422431162 -88.70405507051711, -102.924 -88.704, -102.938504888889 -88.69408711111103, -103.116 -88.577, -103.33 -88.388, -103.45 -88.254, -103.41197262496198 -88.29132576295245, -103.44667681126516 -88.25039745627969, -103.457 -88.24, -103.514 -88.171, -103.666 -87.929, -104.34693105782945 -86.64835843959362, -118.566 -95.882, -118.57568146558033 -95.88065638873982, -118.671 -95.942, -118.745 -95.984, -118.808 -96.015, -118.919 -96.055, -119.033 -96.104, -119.115 -96.127, -119.197 -96.15, -119.266 -96.165, -119.351 -96.178, -119.435 -96.191, -119.505 -96.198, -119.591 -96.2, -119.686 -96.198, -119.832 -96.194, -119.917 -96.186, -119.94381336617288 -96.17854302834246, -119.93 -96.186, -120.209 -96.127, -120.25954385964928 -96.10832894736836, -120.302 -96.094, -120.38260490045892 -96.06286983154689, -120.477 -96.028, -120.728 -95.893, -120.957 -95.723, -121.0958947368423 -95.58547368421034, -121.106 -95.576, -121.10652682926828 -95.57494634146343, -121.16 -95.522, -121.332 -95.294, -124.346 -90.654, -125.67553713124708 -88.6066602237798, -126.369 -87.539, -128.4950787260112 -84.26506784174389, -129.24 -84.907, -135.704 -79.192, -135.70398027743954 -79.19198719072354, -137.836 -77.307, -142.92893011435936 -69.46465071297314, -143.714 -68.257, -148.915 -60.247, -149.11173958419954 -59.68727281847278, -159.064 -56.068, -164.532 -54.079, -164.62241785714292 -54.038467857142834, -164.643 -54.031, -164.721 -53.997, -164.76666055045862 -53.97380733944959, -164.793 -53.962, -164.96563767019646 -53.853116490166535, -164.99 -53.839, -165.00046956521743 -53.83114782608693, -165.034 -53.81, -165.07552469135817 -53.774598765431975, -165.126 -53.736, -165.18 -53.69, -165.2141037463978 -53.65645533141202, -165.251 -53.625, -165.27930530740943 -53.59295060430892, -165.302 -53.571, -165.35 -53.518, -165.3950874558303 -53.46185335689058, -165.44 -53.411, -165.5255929203539 -53.27986725663731, -165.543 -53.255, -165.56950943396222 -53.212584905660435, -165.596 -53.172, -165.717 -52.914, -165.74204488778088 -52.83132169575964, -165.746 -52.819, -165.75463022508018 -52.78977491961492, -165.8 -52.64, -165.842 -52.358, -165.845 -52.073, -165.825 -51.894, -165.8272524573721 -51.94421654964882, -165.82109262718382 -51.89951829469278, -165.82 -51.88, -165.806 -51.79, -165.728 -51.516, -159.99712161856448 -35.75668961244424, -178.89094257960795 -6.66232597157338, -179.664 -5.472, -182.833 -0.592, -182.8798618266979 -0.5071053864168625, -182.8798618266979 -0.5071053864168481, -182.893 -0.487, -182.935 -0.412, -182.9566737288136 -0.3679533898304536, -182.971 -0.342, -183.0468407185629 -0.1415101796406847, -183.054 -0.125, -183.05696506329113 -0.114745822784818, -183.072 -0.075, -183.0846366412214 -0.0183389312975373, -183.101 0.04, -183.116 0.109, -183.1227202007528 0.1524228356336608, -183.12272020075284 0.1524228356337749, -183.134 0.203, -183.13753678474114 0.2488174386922104, -183.142 0.278, -183.148 0.348, -183.15036453201972 0.4149950738918127, -183.156 0.488, -183.14442253521128 0.6616619718309092, -183.144 0.674, -183.1419 0.6995000000001337, -183.137 0.773, -183.077 1.052, -183.06141935483896 1.0946082949301672, -183.044 1.145, -183.01598113207547 1.2188679245283012, -182.979 1.32, -182.843 1.571, -182.673 1.8, -182.55 1.931, -182.58144416297236 1.8929291745830679, -182.54280438648487 1.9321485477178657, -182.537 1.939, -182.473 2.003, -182.245 2.175), (-58.09863231006689 -92.74413788372492, -58.115 -92.738, -58.11586772536638 -92.7382239291268, -58.137 -92.75, -58.09863231006689 -92.74413788372492), (-58.11528523006525 -92.73789933056521, -58.11533163085958 -92.7379251876512, -58.115 -92.738, -58.11528523006525 -92.73789933056521), (-103.459389544688 -88.23540472175384, -103.46154430379745 -88.23286351128236, -103.4625560999116 -88.23173231065785, -103.457 -88.24, -103.459389544688 -88.23540472175384), (-121.12726558190843 -95.53967126309985, -121.136 -95.526, -121.13843348801235 -95.52499303944316, -121.16 -95.522, -121.12726558190843 -95.53967126309985), (-165.81787081339715 -51.874038277512, -165.81740393151557 -51.86972859860507, -165.82 -51.88, -165.81787081339715 -51.874038277512), (-182.53424401913878 1.9408373205741556, -182.53235740311368 1.9427522358396307, -182.537 1.939, -182.53424401913878 1.9408373205741556), (133.48975141242937 -22.74819899560578, 133.48975141242937 -22.748198995605776, 133.458 -22.802, 133.48975141242937 -22.74819899560578), (133.3560215777167 -22.493556426139396, 133.3560215777167 -22.493556426139392, 133.308 -22.503, 133.3560215777167 -22.493556426139396), (133.29433744276153 -23.897164142303627, 133.224 -23.903, 133.29433744276153 -23.89716414230363, 133.29433744276153 -23.897164142303627), (133.2483034020488 -23.946271910964974, 133.2483034020488 -23.946271910964967, 133.224 -23.903, 133.2483034020488 -23.946271910964974), (132.815 -24.191, 132.78073918657196 -24.256095545513237, 132.780739186572 -24.256095545513233, 132.815 -24.191), (132.783 -22.097, 132.77610859794115 -22.0460036247644, 132.77610859794112 -22.04600362476439, 132.783 -22.097), (132.655 -24.243, 132.67972469847928 -24.285031987414786, 132.67972469847928 -24.285031987414783, 132.655 -24.243), (132.20747613210762 -21.992558801498127, 132.2074761321076 -21.99255880149813, 132.287 -22.03, 132.20747613210762 -21.992558801498127), (131.961 -22.11, 131.8814368376892 -22.095100531402466, 131.8814368376892 -22.09510053140247, 131.961 -22.11), (131.66251998957264 -24.00190447188183, 131.66251998957267 -24.001904471881844, 131.468 -23.799, 131.66251998957264 -24.00190447188183), (131.2923984526111 -22.730932301741124, 131.3141446952596 -22.67472031602704, 131.30979896611143 -22.682558874210205, 131.30435764844896 -22.697685737311893, 131.29872034433924 -22.713357442736925, 131.2923984526111 -22.730932301741124), (131.26326826875922 -22.812795487984182, 131.26 -22.822, 131.26043914680048 -22.81977917189461, 131.26 -22.821, 131.24751288056208 -22.875379391100548, 131.26326826875922 -22.812795487984182), (131.229 -22.957, 131.2280248756219 -22.971139303482335, 131.2304930747922 -22.949941828255042, 131.229 -22.957), (131.215 -23.20364285714292, 131.215 -23.15999999999989, 131.2130448 -23.1883504, 131.215 -23.20364285714292), (126.66334716981132 -15.24368603773585, 126.641 -15.297, 126.66334716981133 -15.243686037735861, 126.66334716981132 -15.24368603773585), (126.24 -39.689, 126.308 -39.774, 126.24 -39.688, 126.036 -39.698, 126.24 -39.689), (126.05903764581124 -30.555998144220574, 126.05903764581124 -30.55599814422057, 126.002 -30.551, 126.05903764581124 -30.555998144220574), (125.97106229019019 -39.81822379709064, 125.823 -39.823, 125.97106229019012 -39.818223797090646, 125.97106229019019 -39.81822379709064), (125.518 -23.353, 125.626 -23.312, 125.722 -23.246, 125.8 -23.16, 125.856 -23.059, 125.888 -22.947, 125.892 -22.831, 125.87 -22.717, 125.822 -22.611, 125.751 -22.519, 125.661 -22.446, 125.556 -22.396, 125.443 -22.371, 125.327 -22.373, 125.214 -22.402, 125.111 -22.456, 125.024 -22.532, 124.956 -22.627, 124.912 -22.734, 124.894 -22.849, 124.903 -22.965, 124.938 -23.075, 124.998 -23.175, 125.079 -23.258, 125.177 -23.32, 125.287 -23.357, 125.403 -23.369, 125.518 -23.353), (125.7267292611363 -17.047192317951453, 125.68991464915881 -17.047442757488714, 125.71269008782936 -17.04891530740276, 125.7267292611363 -17.047192317951453), (125.584 -28.842, 125.47219645773146 -28.74658145961563, 125.47219645773144 -28.746581459615623, 125.584 -28.842), (125.6549746031746 -28.826726984126985, 125.6549746031746 -28.82672698412698, 125.584 -28.842, 125.6549746031746 -28.826726984126985), (125.60415314819907 -28.798814682430578, 125.60415314819907 -28.798814682430574, 125.584 -28.842, 125.60415314819907 -28.798814682430578), (125.52814634146354 -28.76670731707322, 125.5902975609756 -28.791204878048774, 125.579 -28.785, 125.52814634146354 -28.76670731707322), (125.50816717019133 -17.0356918429003, 125.46541316793895 -17.03042080152672, 125.46930708661407 -17.031314960629896, 125.482 -17.034, 125.50816717019133 -17.0356918429003), (125.44437346437344 -28.735859950859943, 125.442 -28.735, 125.33381506849334 -28.71015753424662, 125.44997636761485 -28.73858862144419, 125.44 -28.735, 125.44437346437344 -28.735859950859943), (125.33702363238511 -16.999411378555795, 125.347 -17.003, 125.34477917189461 -17.0025608531995, 125.346 -17.003, 125.43800342465742 -17.024126712328744, 125.33702363238511 -16.999411378555795), (125.27870731707318 -28.70229268292683, 125.3225192403798 -28.707694152923533, 125.305 -28.704, 125.27870731707318 -28.70229268292683), (125.208 -16.953, 125.25885365853661 -16.971292682926837, 125.19670243902438 -16.94679512195121, 125.208 -16.953), (125.09789655172415 -28.69055172413793, 125.0746550094518 -28.689042533081285, 125.06034160000002 -28.6908072, 125.09789655172415 -28.69055172413793), (124.71 -16.452, 124.67294117647059 -16.48611764705882, 124.67294117647059 -16.486117647058823, 124.71 -16.452), (124.60726401720292 -15.385816741000312, 124.60726401720292 -15.385816741000315, 124.692 -15.327, 124.60726401720292 -15.385816741000312), (124.53361668681983 -15.599916565900845, 124.575 -15.641, 124.53361668681983 -15.599916565900843, 124.53361668681983 -15.599916565900845), (124.555 -15.976, 124.51676001901916 -16.05655471403342, 124.51676001901916 -16.056554714033425, 124.555 -15.976), (124.50406340649468 -15.944016557566423, 124.50406340649468 -15.944016557566426, 124.555 -15.976, 124.50406340649468 -15.944016557566423), (119.57244307692308 -22.57257538461532, 119.57296551724143 -22.564999999999348, 119.57395705960536 -22.549664144770475, 119.57219515923568 -22.53588356687902, 119.57244307692308 -22.57257538461532), (119.55658015267176 -22.788183206106897, 119.558 -22.782, 119.5588347826087 -22.769895652173883, 119.55658015267176 -22.788183206106897), (119.5394871194379 -22.8626206088995, 119.52299254426842 -22.928140726933787, 119.527 -22.917, 119.5394871194379 -22.8626206088995), (119.4771868607396 -23.055480527143924, 119.49460154738877 -23.007067698259203, 119.47274074074075 -23.063575821104077, 119.4771868607396 -23.055480527143924), (118.97176848919776 -21.634130250269294, 118.97176848919774 -21.634130250269287, 119.469 -22.239, 118.97176848919776 -21.634130250269294), (119.339 -23.207, 119.40052540465679 -23.19506223491734, 119.40052540465679 -23.195062234917337, 119.339 -23.207), (119.32006597953111 -21.918746388909057, 119.32006597953111 -21.918746388909053, 119.319 -21.939, 119.32006597953111 -21.918746388909057), (118.8052026110109 -23.68858369835953, 118.80520261101091 -23.688583698359526, 118.826 -23.628, 118.8052026110109 -23.68858369835953), (117.53898985269015 -21.791722450527914, 117.563 -21.835, 117.53898985269015 -21.79172245052791, 117.53898985269015 -21.791722450527914), (117.48 -23.235, 117.462240955553 -23.29056862294705, 117.462240955553 -23.29056862294706, 117.48 -23.235), (117.33374975173784 -22.094534260178744, 117.33374975173784 -22.094534260178747, 117.378 -22.115, 117.33374975173784 -22.094534260178744), (117.33 -22.936, 117.2771588310038 -22.925067344345614, 117.2771588310038 -22.925067344345617, 117.33 -22.936), (117.2974904326123 -22.99058028286189, 117.2974904326123 -22.990580282861906, 117.33 -22.936, 117.2974904326123 -22.99058028286189), (117.24251274178691 -22.382057414798886, 117.24251274178691 -22.38205741479889, 117.284 -22.437, 117.24251274178691 -22.382057414798886), (110.86225000000064 -39.37525000000064, 110.837 -39.35, 110.77919496855269 -39.29283018867848, 110.86225000000064 -39.37525000000064), (110.308 -38.848, 110.226 -38.778, 110.143 -38.708, 110.47 -38.986, 110.39 -38.917, 110.308 -38.848), (110.73150000000014 -39.245500000000135, 110.649 -39.163, 110.47 -38.986, 110.73150000000014 -39.245500000000135), (102.054 -17.425, 102.074 -16.926, 102.03941935483851 -17.785526881725133, 102.043 -17.698, 102.054 -17.425), (102.093 -17.212, 102.138 -17.348, 102.202 -17.478, 102.25 -17.551, 102.328 -17.648, 102.381 -17.702, 102.474 -17.779, 102.533 -17.82, 102.617 -17.867, 102.75 -17.923, 102.889 -17.959, 103.032 -17.976, 103.033 -17.965, 109.028 -18.207, 109.028 -18.217, 109.16 -18.214, 109.29 -18.193, 109.417 -18.156, 109.538 -18.102, 109.552 -18.129, 109.607 -18.098, 109.591 -18.072, 109.655 -18.03, 109.737 -17.965, 109.804 -17.899, 109.895 -17.787, 109.969 -17.664, 109.999 -17.6, 110.025 -17.531, 110.067 -17.248, 110.063 -17.105, 110.038 -16.965, 109.994 -16.829, 109.931 -16.701, 109.85 -16.584, 109.753 -16.479, 109.642 -16.389, 109.52 -16.315, 109.388 -16.26, 109.25 -16.224, 109.108 -16.208, 103.113 -15.967, 102.971 -15.971, 102.83 -15.996, 102.695 -16.041, 102.567 -16.104, 102.449 -16.185, 102.344 -16.281, 102.254 -16.392, 102.181 -16.514, 102.126 -16.646, 102.09 -16.784, 102.074 -16.926, 102.093 -17.212), (109.997 -17.678, 110.05190928050051 -17.62309071949949, 110.05191444485529 -17.62296235573632, 110.027 -17.612, 109.997 -17.678), (110.02460266292931 -18.301816398035534, 110.02577114243307 -18.272772997036448, 110.025 -18.291, 110.02460266292931 -18.301816398035534), (109.99738728244823 -18.97827431287883, 109.759 -19.085, 109.99738728244823 -18.978274312878835, 109.99738728244823 -18.97827431287883), (109.72672645161288 -25.70574451612958, 109.724 -25.763, 109.715 -25.99, 109.70736037934671 -26.18710221285497, 109.72672645161288 -25.70574451612958), (109.658 -26.291, 109.70490690147633 -26.24808517524506, 109.70490690147633 -26.248085175245055, 109.658 -26.291), (109.646 -26.954, 109.601 -26.817, 109.537 -26.688, 109.489 -26.614, 109.411 -26.517, 109.358 -26.463, 109.265 -26.386, 109.206 -26.346, 109.122 -26.298, 108.989 -26.242, 108.85 -26.206, 108.707 -26.19, 108.706 -26.2, 108.15436968787424 -26.17782436943748, 109.324 -27.263, 109.58569955334389 -27.585024700217296, 109.613 -27.52, 109.649 -27.381, 109.665 -27.24, 109.646 -26.954), (109.6995806451614 -26.380473118276857, 109.696 -26.468, 109.685 -26.741, 109.665 -27.24, 109.6995806451614 -26.380473118276857), (103.051 -39.25, 103.38930765751829 -39.50225433814955, 103.3893076575183 -39.502254338149555, 103.051 -39.25), (102.00435042432966 -18.65719044800524, 102.00435042432966 -18.657190448005245, 102.234 -18.782, 102.00435042432966 -18.65719044800524), (102.03163962065369 -17.978897787135132, 102.02080194089105 -18.248276135862447, 102.024 -18.176, 102.03163962065369 -17.978897787135132), (101.05962109724115 -8.974897915645535, 101.0596210972411 -8.974897915645581, 101.639 -8.496, 101.05962109724115 -8.974897915645535), (100.61507700196556 -9.335111956243127, 100.382 -9.535, 100.61507700196557 -9.335111956243116, 100.61507700196556 -9.335111956243127), (100.57972067588999 -9.363341772844096, 100.57972067588992 -9.363341772844151, 100.382 -9.535, 100.57972067588999 -9.363341772844096), (99.387 -55.633, 99.311 -55.554, 99.109 -55.582, 99.311 -55.555, 99.387 -55.633), (98.388 -45.671, 98.41789082004014 -45.58872320669368, 98.41789082004014 -45.58872320669365, 98.388 -45.671), (97.65342892872029 -44.76116423509796, 97.648 -44.759, 97.61323756906071 -44.749762430939214, 97.65342892872029 -44.76116423509796), (97.50565898617509 -44.721175115207366, 97.505 -44.721, 97.41272020725404 -44.708875647668414, 97.51908599290779 -44.72490336879432, 97.504 -44.721, 97.50565898617509 -44.721175115207366), (97.3759576138147 -44.704045525902664, 97.36718138470341 -44.70302117108526, 97.35505135187428 -44.703334878830844, 97.34539079333992 -44.703584720861905, 97.38190260071387 -44.7048266190719, 97.3759576138147 -44.704045525902664), (97.12189808917198 -44.71213375796179, 97.1579170506912 -44.70843317972351, 97.136 -44.709, 97.12189808917198 -44.71213375796179), (96.2546625577812 -46.4400061633282, 96.2546625577812 -46.440006163328206, 96.284 -46.396, 96.2546625577812 -46.4400061633282), (90.46058791310799 -11.353782677311528, 90.46058791310797 -11.353782677311525, 91.11 -11.542, 90.46058791310813 -11.353782677311568, 90.46058791310799 -11.353782677311528), (91.28256517805534 -11.565322510115353, 91.28256517805531 -11.565322510115347, 91.11 -11.542, 91.28256517805534 -11.565322510115353), (90.94774108451392 -39.82300146555936, 90.94774108451392 -39.82300146555935, 90.828 -39.922, 90.94774108451392 -39.82300146555936), (89.14078549681705 -40.12202435649044, 89.14078549681705 -40.12202435649045, 89.188 -40.099, 89.14078549681705 -40.12202435649044), (89.07 -39.98, 89.05746768060835 -40.03639543726234, 89.05746768060835 -40.03639543726235, 89.07 -39.98), (86.81508991089909 -9.626534875348744, 86.688 -9.547, 86.8150899108991 -9.626534875348755, 86.8150899108991 -9.62653487534875, 86.81508991089909 -9.626534875348744), (83.37 -56.188, 83.281 -56.126, 83.192 -56.064, 83.544 -56.31, 83.457 -56.249, 83.37 -56.188), (80.712 -45.739, 80.853 -45.721, 80.991 -45.684, 81.122 -45.627, 81.243 -45.552, 81.353 -45.461, 81.448 -45.355, 81.528 -45.236, 81.59 -45.108, 81.632 -44.972, 81.655 -44.831, 81.658 -44.688, 81.65684527147592 -44.68076370124904, 73.92101459301696 -44.37378629337369, 73.871 -44.432, 73.79 -44.552, 73.728 -44.682, 73.705 -44.748, 73.685 -44.82, 73.669 -45.105, 73.687 -45.247, 73.724 -45.385, 73.781 -45.516, 73.856 -45.637, 73.947 -45.747, 74.053 -45.842, 74.172 -45.922, 74.3 -45.983, 74.436 -46.026, 74.577 -46.049, 74.72 -46.052, 80.712 -45.739), (81.65762407267741 -44.680794606058626, 81.65762381423872 -44.68079459580312, 81.658 -44.688, 81.65762407267741 -44.680794606058626), (79.441 -16.949, 79.562 -16.895, 79.576 -16.922, 79.631 -16.891, 79.615 -16.865, 79.679 -16.823, 79.761 -16.757, 79.829 -16.692, 79.92 -16.58, 79.994 -16.457, 80.023 -16.393, 80.05 -16.324, 80.092 -16.041, 80.087 -15.898, 80.063 -15.758, 80.018 -15.622, 79.955 -15.494, 79.874 -15.377, 79.777 -15.272, 79.667 -15.182, 79.544 -15.108, 79.413 -15.053, 79.275 -15.017, 79.133 -15.001, 77.02172928589786 -14.916126565121164, 77.797 -16.846, 77.82269901449665 -16.95037684095216, 79.052 -17, 79.052 -17.01, 79.184 -17.007, 79.314 -16.986, 79.441 -16.949), (80.068 -16.625, 80.06 -16.824, 80.05388888888892 -16.982888888888105, 80.07412765957442 -16.482702127660943, 80.068 -16.625), (80.0498065660315 -17.083780582364092, 79.983 -17.008, 80.0498065660315 -17.083780582364103, 80.0498065660315 -17.083780582364092), (72.473 -24.766, 72.346 -24.803, 72.226 -24.857, 72.211 -24.83, 72.156 -24.861, 72.172 -24.887, 72.108 -24.929, 72.026 -24.994, 71.959 -25.059, 71.868 -25.171, 71.794 -25.295, 71.764 -25.359, 71.738 -25.428, 71.696 -25.711, 71.7 -25.853, 71.725 -25.994, 71.769 -26.13, 71.833 -26.257, 71.914 -26.375, 72.01 -26.48, 72.02566317043483 -26.49269986792013, 72.861 -25.423, 73.33155871996229 -24.77598176005186, 72.735 -24.752, 72.736 -24.742, 72.604 -24.745, 72.473 -24.766), (50.30711977030609 -47.32724278282327, 50.752 -47.304, 50.894 -47.286, 51.032 -47.248, 51.163 -47.192, 51.25713413486373 -47.133652395745614, 50.30711977030609 -47.32724278282327), (43.71 -46.67, 43.727 -46.812, 43.765 -46.949, 43.822 -47.08, 43.897 -47.202, 43.988 -47.311, 44.094 -47.407, 44.212 -47.486, 44.341 -47.548, 44.477 -47.591, 44.618 -47.614, 44.761 -47.617, 48.586392577293566 -47.41714223390204, 48.242618092373014 -45.43164828723085, 44.656 -45.619, 44.656 -45.609, 44.525 -45.625, 44.396 -45.657, 44.274 -45.706, 44.158 -45.771, 44.142 -45.745, 44.09 -45.781, 44.108 -45.806, 44.048 -45.853, 43.973 -45.926, 43.912 -45.997, 43.831 -46.117, 43.769 -46.247, 43.745 -46.313, 43.726 -46.384, 43.71 -46.67), (46.409 -53.547, 46.132 -54.685, 46.548 -53.543, 46.409 -53.547), (43.690423768881594 -46.295501448374594, 43.69045718312065 -46.29614067172943, 43.716 -46.304, 43.741 -46.236, 43.690423768881594 -46.295501448374594), (43.63336077057805 -45.20387098657544, 43.64709828741615 -45.46667336807977, 43.643 -45.383, 43.63336077057805 -45.20387098657544), (41.965 -0.048, 41.863 0.003, 41.824 0.022, 43.518 -0.828, 43.073 -0.604, 42.673 -0.403, 42.323 -0.228, 42.117 -0.125, 41.965 -0.048), (41.926586058983 -19.379052752977234, 41.84421965011369 -21.422382794026316, 41.84439823280689 -21.42235186224725, 41.92669418861328 -19.37903402416441, 41.926586058983 -19.379052752977234), (21.841 -54.38, 20.087 -56.655, 21.017 -56.708, 22.643 -55.647, 29.179 -54.718, 30.016 -54.103, 21.841 -54.38), (19.1 -14.596, 19.233 -14.593, 19.363 -14.572, 19.49 -14.535, 19.611 -14.481, 19.625 -14.508, 19.68 -14.477, 19.664 -14.451, 19.728 -14.409, 19.81 -14.343, 19.877 -14.278, 19.968 -14.166, 20.042 -14.043, 20.072 -13.979, 20.098 -13.91, 20.14 -13.627, 20.136 -13.484, 20.111 -13.344, 20.067 -13.208, 20.003 -13.08, 19.923 -12.963, 19.826 -12.858, 19.715 -12.768, 19.593 -12.694, 19.461 -12.639, 19.323 -12.603, 19.181 -12.587, 14.221791757737021 -12.387639001436968, 14.832 -12.613, 15.658 -13.059, 16.412 -13.617, 17.081 -14.276, 17.324093344090358 -14.514271657926583, 19.101 -14.586, 19.1 -14.596), (20.069 -14.056, 20.12495123566822 -14.00104789354014, 20.12495390434166 -14.000981561736664, 20.1 -13.991, 20.069 -14.056), (20.088 -14.915, 20.079 -15.137, 20.076655691439342 -15.201468485418127, 20.098771142433243 -14.651772997032403, 20.098 -14.67, 20.088 -14.915), (2.67 -58.3, 3.665 -57.836, 3.984 -57.869, 4.935 -56.635, -9.429563245694633 -57.12145818917484, -9.289389417817826 -57.931796413186476, -6.156 -57.57, -4.696 -58.101, -2.473 -57.67, 2.67 -58.3), (-3.2751978021978374 3.0361538461537845, -3.248838148969747 3.082116336405382, -3.2468186734984243 3.0856376316538747, -3.253 3.075, -3.2751978021978374 3.0361538461537845), (-10.875 -13.389, -10.743 -13.386, -10.613 -13.365, -10.486 -13.328, -10.365 -13.274, -10.351 -13.301, -10.296 -13.27, -10.312 -13.244, -10.248 -13.202, -10.166 -13.136, -10.098 -13.071, -10.007 -12.959, -9.933 -12.836, -9.904 -12.772, -9.878 -12.703, -9.835 -12.42, -9.84 -12.277, -9.865 -12.137, -9.909 -12.001, -9.972 -11.873, -10.053 -11.756, -10.15 -11.651, -10.261 -11.561, -10.383 -11.487, -10.515 -11.432, -10.653 -11.396, -10.794 -11.38, -11.972885074835071 -11.332616527178912, -10.885025657400366 -13.378595294563654, -10.875 -13.379, -10.875 -13.389), (-9.851 -12.794, -9.859 -13.004, -9.867 -13.203, -9.873111111111124 -13.361888888889197, -9.835 -12.42, -9.851 -12.794), (-9.876 -12.784, -9.906 -12.849, -9.851 -12.794, -9.876 -12.784), (-12.552 -48.847, -11.623 -48.79, -11.329171929440273 -48.5435635537241, -12.404730030807894 -48.59974674560128, -12.552 -48.847), (-20.462 -64.564, -19.737 -63.595, -20.822 -65.044, -20.462 -64.564), (-29.58968211051075 -65.62742367764638, -29.041 -65.267, -29.492 -65.563, -29.58968211051075 -65.62742367764638), (-36.422 -12.239, -36.42108739723734 -12.242201352548346, -35.135601313450515 -11.446489218434612, -35.18545034341577 -11.364562305608823, -36.42320484629082 -12.236280954992333, -36.422 -12.239), (-37.59304926513121 -13.322844172996799, -37.77187917433875 -11.815075969029389, -37.77187917433875 -11.81507596902939, -37.59304926513121 -13.322844172996799), (-42.295 -66.723, -45.49 -66.892, -41.89375925520475 -66.70184770561119, -42.295 -66.723), (-48.204 -9.204, -48.23521820121106 -9.17303980045184, -48.23521820121106 -9.173039800451841, -48.204 -9.204), (-48.293 -9.347, -48.294305452820836 -9.346318171138162, -48.294305452820836 -9.346318171138163, -48.293 -9.347), (-66.326 10.063, -66.32458315184243 10.058456485756423, -66.32072848948371 10.04776290630965, -66.278 9.933, -66.186 9.674, -65.95028060281 9.001515371371488, -59.118 6.324, -53.453 9.954, -61.823 13.455, -62.675 12.909, -62.67507226497106 12.909030239471685, -66.47893338558869 10.471686330411188, -66.469 10.446, -66.372 10.19, -66.32758052010989 10.066771765466145, -66.326 10.063), (-55.52442707240292 -78.76248478488979, -55.52442707240299 -78.76248478488989, -55.52442707240292 -78.7624847848898, -55.52442707240285 -78.76248478488971, -55.52442707240292 -78.76248478488979), (-56.28388200663426 -78.75977707160611, -56.283836529465894 -78.75960698542009, -56.44446863468446 -78.78800369003658, -56.358 -78.773, -56.28388200663426 -78.75977707160611), (-57.59725600962674 -78.28067174053953, -57.59734227512221 -78.28113749025837, -57.579 -78.303, -57.54873801369898 -78.33854023972562, -57.59725600962674 -78.28067174053953), (-64.37 -85.113, -64.193 -85.274, -63.994 -85.406, -63.777 -85.507, -63.548 -85.575, -63.311 -85.608, -63.072 -85.605, -62.836 -85.567, -62.608 -85.494, -62.394 -85.388, -62.198 -85.251, -62.024 -85.086, -61.877 -84.897, -61.76 -84.689, -61.675 -84.465, -61.625 -84.232, -61.61 -83.993, -61.63 -83.755, -61.686 -83.522, -61.776 -83.301, -61.898 -83.095, -62.049 -82.91, -62.227 -82.749, -62.426 -82.617, -62.642 -82.515, -62.872 -82.448, -63.108 -82.415, -63.348 -82.417, -63.584 -82.456, -63.811 -82.529, -64.026 -82.635, -64.222 -82.772, -64.395 -82.937, -64.542 -83.125, -64.659 -83.334, -64.744 -83.557, -64.794 -83.791, -64.81 -84.03, -64.789 -84.268, -64.733 -84.501, -64.643 -84.722, -64.521 -84.928, -64.37 -85.113), (-88.623 28.79, -88.62283419689119 28.78979274611399, -88.534 28.774, -88.265 28.723, -87.996 28.67, -87.727 28.615, -87.459 28.557, -87.192 28.496, -86.94284783660304 28.437211287288356, -86.936 28.436, -86.66928957528965 28.369490347490366, -86.659 28.367, -86.64855321944803 28.36431931668855, -86.539 28.337, -86.52840449179828 28.33366579794574, -86.39 28.299, -86.37573491449909 28.294175260433718, -86.129 28.229, -85.864 28.156, -85.601 28.08, -85.338 28.002, -85.076 27.922, -84.815 27.839, -84.554 27.754, -84.295 27.666, -84.036 27.576, -83.778 27.483, -83.521 27.388, -83.51000148148144 27.38383259259258, -83.501 27.381, -83.46368431891752 27.366282730214838, -83.265 27.291, -83.009 27.191, -82.89461977186315 27.144300380228152, -82.755 27.089, -82.64725855513285 27.04428517110257, -82.644 27.043, -82.64270174609189 27.04239400529505, -82.502 26.984, -80.38321564903332 26.09753801786762, -79.528 29.001, -80.34 30.223, -81.254 30.747, -82.722 30.955, -89.557 30.001, -88.623 28.79), (-90.619 29.078, -91.77972093022366 29.20447879616866, -90.62 29.078, -90.61842823529412 29.077809411764704, -90.619 29.078), (-109.78847248182754 -83.60333748701984, -109.78847248182755 -83.60333748701981, -109.805629101172 -83.58088249993665, -109.78847248182754 -83.60333748701984), (-109.96955520504719 -85.55119479495255, -109.97294206896532 -85.55419862068948, -109.97294206896547 -85.5541986206896, -109.9695552050473 -85.55119479495266, -109.96955520504719 -85.55119479495255), (-110.40617262418654 -84.3387854330716, -110.86971839947874 -83.62452481696481, -110.40617262418654 -84.33878543307162, -110.40617262418654 -84.3387854330716), (-111.523 -85.332, -111.325 -85.433, -111.25713512729764 -85.46745988354836, -111.25683261222953 -85.46722323730974, -111.96590916076511 -85.10613858091261, -111.96590020422408 -85.10617806788511, -111.779 -85.202, -111.642 -85.272, -111.523 -85.332), (-111.99744404332165 -84.6889169675021, -111.987 -84.894, -111.97873079137771 -85.0496114713467, -111.9786573051774 -85.04993545217427, -111.99744404332165 -84.6889169675021), (-112.01 -84.455, -111.99836842105239 -84.67115350877661, -112.0180410011084 -84.29311209536678, -112.01852936794111 -84.29355966713354, -112.017 -84.323, -112.01 -84.455), (-121.495 -85.907, -121.415 -86.133, -121.303 -86.344, -121.161 -86.536, -120.992 -86.705, -120.799 -86.847, -120.588 -86.958, -120.362 -87.037, -120.127 -87.081, -119.888 -87.09, -119.65 -87.063, -119.419 -87.001, -119.2 -86.905, -118.998 -86.777, -118.817 -86.621, -118.661 -86.44, -118.534 -86.237, -118.439 -86.018, -118.377 -85.787, -118.351 -85.549, -118.36 -85.31, -118.405 -85.075, -118.484 -84.849, -118.596 -84.638, -118.738 -84.446, -118.908 -84.277, -119.1 -84.135, -119.312 -84.024, -119.537 -83.945, -119.772 -83.901, -120.011 -83.892, -120.249 -83.919, -120.48 -83.982, -120.699 -84.077, -120.901 -84.205, -121.082 -84.361, -121.238 -84.543, -121.365 -84.745, -121.461 -84.965, -121.522 -85.196, -121.549 -85.433, -121.539 -85.672, -121.495 -85.907), (-133.576 -27.668, -133.723 -27.694, -133.864 -27.741, -133.997 -27.809, -134.119 -27.897, -134.226 -28.001, -134.316 -28.12, -134.387 -28.252, -134.438 -28.392, -134.468 -28.539, -134.475 -28.688, -134.46 -28.837, -134.424 -28.981, -134.365 -29.119, -134.287 -29.247, -134.191 -29.361, -134.079 -29.46, -133.954 -29.541, -133.817 -29.602, -129.77551941901498 -31.072176737527325, -129.3817792578335 -29.08766168298841, -133.134 -27.723, -133.278 -27.682, -133.426 -27.664, -133.576 -27.668), (-132.404 -67.169, -132.178 -67.248, -131.943 -67.292, -131.704 -67.3, -131.466 -67.273, -131.236 -67.211, -131.016 -67.115, -130.814 -66.988, -130.633 -66.832, -130.477 -66.65, -130.38213908724262 -66.4983719268524, -133.33989644614456 -65.42271682157055, -133.365 -65.644, -133.356 -65.883, -133.311 -66.118, -133.232 -66.343, -133.12 -66.555, -132.977 -66.747, -132.808 -66.916, -132.615 -67.057, -132.404 -67.169), (-136.119 19.013, -136.015 19.081, -135.841 19.194, -135.673 19.303, -135.53178676470588 19.394788602941176, -135.53177603830923 19.394812045308043, -136.235870079192 18.937768545085884, -136.23575996553274 18.937798666267046, -136.119 19.013), (-135.563 20.353, -135.574 20.56, -135.56188808664209 20.33106498193935, -135.563 20.353), (-136.225 20.892, -136.418 20.99, -136.603 21.084, -136.1422537313416 20.849373134327504, -136.225 20.892), (-136.60009294451393 18.83813673753673, -137.0991803628595 19.092288153681604, -137.058 19.071, -136.86 18.97, -136.667 18.872, -136.60026278290024 18.838090278879047, -136.60009294451393 18.83813673753673), (-137.17111396011464 20.71484330484286, -136.82816103379793 20.937691848906095, -136.936 20.868, -137.087 20.77, -137.17111396011464 20.71484330484286), (-137.451 20.533, -137.571 20.455, -137.4140270270287 20.55699999999891, -137.451 20.533), (-137.56 20.234, -137.552 20.08, -137.545 19.948, -137.5333684210529 19.73184649123348, -137.571 20.455, -137.56 20.234), (-137.53244404332085 19.71408303248257, -137.522 19.509, -137.511 19.302, -137.53244404332085 19.71408303248257), (-139.775 -66.896, -143.01712904822244 -61.90352184464348, -144.57724639543792 -61.336247084294925, -141.16 -66.598, -140.66 -67.369, -139.775 -66.896), (-156.031 -6.468, -156.127 -6.582, -156.205 -6.71, -156.263 -6.848, -156.299 -6.993, -156.314 -7.142, -156.306 -7.291, -156.276 -7.437, -156.224 -7.578, -156.152 -7.709, -153.429 -11.902, -153.339 -12.021, -153.231 -12.125, -153.11 -12.212, -152.977 -12.28, -152.835 -12.327, -152.688 -12.353, -152.538 -12.356, -152.39 -12.337, -152.246 -12.296, -152.11 -12.234, -151.985 -12.153, -151.873 -12.054, -151.777 -11.939, -151.7 -11.811, -151.642 -11.674, -151.605 -11.529, -151.591 -11.38, -151.599 -11.231, -151.629 -11.084, -151.68 -10.944, -151.752 -10.813, -154.475 -6.619, -154.566 -6.5, -154.673 -6.396, -154.794 -6.309, -154.928 -6.242, -155.069 -6.194, -155.217 -6.169, -155.366 -6.165, -155.514 -6.184, -155.658 -6.225, -155.794 -6.287, -155.92 -6.368, -156.031 -6.468), (-154.312 -53.494, -154.118 -53.331, -153.95 -53.14, -153.812 -52.927, -153.708 -52.695, -153.639 -52.451, -153.607 -52.198, -153.614 -51.944, -153.658 -51.694, -153.739 -51.453, -153.855 -51.227, -154.003 -51.021, -154.181 -50.839, -154.383 -50.686, -154.606 -50.564, -154.845 -50.478, -155.094 -50.427, -155.348 -50.415, -155.601 -50.44, -155.847 -50.503, -156.081 -50.602, -156.298 -50.734, -156.493 -50.897, -156.661 -51.088, -156.798 -51.301, -156.903 -51.533, -156.972 -51.778, -157.003 -52.03, -156.997 -52.284, -156.953 -52.534, -156.872 -52.775, -156.756 -53.001, -156.607 -53.207, -156.43 -53.389, -156.227 -53.542, -156.004 -53.664, -155.765 -53.751, -155.516 -53.801, -155.262 -53.814, -155.01 -53.788, -154.763 -53.725, -154.529 -53.627, -154.312 -53.494), (-154.4216744186044 7.875976744181342, -154.38529245377813 7.1768366534364985, -154.3852417311173 7.176947506993607, -154.395 7.373, -154.403 7.527, -154.41 7.66, -154.4216744186044 7.875976744181342), (-154.87660000000128 8.525714285714935, -154.444 8.305, -154.641 8.406, -154.778 8.476, -154.87660000000128 8.525714285714935), (-154.42255595667913 7.892916967517334, -154.433 8.098, -154.444 8.305, -154.42255595667913 7.892916967517334), (-155.47044614074312 6.583431704460771, -155.67803846153643 6.689346153845118, -155.537 6.617, -155.47076350774415 6.583344701232168, -155.47044614074312 6.583431704460771), (-156.40244404332086 7.460083032482679, -156.392 7.255, -156.381 7.048, -156.40244404332086 7.460083032482679), (-156.184 6.947, -156.047 6.877, -155.94839999999985 6.827285714285647, -156.381 7.048, -156.184 6.947), (-156.321 8.279, -156.441 8.201, -156.28402702703607 8.30299999999413, -156.321 8.279), (-156.43 7.98, -156.422 7.826, -156.415 7.693, -156.4033255813956 7.47702325581865, -156.441 8.201, -156.43 7.98), (-173.579 -6.126, -173.357 -6.004, -173.154 -5.85, -172.978 -5.667, -172.83 -5.461, -172.714 -5.234, -172.634 -4.993, -172.591 -4.743, -172.585 -4.489, -172.617 -4.237, -172.686 -3.992, -172.792 -3.761, -172.93 -3.548, -173.099 -3.358, -173.294 -3.195, -173.511 -3.063, -173.745 -2.965, -173.991 -2.903, -174.244 -2.878, -174.498 -2.892, -174.747 -2.943, -174.986 -3.03, -175.208 -3.152, -175.411 -3.306, -175.587 -3.488, -175.735 -3.695, -175.851 -3.921, -175.931 -4.163, -175.974 -4.413, -175.98 -4.667, -175.948 -4.919, -175.879 -5.163, -175.773 -5.395, -175.635 -5.608, -175.466 -5.798, -175.271 -5.961, -175.054 -6.093, -174.82 -6.191, -174.574 -6.253, -174.321 -6.277, -174.067 -6.264, -173.818 -6.213, -173.579 -6.126)), ((92.431 -6.364, 92.4367368421054 -6.353842105262894, 92.523 -6.197, 92.53279575736329 -6.183756136044834, 92.54 -6.171, 92.59638169642831 -6.097787946428916, 92.648 -6.028, 92.65725000000005 -6.018749999999945, 92.674 -5.997, 92.78685714285702 -5.889142857142969, 92.817 -5.859, 92.82279851915135 -5.85479382030472, 92.832 -5.846, 93.009 -5.719, 93.214 -5.615, 93.21687531622696 -5.614063245392118, 93.217 -5.614, 93.435 -5.543, 93.65 -5.507, 93.65888624597733 -5.50679711767175, 93.67 -5.505, 93.7376 -5.505, 93.869 -5.502, 93.89235714285714 -5.505, 93.909 -5.505, 94.01277730192731 -5.5204668094218565, 94.087 -5.53, 94.0989481390016 -5.533309578408892, 94.117 -5.536, 94.293 -5.587, 94.29336797412053 -5.58716295996766, 94.3 -5.589, 94.455 -5.656, 94.47825368248773 -5.669040916530283, 94.503 -5.68, 94.53890551181107 -5.70305511811026, 94.603 -5.739, 94.64771962616821 -5.772925233644848, 94.693 -5.802, 94.74353846153852 -5.845615384615426, 94.777 -5.871, 94.79872413793103 -5.893241379310338, 94.839 -5.928, 94.89888990825696 -5.995792048929751, 94.945 -6.043, 94.96224652338806 -6.067508217446203, 94.983 -6.091, 95.06378145695372 -6.211794701986858, 95.078 -6.232, 95.08022772078053 -6.236387246026939, 95.09 -6.251, 95.176 -6.425, 95.238 -6.609, 95.23996656050956 -6.618781050955407, 95.244 -6.631, 95.25298839907194 -6.683547563805166, 95.276 -6.798, 95.27807968127489 -6.830235059760921, 95.283 -6.859, 95.28406741573035 -6.923044943820251, 95.29 -7.015, 95.28642207163601 -7.064324298160682, 95.287 -7.099, 95.28071578947367 -7.142989473684338, 95.276 -7.208, 95.26275862068968 -7.2686896551723015, 95.256 -7.316, 95.2390057803468 -7.377556840077153, 95.228 -7.428, 95.21774883238193 -7.454554229372092, 95.211 -7.479, 95.149 -7.636, 95.14326315789462 -7.646157894737049, 95.057 -7.803, 95.04720424263677 -7.8162438639551, 95.04 -7.829, 94.98361830357135 -7.90221205357155, 94.932 -7.972, 94.92275000000002 -7.981249999999986, 94.906 -8.003, 94.79314285714291 -8.1108571428571, 94.763 -8.141, 94.75720148084865 -8.14520617969528, 94.748 -8.154, 94.571 -8.281, 94.366 -8.385, 94.36312468377304 -8.385936754607878, 94.363 -8.386, 94.145 -8.457, 93.93 -8.493, 93.92111375402266 -8.49320288232825, 93.91 -8.495, 93.84240000000004 -8.495, 93.711 -8.498, 93.68764285714285 -8.495, 93.671 -8.495, 93.56722269807284 -8.479533190578163, 93.493 -8.47, 93.48105186099839 -8.466690421591107, 93.463 -8.464, 93.287 -8.413, 93.28663202587951 -8.412837040032352, 93.28 -8.411, 93.125 -8.344, 93.1017463175123 -8.330959083469732, 93.077 -8.32, 93.04109448818893 -8.29694488188974, 92.977 -8.261, 92.93228037383177 -8.227074766355143, 92.887 -8.198, 92.83646153846152 -8.154384615384604, 92.803 -8.129, 92.78127586206898 -8.106758620689666, 92.741 -8.072, 92.68111009174307 -8.00420795107028, 92.635 -7.957, 92.61775347661194 -7.932491782553797, 92.597 -7.909, 92.51621854304626 -7.788205298013116, 92.502 -7.768, 92.49977227921946 -7.763612753973029, 92.49 -7.749, 92.404 -7.575, 92.342 -7.391, 92.34003343949045 -7.381218949044594, 92.336 -7.369, 92.32701160092806 -7.316452436194834, 92.304 -7.202, 92.30192031872511 -7.169764940239079, 92.297 -7.141, 92.29593258426966 -7.076955056179758, 92.29 -6.985, 92.29357792836399 -6.935675701839354, 92.293 -6.901, 92.29928421052631 -6.857010526315847, 92.304 -6.792, 92.31724137931033 -6.7313103448276195, 92.324 -6.684, 92.3409942196532 -6.622443159922847, 92.352 -6.572, 92.36225116761806 -6.5454457706279365, 92.369 -6.521, 92.431 -6.364), (92.642 -7.251, 92.704 -7.45, 92.763 -7.571, 92.834 -7.684, 92.917 -7.787, 93.008 -7.878, 93.184 -8.007, 93.316 -8.075, 93.488 -8.136, 93.706 -8.172, 93.938 -8.166, 94.074 -8.14, 94.215 -8.096, 94.359 -8.028, 94.509 -7.93, 94.654 -7.797, 94.775 -7.641, 94.869 -7.465, 94.933 -7.275, 94.962 -7.08, 94.96 -6.886, 94.938 -6.749, 94.876 -6.55, 94.817 -6.429, 94.746 -6.316, 94.663 -6.213, 94.572 -6.122, 94.396 -5.993, 94.264 -5.925, 94.092 -5.864, 93.874 -5.828, 93.642 -5.834, 93.506 -5.86, 93.365 -5.904, 93.221 -5.972, 93.071 -6.07, 92.926 -6.203, 92.805 -6.359, 92.711 -6.535, 92.647 -6.725, 92.618 -6.92, 92.62 -7.114, 92.642 -7.251)), ((85.356 0.441, 85.36549260355034 0.4646260355030837, 85.37 0.482, 85.38585128841973 0.5191567836075536, 85.407 0.58, 85.40784615384614 0.5816923076922785, 85.41 0.588, 85.43518070444105 0.6380719754977425, 85.446 0.665, 85.45363700738916 0.678052339901477, 85.463 0.7, 85.4793120567376 0.7258274231678709, 85.497 0.761, 85.5291342901076 0.8070840594566498, 85.556 0.853, 85.57472093023259 0.8768914728682707, 85.583 0.89, 85.59368950749467 0.9023340471092386, 85.607 0.922, 85.61738063063062 0.9336388888888818, 85.626 0.946, 85.64272532306842 0.9636780313444666, 85.661 0.987, 85.70750402144783 1.034686327077865, 85.739 1.07, 85.75164764123468 1.0799522422830312, 85.779 1.108, 85.78005639503509 1.1088317593092436, 85.784 1.113, 85.927 1.227, 85.94059325605899 1.235231471724608, 85.953 1.245, 86.01767556296905 1.2819090909090394, 86.107 1.336, 86.1266027131783 1.3440717054263622, 86.144 1.354, 86.2568 1.3976823529411762, 86.328 1.427, 86.33961958356781 1.4297546426561614, 86.348 1.433, 86.56 1.482, 86.789 1.5, 86.78999999999999 1.499922077922079, 86.791 1.5, 87.02 1.482, 87.232 1.433, 87.2403804164322 1.4297546426561596, 87.252 1.427, 87.3231999999999 1.3976823529412175, 87.436 1.354, 87.45339728682175 1.3440717054263365, 87.473 1.336, 87.56232443703094 1.2819090909090494, 87.627 1.245, 87.63940674394095 1.2352314717246524, 87.653 1.227, 87.796 1.113, 87.79994360496495 1.1088317593092116, 87.801 1.108, 87.919 0.987, 87.93727467693155 0.9636780313445059, 87.954 0.946, 87.97721879382885 0.9127017297803263, 88.024 0.853, 88.05086570989239 0.8070840594566543, 88.083 0.761, 88.11462453253553 0.6981144353029209, 88.134 0.665, 88.14481929555897 0.6380719754976883, 88.17 0.588, 88.1986570397112 0.5040758122743789, 88.224 0.441, 88.23109090909094 0.4090909090908266, 88.24 0.383, 88.2630222222222 0.2654000000001069, 88.274 0.216, 88.27479549114332 0.2052608695652257, 88.277 0.194, 88.29 0, 88.277 -0.194, 88.27479549114332 -0.2052608695652148, 88.274 -0.216, 88.2630222222222 -0.2654000000001069, 88.24 -0.383, 88.23109090909092 -0.4090909090908616, 88.224 -0.441, 88.19865703971115 -0.5040758122744884, 88.17 -0.588, 88.14481929555895 -0.6380719754977411, 88.134 -0.665, 88.11462453253559 -0.698114435302811, 88.083 -0.761, 88.05086570989236 -0.8070840594566899, 88.024 -0.853, 87.97721879382885 -0.9127017297803263, 87.954 -0.946, 87.93727467693155 -0.9636780313444983, 87.919 -0.987, 87.801 -1.108, 87.79994360496495 -1.1088317593092105, 87.796 -1.113, 87.653 -1.227, 87.63940674394097 -1.2352314717246398, 87.627 -1.245, 87.56232443703092 -1.2819090909090558, 87.473 -1.336, 87.45339728682175 -1.34407170542634, 87.436 -1.354, 87.3231999999999 -1.3976823529412175, 87.252 -1.427, 87.24038041643219 -1.4297546426561625, 87.232 -1.433, 87.02 -1.482, 86.791 -1.5, 86.78999999999999 -1.4999220779220785, 86.789 -1.5, 86.56 -1.482, 86.348 -1.433, 86.33961958356781 -1.4297546426561623, 86.328 -1.427, 86.2568 -1.3976823529411762, 86.144 -1.354, 86.1266027131783 -1.344071705426358, 86.107 -1.336, 86.01767556296913 -1.2819090909090831, 85.953 -1.245, 85.94059325605902 -1.235231471724632, 85.927 -1.227, 85.784 -1.113, 85.78005639503513 -1.1088317593092756, 85.779 -1.108, 85.75164764123468 -1.0799522422830317, 85.739 -1.07, 85.70750402144773 -1.034686327077763, 85.661 -0.987, 85.64272532306839 -0.9636780313444373, 85.626 -0.946, 85.61738063063063 -0.9336388888888852, 85.607 -0.922, 85.59368950749464 -0.9023340471092046, 85.583 -0.89, 85.57472093023257 -0.8768914728682403, 85.556 -0.853, 85.5291342901076 -0.807084059456641, 85.497 -0.761, 85.47931205673758 -0.7258274231678447, 85.463 -0.7, 85.45363700738915 -0.6780523399014593, 85.446 -0.665, 85.43518070444104 -0.6380719754977113, 85.41 -0.588, 85.40784615384615 -0.5816923076923091, 85.407 -0.58, 85.38585128841969 -0.5191567836074344, 85.37 -0.482, 85.36549260355031 -0.4646260355030041, 85.356 -0.441, 85.35124170616113 -0.419587677725101, 85.342 -0.393, 85.34 -0.383, 85.32547619047618 -0.3103809523809419, 85.315 -0.27, 85.30971134020618 -0.2327010309277897, 85.306 -0.216, 85.30564705882352 -0.2112352941176445, 85.303 -0.198, 85.30145544554455 -0.1744752475246971, 85.296 -0.136, 85.29 0, 85.296 0.136, 85.30145544554455 0.1744752475247482, 85.303 0.198, 85.30564705882352 0.2112352941176414, 85.306 0.216, 85.30971134020619 0.2327010309278911, 85.315 0.27, 85.3254761904762 0.3103809523809584, 85.34 0.383, 85.342 0.393, 85.35124170616112 0.4195876777250515, 85.356 0.441)), ((99.356 0.441, 99.36549260355034 0.4646260355030837, 99.37 0.482, 99.38585128841973 0.5191567836075536, 99.407 0.58, 99.40784615384614 0.5816923076922785, 99.41 0.588, 99.43518070444105 0.6380719754977425, 99.446 0.665, 99.45363700738916 0.6780523399014918, 99.463 0.7, 99.4793120567376 0.7258274231678709, 99.497 0.761, 99.5291342901076 0.8070840594566604, 99.556 0.853, 99.57472093023259 0.8768914728682707, 99.583 0.89, 99.59368950749467 0.9023340471092386, 99.607 0.922, 99.61738063063062 0.9336388888888818, 99.626 0.946, 99.6427253230684 0.963678031344455, 99.661 0.987, 99.70750402144783 1.034686327077865, 99.70750402144785 1.0346863270778783, 99.739 1.07, 99.75164764123468 1.0799522422830312, 99.779 1.108, 99.78005639503509 1.1088317593092436, 99.784 1.113, 99.927 1.227, 99.94059325605897 1.2352314717246005, 99.953 1.245, 100.01767556296905 1.2819090909090394, 100.107 1.336, 100.12660271317829 1.3440717054263553, 100.144 1.354, 100.2568 1.3976823529411762, 100.328 1.427, 100.3396195835678 1.429754642656159, 100.348 1.433, 100.56 1.482, 100.789 1.5, 100.78999999999999 1.499922077922079, 100.791 1.5, 101.02 1.482, 101.232 1.433, 101.2403804164322 1.4297546426561596, 101.252 1.427, 101.3231999999999 1.3976823529412175, 101.436 1.354, 101.45339728682174 1.344071705426345, 101.473 1.336, 101.56232443703094 1.2819090909090494, 101.627 1.245, 101.63940674394097 1.2352314717246433, 101.653 1.227, 101.796 1.113, 101.79994360496494 1.1088317593092234, 101.79994360496494 1.1088317593092216, 101.801 1.108, 101.919 0.987, 101.93727467693155 0.9636780313445059, 101.954 0.946, 101.97721879382885 0.9127017297803263, 102.024 0.853, 102.05086570989239 0.8070840594566543, 102.083 0.761, 102.11462453253553 0.6981144353029209, 102.134 0.665, 102.14481929555897 0.6380719754976883, 102.17 0.588, 102.19865703971115 0.5040758122744884, 102.19865703971118 0.5040758122744013, 102.1986570397112 0.5040758122743789, 102.224 0.441, 102.23109090909094 0.4090909090908266, 102.24 0.383, 102.2630222222222 0.2654000000001069, 102.274 0.216, 102.27479549114332 0.2052608695652343, 102.277 0.194, 102.29 0, 102.277 -0.194, 102.27479549114332 -0.2052608695652148, 102.274 -0.216, 102.2630222222222 -0.2654000000001069, 102.24 -0.383, 102.23109090909092 -0.4090909090908718, 102.224 -0.441, 102.19865703971115 -0.5040758122744884, 102.17 -0.588, 102.14481929555895 -0.6380719754977411, 102.134 -0.665, 102.11462453253553 -0.6981144353029175, 102.083 -0.761, 102.05086570989235 -0.8070840594567142, 102.024 -0.853, 101.97721879382885 -0.9127017297803263, 101.954 -0.946, 101.9372746769316 -0.9636780313444552, 101.919 -0.987, 101.801 -1.108, 101.79994360496495 -1.1088317593092105, 101.796 -1.113, 101.653 -1.227, 101.63940674394095 -1.235231471724655, 101.627 -1.245, 101.56232443703094 -1.2819090909090494, 101.473 -1.336, 101.45339728682175 -1.3440717054263411, 101.436 -1.354, 101.3231999999999 -1.3976823529412175, 101.252 -1.427, 101.2403804164322 -1.4297546426561596, 101.232 -1.433, 101.02 -1.482, 100.791 -1.5, 100.78999999999999 -1.4999220779220785, 100.789 -1.5, 100.56 -1.482, 100.348 -1.433, 100.3396195835678 -1.4297546426561594, 100.328 -1.427, 100.2568 -1.3976823529411762, 100.144 -1.354, 100.12660271317831 -1.3440717054263664, 100.107 -1.336, 100.01767556296913 -1.281909090909085, 99.953 -1.245, 99.94059325605902 -1.235231471724632, 99.927 -1.227, 99.784 -1.113, 99.78005639503513 -1.1088317593092756, 99.779 -1.108, 99.75164764123468 -1.0799522422830317, 99.739 -1.07, 99.70750402144773 -1.034686327077763, 99.661 -0.987, 99.64272532306839 -0.9636780313444373, 99.626 -0.946, 99.61738063063063 -0.9336388888888852, 99.61738063063062 -0.9336388888888633, 99.607 -0.922, 99.59368950749464 -0.9023340471092094, 99.583 -0.89, 99.57472093023257 -0.876891472868244, 99.556 -0.853, 99.5291342901076 -0.8070840594566482, 99.497 -0.761, 99.47931205673758 -0.7258274231678447, 99.463 -0.7, 99.45363700738915 -0.6780523399014593, 99.446 -0.665, 99.43518070444104 -0.6380719754977113, 99.41 -0.588, 99.40784615384615 -0.5816923076923091, 99.40784615384615 -0.5816923076923086, 99.407 -0.58, 99.38585128841969 -0.5191567836074344, 99.37 -0.482, 99.36549260355031 -0.4646260355030101, 99.356 -0.441, 99.35124170616113 -0.419587677725101, 99.35124170616113 -0.4195876777250838, 99.342 -0.393, 99.34 -0.383, 99.32547619047618 -0.3103809523809419, 99.315 -0.27, 99.30971134020619 -0.2327010309279018, 99.306 -0.216, 99.30564705882352 -0.2112352941176445, 99.303 -0.198, 99.30145544554455 -0.1744752475246971, 99.296 -0.136, 99.29 0, 99.296 0.136, 99.30145544554455 0.1744752475247482, 99.303 0.198, 99.30564705882352 0.2112352941176414, 99.306 0.216, 99.30971134020619 0.2327010309278911, 99.315 0.27, 99.3254761904762 0.3103809523809584, 99.342 0.393, 99.3512417061611 0.4195876777250251, 99.356 0.441)), ((92.29593258426966 6.923044943820242, 92.29593258426966 6.923044943820294, 92.29 7.015, 92.29357792836399 7.064324298160646, 92.293 7.099, 92.29928421052631 7.142989473684153, 92.304 7.208, 92.31724137931033 7.2686896551723805, 92.324 7.316, 92.3409942196532 7.377556840077153, 92.352 7.428, 92.36225116761806 7.4545542293720635, 92.369 7.479, 92.431 7.636, 92.4367368421054 7.646157894737106, 92.523 7.803, 92.53279575736329 7.816243863955166, 92.54 7.829, 92.59638169642831 7.902212053571084, 92.648 7.972, 92.65725000000005 7.981250000000055, 92.674 8.003, 92.78685714285696 8.110857142856974, 92.817 8.141, 92.82279851915135 8.145206179695277, 92.832 8.154, 93.009 8.281, 93.214 8.385, 93.21687531622696 8.385936754607878, 93.217 8.386, 93.435 8.457, 93.65 8.493, 93.65888624597733 8.49320288232825, 93.67 8.495, 93.73759999999997 8.495, 93.869 8.498, 93.89235714285715 8.495, 93.909 8.495, 94.0127773019272 8.47953319057816, 94.087 8.47, 94.09894813900162 8.466690421591105, 94.117 8.464, 94.293 8.413, 94.29336797412053 8.412837040032342, 94.3 8.411, 94.455 8.344, 94.4782536824877 8.330959083469734, 94.503 8.32, 94.53890551181107 8.29694488188974, 94.603 8.261, 94.64771962616823 8.227074766355141, 94.693 8.198, 94.74353846153848 8.154384615384604, 94.777 8.129, 94.79872413793103 8.106758620689662, 94.839 8.072, 94.89888990825693 8.00420795107028, 94.945 7.957, 94.96224652338806 7.932491782553797, 94.983 7.909, 95.06378145695372 7.788205298013142, 95.078 7.768, 95.08022772078053 7.763612753973061, 95.09 7.749, 95.176 7.575, 95.238 7.391, 95.23996656050956 7.381218949044593, 95.244 7.369, 95.25298839907194 7.316452436194834, 95.276 7.202, 95.27807968127489 7.169764940239079, 95.283 7.141, 95.28406741573035 7.076955056179749, 95.29 6.985, 95.28642207163601 6.935675701839318, 95.287 6.901, 95.28071578947367 6.857010526315662, 95.276 6.792, 95.26275862068968 6.7313103448276985, 95.256 6.684, 95.2390057803468 6.622443159922847, 95.228 6.572, 95.21774883238193 6.545445770627908, 95.211 6.521, 95.149 6.364, 95.14326315789462 6.353842105262951, 95.057 6.197, 95.04720424263677 6.1837561360449, 95.04 6.171, 94.98361830357135 6.09778794642845, 94.932 6.028, 94.92275000000002 6.018750000000014, 94.906 5.997, 94.79314285714284 5.889142857142831, 94.763 5.859, 94.75720148084866 5.85479382030473, 94.748 5.846, 94.571 5.719, 94.366 5.615, 94.36312468377304 5.614063245392118, 94.363 5.614, 94.145 5.543, 93.93 5.507, 93.92111375402266 5.50679711767175, 93.91 5.505, 93.84240000000001 5.505, 93.711 5.502, 93.68764285714286 5.505, 93.671 5.505, 93.56722269807267 5.520466809421859, 93.56722269807264 5.520466809421863, 93.493 5.53, 93.4810518609984 5.533309578408891, 93.463 5.536, 93.287 5.587, 93.28663202587951 5.587162959967646, 93.28 5.589, 93.125 5.656, 93.10174631751228 5.669040916530275, 93.077 5.68, 93.04109448818895 5.703055118110252, 92.977 5.739, 92.93228037383179 5.772925233644853, 92.93228037383179 5.772925233644854, 92.887 5.802, 92.8364615384615 5.845615384615407, 92.803 5.871, 92.78127586206898 5.893241379310332, 92.741 5.928, 92.68111009174304 5.995792048929751, 92.635 6.043, 92.61775347661194 6.067508217446203, 92.597 6.091, 92.51621854304626 6.211794701986884, 92.502 6.232, 92.49977227921946 6.236387246026971, 92.49 6.251, 92.404 6.425, 92.342 6.609, 92.34003343949045 6.618781050955406, 92.336 6.631, 92.32701160092806 6.683547563805166, 92.304 6.798, 92.30192031872511 6.830235059760921, 92.297 6.859, 92.29593258426966 6.923044943820242), (92.35500576936607 7.428309786814887, 92.35500576936607 7.4283097868148875, 92.352 7.428, 92.35500576936607 7.428309786814887), (94.11682758379008 8.461737899325765, 94.11682758379008 8.461737899325763, 94.117 8.464, 94.11682758379008 8.461737899325765), (94.77609574468086 8.126287234042557, 94.77609574468086 8.126287234042554, 94.777 8.129, 94.77609574468086 8.126287234042557), (94.8353001681186 8.06931173264048, 94.8353001681186 8.069311732640477, 94.839 8.072, 94.8353001681186 8.06931173264048), (95.27272193958665 7.201087122416537, 95.27272193958665 7.201087122416535, 95.276 7.202, 95.27272193958665 7.201087122416537), (93.46317241620991 5.538262100674241, 93.46317241620991 5.538262100674243, 93.463 5.536, 93.46317241620991 5.538262100674241), (93.28011251826595 5.590050170482218, 93.28011251826595 5.590050170482219, 93.28 5.589, 93.28011251826595 5.590050170482218), (92.80390425531915 5.873712765957438, 92.80390425531914 5.873712765957445, 92.803 5.871, 92.80390425531915 5.873712765957438), (92.30727806041335 6.798912877583463, 92.30727806041335 6.798912877583465, 92.304 6.798, 92.30727806041335 6.798912877583463), (92.642 6.749, 92.704 6.55, 92.763 6.429, 92.834 6.316, 92.917 6.213, 93.008 6.122, 93.184 5.993, 93.316 5.925, 93.488 5.864, 93.706 5.828, 93.938 5.834, 94.074 5.86, 94.215 5.904, 94.359 5.972, 94.509 6.07, 94.654 6.203, 94.775 6.359, 94.869 6.535, 94.933 6.725, 94.962 6.92, 94.96 7.114, 94.938 7.251, 94.876 7.45, 94.817 7.571, 94.746 7.684, 94.663 7.787, 94.572 7.878, 94.396 8.007, 94.264 8.075, 94.092 8.136, 93.874 8.172, 93.642 8.166, 93.506 8.14, 93.365 8.096, 93.221 8.028, 93.071 7.93, 92.926 7.797, 92.805 7.641, 92.711 7.465, 92.647 7.275, 92.618 7.08, 92.62 6.886, 92.642 6.749)), ((-85.05333106134371 82.06845666991236, -85.37591472868218 83.10034711455644, -85.42904519774011 83.23022159447582, -85.87220088633259 84.1550293244072, -85.94170543985076 84.26813727074911, -86.46533770491796 85.049481967213, -86.57606183330327 85.19873054902679, -86.988 85.682, -87.197 85.939, -87.365 86.23, -87.447 86.506, -87.499 86.779, -87.21 87.026, -87.08530000000006 86.97655000000003, -86.75711080592708 86.8597490422841, -86.62682937941864 86.82465891594657, -86.28995867768592 86.75968595041321, -86.162 86.74, -85.782 86.724, -85.58288867562369 86.74158157389637, -85.28506050955406 86.77426251137399, -85.10112857877604 86.81722166980968, -84.8352138890255 86.88681210989333, -84.67369482316741 86.94743475140962, -84.38167164975994 87.07380352375858, -84.30325786163509 87.11372327044033, -83.93689617918312 87.34136548089592, -83.89199509001642 87.37639607201304, -83.56061764705885 87.65851470588234, -83.53721276595738 87.68321985815611, -83.23803992046496 88.0284916641175, -83.22808059384947 88.04286956521732, -82.974 88.442, -82.79432634431603 88.84993253458862, -82.77208045612926 88.90864333227742, -82.66223053589485 89.31028210313448, -82.64133524355302 89.4297335243553, -82.6047476280835 89.74530170777982, -82.59975794613565 89.83121101436004, -82.59594294208449 89.89689543193649, -82.60479811221815 90.16531777661247, -82.61597277615492 90.31378116891528, -82.62127738735015 90.38425671765197, -82.67025762711857 90.65030847457592, -82.7116207253886 90.8403202072539, -82.81107734138969 91.12743081570987, -82.879 91.31, -83.092 91.708, -83.332 92.039, -83.41246843709185 92.12785851110142, -83.66079538300103 92.37836376355368, -83.78 92.486, -84.042 92.68, -84.331 92.852, -84.008 93.102, -83.8 93.223, -83.572 93.32, -83.335 93.363, -83.154 93.327, -83.105 93.347, -82.21 93.231, -82.16394444444488 93.23, -81.16518644067789 93.23, -80.92803831028802 93.24868056033779, -79.94805179950805 93.38954281894196, -78.825 93.716, -78.39967566041997 93.53037457665388, -77.74676556016601 93.33612033195021, -77.73939064475344 93.33455120101137, -77.19987412244899 93.26746595918367, -77.13561977186309 93.26475792141952, -76.63702077151335 93.27514540059347, -76.55436409994896 93.28297603263641, -76.06052983358144 93.36571722365036, -75.98610759855262 93.38469739097316, -75.49724676480659 93.54081170831907, -75.45509316051378 93.55857759518577, -74.9855701986755 93.78652781456952, -74.94100306748464 93.81265337423314, -74.57416349809893 94.06235089625198, -74.40156042111678 94.19991425083926, -74.063 94.509, -73.10996589769323 94.79398495486454, -72.99300547795123 94.83507915639551, -72.1340798435881 95.22334860131681, -72.11284620287856 95.23508667002588, -71.94152732928461 95.32979264800274, -71.15909009362282 95.81967385585678, -71.10031028613129 95.8648506930371, -70.37156559189849 96.47110988243512, -70.257 96.574, -70.148 96.64, -70.034 96.755, -69.887 96.774, -69.775 96.893, -69.428 97.057, -69.084 97.199, -68.735 96.748, -68.79 96.273, -68.776 95.806, -68.695 95.346, -68.534034137577 94.87076745379873, -68.46427301858574 94.72984298226868, -68.32329169623851 94.45978542701687, -68.20444457077869 94.2852876634449, -68.0581287899115 94.08474295680178, -68.024492639266 94.04740682958526, -67.90753206239158 93.91758058925467, -67.73337217598105 93.74189298454228, -67.66187403847209 93.68203407872082, -67.56519745222921 93.60109554140121, -67.36523130034531 93.45240276179523, -67.26389020197288 93.38893123176196, -67.17962382107241 93.3361538668822, -66.96081105372592 93.21907881145616, -66.76317453092042 93.1301665371378, -66.51676232898501 93.04300763601654, -66.31842677310414 92.98548572305805, -66.06764685108884 92.93659152442613, -65.85393668652107 92.90523450253696, -65.59886976744178 92.89471627906977, -65.53217855910668 92.89427068079581, -65.3867786829052 92.89329918941807, -65.1190986601704 92.92211774259034, -64.9243563102605 92.94755705856957, -64.51610568463799 93.05526573426572, -64.40852754010689 93.09605989304815, -64.12785299405337 93.21688839717882, -63.96167199108478 93.30287481426444, -63.72100697674416 93.45263488372095, -63.512 93.599, -62.782 93.462, -62.664 93.241, -62.57 93, -62.552 92.648, -62.586 92.301, -62.679865089389814 91.35468664982508, -62.67938530510585 91.15797509339978, -62.655899337748345 90.36899337748349, -62.62903244005641 90.10032440056412, -62.47761714526703 89.19268808547073, -62.158 88.149, -62.229800274772465 87.68106027820704, -62.245562502879785 87.50114021103079, -62.24895674596573 87.01321776742648, -62.248 86.991, -62.176 86.458, -62.171 86.435, -62.155 86.365, -62.127 86.251, -62.089 86.114, -62.171 86.438, -62.01826666666667 85.90440000000001, -62.00463445029077 85.86746109111048, -61.777 85.363, -61.902 85.615, -61.808 85.421, -62.519 85.793, -62.52563614587795 85.80202711020162, -62.582 85.696, -62.72666356228032 85.42609080326223, -62.882 85.135, -63.076785053023606 84.77038939127041, -63.049 84.679, -63.0453737500595 84.65521854690184, -61.259529014132916 83.70160117131536, -61.19192225705332 83.74245705329152, -61.148 83.772, -61.039 83.824, -60.97 83.837, -60.902 83.865, -60.776 83.884, -60.73543783783793 83.88339459459459, -60.618 83.888, -60.477 83.869, -60.38 83.839, -60.37419459459458 83.8363081081081, -60.367 83.835, -60.37266894197951 83.83560068259385, -60.201763869132286 83.75635419630156, -60.196 83.765, -59.68956790123451 83.5296978967495, -59.47015662650649 83.46173493975918, -59.145936938734785 83.3654088006386, -58.91594040524419 83.32778069129914, -58.59186474501114 83.280022172949, -58.34291061452517 83.27363873370578, -58.03041241691259 83.2730962021127, -57.762362566844985 83.30358994652406, -57.46939836734685 83.3457356734694, -57.29157590379337 83.38849298493058, -56.94851804502777 83.48979449032694, -56.77485527279831 83.55400932936062, -56.48654173074228 83.68686509157, -56.26100216399777 83.8036205013816, -56.003312063808536 83.97026719840481, -55.79494828209762 84.11668499095843, -55.56078902727095 84.32164193686907, -55.379429416237166 84.49021044183499, -55.17535306922098 84.72857161514989, -55.01782534888561 84.92100343678406, -54.731 85.376, -54.496 85.902, -54.322 86.293, -54.094 86.656, -53.817 86.982, -53.496 87.265, -53.138 87.5, -52.75 87.682, -52.341 87.806, -51.917 87.871, -51.489 87.875, -51.065 87.818, -50.653 87.701, -50.262 87.527, -48.256 86.456, -47.205 85.808, -46.242 85.035, -45.381 84.15, -44.636 83.165, -44.018 82.096, -41.393 76.828, -40.775 75.759, -40.03 74.774, -39.169 73.889, -38.206 73.116, -37.155 72.468, -25.857 66.433, -28.377770062093365 61.71353702183492, -24.343 59.558, -24.354 59.537, -24.60351206302332 59.069865583456085, -24.613 59.052, -24.724 58.844, -24.849 58.61, -24.873370854270988 58.56463819095546, -25.11162246711736 58.11858549591108, -25.13 58.084, -25.162439759035237 58.02344578313423, -25.349638704647052 57.6729734685839, -25.356003557137132 57.661052912404344, -25.431 57.52, -25.526742857142533 57.34128000000061, -26.268 55.953, -26.286995394201917 55.91806204280719, -26.357 55.787, -26.369 55.766, -30.40358636714147 57.92121016652914, -32.925 53.202, -44.222 59.238, -45.346 59.751, -46.523 60.122, -47.738 60.346, -48.971 60.417, -50.203 60.337, -56.041 59.59, -57.273 59.509, -58.506 59.581, -59.72 59.804, -60.898 60.175, -62.021 60.689, -64.027 61.76, -64.389 61.988, -64.715 62.266, -64.998 62.587, -65.233 62.945, -65.415 63.333, -65.539 63.743, -65.604 64.166, -65.607 64.594, -65.55 65.018, -65.433 65.43, -65.259 65.821, -65.03 66.183, -64.726 66.666, -64.493 67.188, -64.34928770071178 67.69375674557197, -64.3099316367266 67.93858807385188, -64.26856990010049 68.24662416504107, -64.26266501976285 68.49281225296438, -64.26539866687828 68.80444802412315, -64.29216460574914 69.04489537497972, -64.3388176755583 69.35139519407483, -64.41992255091417 69.66140790842849, -64.4965409413282 69.91341779497107, -64.61863117870716 70.19898479087438, -64.73821692686937 70.45446343467545, -64.90813238770674 70.72794641449943, -65.04578706095754 70.93884043313366, -65.21032248024896 71.13561910462052, -65.41378733282515 71.36599729748457, -65.56288362271225 71.50301595495065, -65.8270989761093 71.7277508532424, -65.94089614243312 71.812181008902, -66.368 72.081, -66.419 72.119, -66.406 72.147, -66.41899115044248 72.14815992414665, -66.431 72.125, -66.55584771679935 72.20321784666947, -66.555 72.202, -66.5565269012486 72.2036433598184, -66.58099389179756 72.21897207678883, -66.576 72.213, -66.58317622667587 72.22033932273669, -66.597 72.229, -66.665 72.285, -66.76 72.392, -66.81842307692311 72.48798076923082, -66.844 72.525, -66.898 72.64, -66.91398107255522 72.71520504731863, -66.94 72.777, -66.958 72.902, -66.95630969937606 72.90521157118548, -66.96161934666232 73.02885050085135, -68.7467583645955 73.98241097827444, -68.769 73.972, -68.86032679593649 73.94440124298622, -69.055 73.58, -69.206 73.297, -69.28498795180745 73.1496265060237, -69.39427464788774 72.94511971830909, -69.43479504608368 72.86889603219225, -68.583 72.539, -68.65861151079127 72.53003863575807, -69.18073532273758 72.44255757379176, -69.21142328162155 72.43506567772619, -69.743 72.265, -69.484 72.358, -69.618 72.312, -69.702 72.281, -69.746 72.264, -69.758 72.259, -69.762 72.257, -70.28135294117646 71.9978, -70.68732103321037 71.72174169741695, -70.79762043146259 71.63193135147164, -71.158 71.303, -72.10578026905827 71.0198609865471, -72.23204772234273 70.97549674620392, -73.09157411033833 70.58607866837733, -73.27496445880452 70.48469951534734, -74.06182521531802 69.99237170940583, -74.12145954758499 69.94650886488697, -74.84905773581954 69.34120347975352, -74.964 69.238, -75.073 69.172, -75.187 69.056, -75.334 69.038, -75.446 68.919, -75.793 68.754, -76.137 68.612, -76.485 69.071, -76.431 69.541, -76.446 70.01, -76.526 70.468, -76.68578836529088 70.93785388365292, -76.76334426229504 71.09452459016384, -76.8977341772152 71.35135864978903, -77.00674522292992 71.51184713375794, -77.17133174451858 71.73664823641562, -77.2936239168111 71.87239254766031, -77.49933650416173 72.07990963139123, -77.63903715775747 72.19686831812254, -77.8654618004314 72.36566818027019, -78.02916019095608 72.46819506696723, -78.27323023624128 72.5984795433549, -78.45428041735441 72.67948732610235, -78.69950793149698 72.76695359482278, -78.69969224400141 72.76700747736469, -78.90286542787294 72.82640381418095, -79.16836150138424 72.87761060404057, -79.35873166231673 72.90554302043022, -79.63130110358625 72.91734499623777, -79.8314274747498 72.91868214348385, -79.83334591618481 72.91869496157807, -80.13329451137898 72.88578134761266, -80.28947923369401 72.86537883884178, -80.70872097015331 72.75566238440669, -80.80226924554901 72.72018842064807, -81.10487544041442 72.58924000000005, -81.25346905089411 72.51193928080171, -81.49762496672871 72.36059808357737, -81.709 72.213, -82.44 72.35, -82.558 72.571, -82.651 72.811, -82.669 73.164, -82.635 73.511, -82.54113263050502 74.4563785070567, -82.54161203819012 74.65293565794914, -82.56514304635762 75.44343046357612, -82.5917179125529 75.70917912552895, -82.74338285473296 76.61831191452919, -83.063 77.662, -82.99289595033994 78.1204966006503, -82.9752870964825 78.33347988064028, -82.97219488320356 78.77798553948827, -82.97530086956522 78.83012173913052, -83.04491563113145 79.3388449967298, -83.05661778945914 79.39887273481817, -83.20126923845689 79.89882430541665, -83.21846760895171 79.94772163329411, -83.44249796472187 80.44304613297155, -83.45123702252693 80.45965034280115, -83.74609044913213 80.92244617420414, -83.77586051282039 80.96102974358959, -84.11538654504001 81.35473546180171, -84.1428550185873 81.38297769516723, -84.65936311916866 81.81015819616175, -85.051 82.061, -85.05284654321508 82.06690677858859, -85.053 82.067, -85.05333106134371 82.06845666991236), (-82.909 88.572, -82.85 88.703, -82.974 88.442, -82.909 88.572), (-79.004 93.651, -78.876 93.697, -78.852 93.706, -78.836 93.712, -78.825 93.716, -79.004 93.651), (-74.197 94.374, -74.055 94.511, -74.029 94.517, -73.936 94.539, -73.72 94.595, -74.063 94.509, -74.197 94.374), (-74.34961148769158 94.24131716018566, -74.281 94.296, -74.33637947050643 94.24918160705978, -74.31 94.27, -74.37938021338518 94.21282832201736, -74.48372178060394 94.12461685214642, -74.44 94.159, -74.264 94.279, -74.103 94.329, -74.247 94.294, -74.21 94.329, -74.053 94.377, -73.886 94.383, -73.742 94.337, -73.836 94.376, -73.935 94.395, -74.037 94.393, -74.135 94.371, -74.157 94.378, -74.121 94.412, -74.09091666666664 94.44208333333334, -74.197 94.374, -74.34961148769158 94.24131716018566), (-74.35 94.204, -74.325 94.225, -74.44 94.159, -74.35 94.204), (-73.909 94.36, -73.761 94.319, -73.899 94.369, -74.053 94.377, -73.909 94.36), (-62.338 88.672, -62.204 88.272, -62.164 88.165, -62.196 87.963, -62.158 88.149, -62.338 88.672), (-62.2 88.202, -62.199 88.088, -62.207 88.047, -62.215 87.999, -62.263 88.148, -62.357 88.261, -62.327 88.2, -62.39288576779025 88.26021348314605, -62.479 88.321, -62.362 88.225, -62.271 88.101, -62.274 88.081, -62.278 88.062, -62.227 87.928, -62.234 87.883, -62.284 88.028, -62.236 87.869, -62.239 87.651, -62.242686170212764 87.60267021276594, -62.22569377990429 87.75446889952165, -62.22 87.811, -62.221899441340774 87.78836499068908, -62.215 87.85, -62.22454479551362 87.74104965121037, -62.196 87.963, -62.2 88.202), (-62.335 88.391, -62.244 88.25, -62.2 88.202, -62.335 88.391), (-62.366 88.204, -62.485 88.291, -62.368 88.195, -62.274 88.081, -62.366 88.204), (-62.376 88.153, -62.378 88.137, -62.284 88.028, -62.376 88.153), (-62.249 87.774, -62.305 87.894, -62.252 87.745, -62.239 87.651, -62.249 87.774), (-62.276 87.073, -62.273 87.029, -62.248 86.991, -62.276 87.073), (-62.225 86.757, -62.185 86.503, -62.215 86.489, -62.2133316168898 86.4779886714727, -62.187 86.464, -62.176 86.458, -62.225 86.757), (-62.224 86.584, -62.239 86.556, -62.215 86.489, -62.224 86.584), (-62.309 86.661, -62.292 86.64, -62.224 86.584, -62.309 86.661), (-62.041 85.966, -62.02722222222222 85.92866666666667, -62.089 86.114, -62.041 85.966), (-61.99760671722642 85.84841820151675, -61.979 85.798, -61.902 85.615, -61.99760671722642 85.84841820151675), (-62.58079851821363 85.69943280510391, -62.58160401546497 85.69792335345586, -62.582 85.696, -62.58079851821363 85.69943280510391), (-24.388 59.474, -24.55326315789458 59.16448320268786, -24.589989583333487 59.09532812499971, -24.354 59.537, -24.388 59.474), (-69.22479999999999 72.4318, -69.31 72.411, -69.484 72.358, -69.22479999999999 72.4318), (-69.804 72.24, -69.962 72.169, -70.109 72.096, -69.762 72.257, -69.804 72.24), (-69.78330556082747 72.26838094515088, -69.79814398496241 72.27630729323309, -69.804 72.24, -69.78330556082747 72.26838094515088), (-71.024 71.437, -71.166 71.301, -71.192 71.295, -71.225 71.308, -71.285 71.273, -71.501 71.217, -71.158 71.303, -71.024 71.437), (-70.84171884749483 71.5960245916683, -70.94 71.516, -70.734 71.69, -70.617 71.779, -70.74 71.686, -70.836 71.607, -70.945 71.543, -71.103 71.497, -70.957 71.533, -71 71.494, -71.156 71.447, -71.319 71.445, -71.466 71.488, -71.476 71.478, -71.479 71.474, -71.385 71.436, -71.286 71.417, -71.185 71.419, -71.086 71.441, -71.215 71.391, -71.065 71.434, -71.1 71.4, -71.132875 71.367125, -71.024 71.437, -70.84171884749483 71.5960245916683), (-70.675 71.765, -70.71 71.738, -70.617 71.779, -70.675 71.765), (-70.833 71.64, -70.986 71.602, -70.852 71.624, -70.74 71.686, -70.833 71.64), (-71.255 71.507, -71.267 71.495, -71.103 71.497, -71.255 71.507), (-83.017 77.54, -83.057 77.647, -83.025 77.848, -83.063 77.662, -83.017 77.54), (-83.021 77.61, -83.022 77.724, -83.014 77.764, -83.006 77.813, -82.958 77.664, -82.864 77.551, -82.895 77.612, -82.83267717996289 77.55500742115028, -82.742 77.491, -82.859 77.585, -82.947 77.727, -82.994 77.884, -82.987 77.935, -82.935 77.796, -82.983 77.957, -82.992 78.075, -82.982 78.17, -82.97955303810505 78.19914109165802, -82.99459375000006 78.06427604166616, -83.001 78, -82.99917096696409 78.02323366288871, -83.006 77.962, -82.9979348171701 78.05955030660917, -83.025 77.848, -83.021 77.61), (-82.887 77.42, -82.978 77.561, -83.021 77.61, -82.887 77.42), (-82.856 77.604, -82.737 77.517, -82.853 77.617, -82.947 77.727, -82.856 77.604), (-82.972 78.038, -82.969 78.07, -82.982 78.17, -82.972 78.038), (-84.839 81.937, -85.05240148765249 82.06663641773281, -85.051 82.061, -84.839 81.937), (-84.68730309423349 81.8332660864979, -84.716 81.857, -84.839 81.937, -84.68730309423349 81.8332660864979), (-84.675 81.829, -84.65134861407256 81.81100639658854, -84.59493749999996 81.77087499999998, -84.654 81.814, -84.733 81.909, -84.767 81.931, -84.854 82.108, -84.853 82.288, -84.864 82.295, -84.876 82.33, -84.83 82.475, -84.886 82.337, -84.913 82.328, -84.893 82.288, -84.88465681601525 82.19153193517641, -84.883 82.281, -84.863 82.094, -84.88217747683535 82.16286457590873, -84.877 82.103, -84.908 82.143, -84.852 81.986, -84.878 82.002, -84.716 81.857, -84.675 81.829), (-84.59126221252308 81.76826036595601, -84.59111090909092 81.76815272727274, -84.652 81.852, -84.694 81.881, -84.712 81.894, -84.733 81.909, -84.59126221252308 81.76826036595601), (-84.515 81.711, -84.604 81.818, -84.63 81.836, -84.652 81.852, -84.515 81.711), (-84.55842857142848 81.74357142857136, -84.52766666666653 81.71691111111102, -84.42 81.635, -84.515 81.711, -84.55842857142848 81.74357142857136), (-84.493 81.733, -84.524 81.757, -84.552 81.779, -84.42 81.635, -84.493 81.733), (-84.942 82.164, -84.956 82.173, -84.878 82.002, -84.942 82.164), (-24.5371688249397 59.19478848920928, -24.458470355730352 59.342094861661714, -24.519 59.229, -24.5371688249397 59.19478848920928), (-24.986 58.355, -25.018038634011404 58.29470507071465, -24.95489651531189 58.41289334741217, -24.986 58.355), (-31.477 64.662, -31.379 64.436, -31.249 64.226, -31.089 64.039, -30.902 63.877, -30.694 63.745, -30.469 63.645, -30.231 63.581, -30.255 63.576, -30.021 63.544, -29.785 63.546, -29.551 63.582, -29.325 63.65, -29.04 63.791, -29.264 63.685, -29.045 63.799, -28.846 63.945, -28.84 63.938, -28.697 64.076, -28.516 64.311, -28.454 64.417, -28.399 64.53, -28.407 64.534, -28.325 64.766, -28.278 65.008, -28.268 65.007, -28.257 65.205, -28.285 65.502, -28.318 65.645, -28.348 65.742, -28.357 65.738, -28.454 65.965, -28.446 65.969, -28.535 66.119, -28.738 66.369, -28.585 66.174, -28.745 66.362, -28.931 66.524, -29.139 66.656, -29.365 66.755, -29.362 66.764, -29.527 66.813, -29.847 66.858, -29.603 66.82, -29.848 66.849, -30.094 66.841, -30.095 66.85, -30.287 66.818, -30.513 66.749, -30.727 66.648, -30.925 66.518, -31.102 66.362, -31.17 66.288, -31.255 66.181, -31.318 66.09, -31.381 65.981, -31.435 65.871, -31.477 65.765, -31.518 65.637, -31.542 65.537, -31.565 65.394, -31.555 65.392, -31.566 65.146, -31.539 64.901, -31.477 64.662), (-35.717 56.724, -35.62 56.498, -35.628 56.493, -35.539 56.343, -35.336 56.094, -35.489 56.288, -35.329 56.101, -35.143 55.939, -34.935 55.807, -34.709 55.707, -34.712 55.698, -34.547 55.649, -34.227 55.604, -34.471 55.642, -34.226 55.614, -33.98 55.622, -33.979 55.612, -33.787 55.644, -33.638 55.686, -33.501 55.738, -33.504 55.747, -33.286 55.861, -33.087 56.007, -33.081 55.999, -32.936 56.138, -32.756 56.373, -32.694 56.48, -32.639 56.592, -32.648 56.596, -32.566 56.828, -32.519 57.07, -32.509 57.069, -32.498 57.267, -32.525 57.563, -32.508 57.316, -32.535 57.562, -32.598 57.8, -32.695 58.027, -32.825 58.236, -32.985 58.424, -33.172 58.585, -33.38 58.717, -33.606 58.817, -33.843 58.882, -33.819 58.887, -34.054 58.918, -34.29 58.916, -34.524 58.881, -34.751 58.812, -34.965 58.712, -35.163 58.582, -35.341 58.426, -35.41 58.35, -35.494 58.246, -35.559 58.151, -35.62 58.046, -35.675 57.932, -35.717 57.829, -35.758 57.699, -35.782 57.602, -35.806 57.455, -35.796 57.454, -35.806 57.208, -35.78 56.963, -35.717 56.724), (-38.533 68.432, -38.435 68.205, -38.305 67.996, -38.145 67.808, -37.959 67.647, -37.75 67.515, -37.525 67.415, -37.287 67.35, -37.311 67.345, -37.077 67.314, -36.84 67.316, -36.606 67.351, -36.38 67.42, -36.165 67.52, -35.967 67.65, -35.79 67.806, -35.72 67.882, -35.636 67.986, -35.572 68.081, -35.51 68.186, -35.455 68.3, -35.413 68.403, -35.372 68.533, -35.349 68.63, -35.325 68.777, -35.334 68.778, -35.324 69.024, -35.35 69.269, -35.413 69.508, -35.511 69.734, -35.502 69.739, -35.591 69.889, -35.794 70.138, -35.641 69.944, -35.801 70.131, -35.987 70.293, -36.196 70.425, -36.421 70.525, -36.418 70.534, -36.583 70.583, -36.904 70.628, -36.659 70.59, -36.904 70.618, -37.15 70.61, -37.151 70.62, -37.343 70.588, -37.569 70.518, -37.784 70.418, -37.981 70.288, -38.158 70.131, -38.226 70.058, -38.312 69.951, -38.374 69.859, -38.437 69.75, -38.491 69.64, -38.534 69.534, -38.574 69.407, -38.598 69.306, -38.621 69.163, -38.612 69.162, -38.622 68.916, -38.596 68.67, -38.533 68.432), (-42.773 60.494, -42.676 60.267, -42.684 60.263, -42.596 60.113, -42.392 59.863, -42.546 60.058, -42.386 59.87, -42.199 59.708, -41.991 59.576, -41.766 59.477, -41.769 59.468, -41.603 59.419, -41.283 59.374, -41.528 59.412, -41.283 59.383, -41.036 59.391, -41.035 59.382, -40.843 59.414, -40.617 59.483, -40.403 59.584, -40.205 59.714, -40.028 59.87, -39.961 59.944, -39.875 60.051, -39.812 60.142, -39.749 60.251, -39.696 60.361, -39.653 60.467, -39.613 60.595, -39.589 60.695, -39.565 60.838, -39.575 60.84, -39.565 61.086, -39.591 61.331, -39.654 61.57, -39.751 61.796, -39.882 62.005, -40.042 62.193, -40.228 62.355, -40.436 62.487, -40.662 62.587, -40.9 62.651, -40.875 62.656, -41.11 62.688, -41.347 62.686, -41.58 62.65, -41.807 62.581, -42.021 62.481, -42.219 62.352, -42.397 62.195, -42.467 62.12, -42.55 62.015, -42.615 61.921, -42.677 61.815, -42.732 61.702, -42.773 61.599, -42.815 61.468, -42.838 61.371, -42.862 61.225, -42.852 61.224, -42.863 60.977, -42.836 60.732, -42.773 60.494), (-51.692 81.219, -51.454 81.154, -51.209 81.125, -50.963 81.133, -50.72 81.178, -50.487 81.258, -50.268 81.373, -50.069 81.518, -49.894 81.692, -49.747 81.89, -49.631 82.107, -49.548 82.34, -49.501 82.582, -49.491 82.828, -49.517 83.073, -49.58 83.312, -49.678 83.538, -49.808 83.748, -49.968 83.935, -50.154 84.097, -50.363 84.229, -50.588 84.329, -50.826 84.393, -51.071 84.422, -51.318 84.414, -51.56 84.369, -51.793 84.289, -52.012 84.175, -52.211 84.029, -52.386 83.855, -52.533 83.658, -52.649 83.44, -52.732 83.208, -52.779 82.966, -52.789 82.719, -52.763 82.474, -52.7 82.236, -52.602 82.009, -52.472 81.8, -52.312 81.612, -52.126 81.45, -51.918 81.318, -51.692 81.219), (-62.073 65.799, -62.156 65.567, -62.203 65.325, -62.213 65.079, -62.186 64.833, -62.124 64.595, -62.026 64.368, -61.896 64.159, -61.736 63.971, -61.549 63.81, -61.341 63.678, -61.116 63.578, -60.878 63.513, -60.633 63.484, -60.386 63.493, -60.144 63.537, -59.911 63.618, -59.692 63.732, -59.493 63.878, -59.318 64.051, -59.171 64.249, -59.054 64.466, -58.972 64.699, -58.925 64.941, -58.915 65.187, -58.941 65.433, -59.004 65.671, -59.102 65.897, -59.232 66.107, -59.392 66.294, -59.578 66.456, -59.786 66.588, -60.012 66.688, -60.25 66.753, -60.495 66.782, -60.741 66.773, -60.984 66.729, -61.217 66.648, -61.435 66.534, -61.635 66.388, -61.81 66.215, -61.957 66.017, -62.073 65.799), (-62.24690637450199 87.54733864541835, -62.248 87.533, -62.24732808811959 87.53967112509834, -62.24713704686748 87.5431446024094, -62.24690637450199 87.54733864541835), (-62.263 87.643, -62.266 87.605, -62.248 87.533, -62.263 87.643), (-62.275 87.479, -62.277 87.432, -62.256 87.382, -62.275 87.479), (-62.257 87.2, -62.249237970711306 87.01974843096254, -62.256 87.382, -62.257 87.2), (-62.28 87.282, -62.28 87.228, -62.257 87.2, -62.28 87.282), (-62.482 89.207, -62.478659507171756 89.19609184749294, -62.604 89.85, -62.482 89.207), (-63.004 84.525, -63.024 84.604, -63.04035733835101 84.62232021895313, -63.03265891026379 84.5718328533579, -63.004 84.525), (-64.559 93.039, -64.92137395754364 92.94794664518574, -64.898 92.951, -64.559 93.039), (-64.80215452151035 90.09462247585553, -64.87827034701716 89.95207657544952, -64.878 89.952, -64.80215452151035 90.09462247585553), (-66.355 72.253, -66.317 72.33, -66.356 72.265, -66.35620581113801 72.26510895883777, -66.36066755827284 72.25663163928162, -66.355 72.253), (-68.692 73.993, -68.621 74.02, -68.67244995322731 74.01719363891488, -68.71618684210526 73.99672105263157, -68.692 73.993), (-69.172042917251 72.44467966339411, -68.853 72.507, -69.097 72.463, -69.172042917251 72.44467966339411), (-69.067 88.138, -69.096 88.25, -69.141 88.357, -69.199 88.457, -69.271 88.548, -69.378 88.648, -69.501 88.727, -69.635 88.785, -69.778 88.818, -69.893 88.827, -70.009 88.821, -70.122 88.798, -70.231 88.761, -70.335 88.709, -70.43 88.643, -70.516 88.565, -70.59 88.476, -70.651 88.378, -70.702 88.262, -70.736 88.139, -70.751 88.013, -70.746 87.886, -70.723 87.761, -70.682 87.641, -70.623 87.528, -70.548 87.426, -70.459 87.336, -70.357 87.26, -70.245 87.2, -70.125 87.157, -70 87.133, -69.873 87.128, -69.747 87.142, -69.624 87.174, -69.507 87.224, -69.4 87.291, -69.303 87.374, -69.22 87.47, -69.152 87.577, -69.104 87.683, -69.071 87.794, -69.054 87.908, -69.053 88.024, -69.067 88.138), (-70.059 72.301, -70.125 72.32, -70.005 72.256, -70.059 72.301), (-70.477 71.878, -70.29264885496188 71.99216240633095, -70.307 71.985, -70.477 71.878), (-70.521 71.875, -70.564 71.845, -70.477 71.878, -70.521 71.875), (-70.362 71.978, -70.397 71.956, -70.307 71.985, -70.362 71.978), (-70.613 94.073, -70.868 93.596, -71.053 93.25, -71.05267262999831 93.24972173549857, -70.293 94.672, -70.613 94.073), (-71.668 95.481, -71.482 95.538, -71.31 95.601, -71.668 95.481), (-71.199 95.789, -71.16567898472452 95.81460978244102, -71.668 95.481, -71.199 95.789), (-73.553 70.331, -74.022 70.023, -74.05516531933648 69.99749362093402, -73.553 70.331), (-74.24484547849072 72.41837752414247, -74.928 71.139, -74.608 71.738, -74.353 72.215, -74.24484547849072 72.41837752414247), (-74.543 94.078, -74.469 94.106, -74.436 94.133, -74.543 94.078), (-74.49406561360904 94.11648238153076, -74.51730098730621 94.09917686882922, -74.543 94.078, -74.49406561360904 94.11648238153076), (-76.08 77.455, -76.022 77.355, -75.95 77.264, -75.843 77.164, -75.72 77.084, -75.586 77.027, -75.444 76.993, -75.328 76.984, -75.213 76.991, -75.099 77.013, -74.99 77.051, -74.886 77.103, -74.791 77.169, -74.706 77.247, -74.632 77.336, -74.57 77.434, -74.519 77.55, -74.485 77.672, -74.471 77.799, -74.475 77.926, -74.498 78.05, -74.539 78.171, -74.598 78.283, -74.673 78.386, -74.763 78.476, -74.864 78.552, -74.977 78.612, -75.096 78.654, -75.221 78.678, -75.348 78.684, -75.474 78.67, -75.597 78.638, -75.714 78.587, -75.822 78.52, -75.918 78.438, -76.002 78.342, -76.07 78.235, -76.117 78.129, -76.15 78.018, -76.167 77.904, -76.169 77.788, -76.155 77.673, -76.125 77.561, -76.08 77.455), (-74.92150118764845 93.82408551068883, -74.85 93.866, -74.68 93.978, -74.92150118764845 93.82408551068883), (-74.813 93.863, -74.762 93.895, -74.85 93.866, -74.813 93.863), (-74.624 93.99, -74.581 94.021, -74.68 93.978, -74.624 93.99), (-75.288 93.629, -75.053 93.747, -74.99609433962264 93.78035849056603, -75.288 93.629), (-75.291 93.602, -75.225 93.633, -75.288 93.629, -75.291 93.602), (-75.037 93.73, -74.977 93.764, -75.053 93.747, -75.037 93.73), (-75.549 93.519, -75.571 93.484, -75.499 93.513, -75.428 93.541, -75.549 93.519), (-75.5034561170213 93.53819473995271, -75.832 93.424, -75.549 93.519, -75.5034561170213 93.53819473995271), (-76.13 93.348, -76.07031211599909 93.36322241336936, -76.438 93.294, -76.13 93.348), (-76.65368588469184 93.27356660039761, -76.999 93.259, -76.723 93.267, -76.65368588469184 93.27356660039761), (-77.718 93.33, -77.87 93.332, -77.816 93.32, -77.76 93.309, -77.718 93.33), (-77.502 93.295, -77.73617924528297 93.33386792452829, -77.718 93.33, -77.502 93.295), (-77.642 93.287, -77.582 93.278, -77.518 93.269, -77.502 93.295, -77.642 93.287), (-77.26 93.27, -77.21623671822461 93.26815557049989, -77.502 93.295, -77.26 93.27), (-77.321 93.246, -77.252 93.241, -77.26 93.27, -77.321 93.246), (-78.76 93.528, -78.57 93.556, -78.546 93.547, -78.707 93.505, -78.514 93.534, -78.367 93.511, -78.30238461538433 93.48766666666656, -78.41050357995206 93.52876451869524, -78.423 93.533, -78.469 93.551, -78.68 93.605, -78.652 93.592, -78.634 93.584, -78.581 93.571, -78.814 93.552, -78.763 93.548, -78.8130467896175 93.52067383879782, -78.729 93.551, -78.914 93.454, -78.84113104661387 93.50533948988569, -78.926 93.459, -78.969 93.453, -78.963 93.425, -79.046 93.303, -78.951 93.421, -78.918 93.431, -79.025 93.294, -78.908 93.427, -78.76 93.528), (-78.475 93.518, -78.451 93.509, -78.427 93.5, -78.295 93.485, -78.514 93.534, -78.475 93.518), (-78.195 93.452, -78.066 93.412, -78.22870878623188 93.46714779589372, -78.29706408094441 93.48574536256325, -78.295 93.485, -78.195 93.452), (-78.372 93.479, -78.34 93.468, -78.307 93.457, -78.195 93.452, -78.372 93.479), (-78.237 93.433, -78.197 93.42, -78.156 93.408, -78.066 93.412, -78.237 93.433), (-77.906 93.37, -77.7554550128536 93.33796915167098, -78.066 93.412, -77.906 93.37), (-78.068 93.382, -78.021 93.369, -77.972 93.357, -77.906 93.37, -78.068 93.382), (-78.43323506594263 93.54035919317302, -78.604 93.609, -78.469 93.551, -78.43323506594263 93.54035919317302), (-78.882 93.583, -78.865 93.575, -78.85 93.568, -78.68 93.605, -78.882 93.583), (-80.632 93.272, -79.974 93.382, -79.95350635756292 93.3879572468007, -80.632 93.272), (-80.29196611979413 72.8650539753422, -80.323 72.861, -80.663 72.773, -80.29196611979413 72.8650539753422), (-82.617 75.962, -82.739 76.604, -82.74232589912117 76.6148604977475, -82.617 75.962), (-82.77031967627721 88.91329033889726, -82.753 88.959, -82.674 89.243, -82.77031967627721 88.91329033889726), (-82.966 78.674, -82.97075920679886 78.75388668555235, -82.964 78.47, -82.966 78.674), (-82.941 78.584, -82.942 78.645, -82.966 78.674, -82.941 78.584), (-82.945 78.365, -82.943 78.417, -82.964 78.47, -82.945 78.365), (-83.012 79.17, -82.97607063197027 78.8430427509295, -82.98 78.909, -83.012 79.17), (-82.98 79.115, -82.991 79.187, -83.012 79.17, -82.98 79.115), (-82.951 78.837, -82.957 78.905, -82.98 78.909, -82.951 78.837), (-82.9746944181646 78.2570028382216, -82.971 78.301, -82.97399325463743 78.27096767847115, -82.9746944181646 78.2570028382216), (-82.957 78.181, -82.954 78.223, -82.971 78.301, -82.957 78.181), (-83.066 79.447, -83.144 79.736, -83.05851955137922 79.40862806911194, -83.066 79.447), (-83.017 79.335, -83.032 79.409, -83.05 79.486, -83.066 79.447, -83.017 79.335), (-83.246 88.017, -83.23921747967476 88.0267916666667, -83.401 87.827, -83.246 88.017), (-83.73922429261563 80.9135472739821, -83.579 80.68, -83.728 80.899, -83.73922429261563 80.9135472739821), (-83.45476470588234 80.46635294117644, -83.473 80.501, -83.579 80.68, -83.45476470588234 80.46635294117644), (-83.467 80.551, -83.495 80.6, -83.473 80.501, -83.467 80.551), (-83.967 81.24, -83.88 81.096, -83.883 81.143, -83.925 81.193, -83.967 81.24), (-84.232 87.15, -83.963 87.321, -83.93960279147862 87.33925385664814, -84.232 87.15), (-84.051 81.331, -84.093 81.374, -84.133 81.414, -84.032 81.269, -84.051 81.331), (-84.305 81.537, -84.361 81.624, -84.396 81.655, -84.43 81.682, -84.305 81.537), (-84.15739299242412 81.39792518939382, -84.174 81.415, -84.305 81.537, -84.15739299242412 81.39792518939382), (-84.212 81.491, -84.251 81.527, -84.288 81.561, -84.174 81.415, -84.212 81.491), (-85.097 82.246, -85.05862130177528 82.09165088757447, -85.073 82.153, -85.097 82.246)))