MULTIPOLYGON (((-183.147 0.313, -183.15040172071474 0.4154768365319761, -183.156 0.488, -183.15386980609418 0.5199529085873856, -183.155 0.554, -183.14253333333332 0.6900000000001071, -183.137 0.773, -183.13338344226582 0.7898169934639768, -183.133 0.794, -183.083 1.031, -183.079004454343 1.042679287305104, -183.077 1.052, -183.05862499999978 1.102250000000611, -183.005 1.259, -182.98965909090916 1.2908506493505212, -182.979 1.32, -182.94856210142723 1.376175827513024, -182.9 1.477, -182.8621632846576 1.5356324672862842, -182.843 1.571, -182.81499955663935 1.6087182442916694, -182.769 1.68, -182.70507547169794 1.7567924528304089, -182.673 1.8, -182.63868771793884 1.836543975203372, -182.615 1.865, -182.5885132676271 1.8899818043971952, -182.55 1.931, -182.56754054054056 1.9097628992628914, -182.53882040202893 1.9368512117227183, -182.537 1.939, -182.473 2.003, -182.45145195353743 2.0192555438226396, -182.439 2.031, -182.245 2.175, -134.345 33.282, -134.34258309079624 33.28340482847469, -134.2 33.376, -133.961 33.509, -133.705 33.608, -133.439 33.671, -133.167 33.698, -132.894 33.687, -118.3415995770152 32.100385971095925, -110.04276514044223 31.19564979519726, -107.193 32.621, -102.25 34.237, -97.123 35.109, -95.941 35.133, -92.9320484874764 34.07432395829291, -88.204 34.734, -84.853 34.116, -79.933 32.43, -75.315 30.04, -74.357 29.348, -70.932 24.193, -70.366 23.341, -69.867 22.589, -72.14812187100485 22.652925852468947, -49.819 13.312, -42.534104847448205 10.26450968459453, -29.533 17.178, -21.882 21.246, -34.023 21.586, -25.98 25.862, -19.624 25.684, -21.913 26.581, -21.912182677658866 26.580977114035537, -23.476 27.194, -9.217 34.775, -1.705 31.832, -0.514 32.554, -0.4688898176279275 32.581325227964285, 13.498 41.048, 7.212 43.511, 15.44 47.886, 14.23 53.399, 14.93 53.264, 14.930043426204966 53.26391832958594, 32.104 49.95, 43.928 56.238, 44.165 56.32, 44.213 56.345, 44.25 56.365, 44.263 56.374, 44.497 56.433, 44.663 56.456, 44.624 56.435, 44.736 56.464, 44.977 56.465, 45.025 56.439, 45.063 56.459, 45.217 56.437, 45.301 56.422, 45.428 56.372, 45.599 56.331, 45.677 56.297, 45.807 56.23, 45.891 56.186, 45.964 56.142, 46.022 56.102, 46.09 56.05, 46.157 55.997, 46.211 55.951, 46.271 55.891, 46.408 55.733, 46.485 55.644, 46.526 55.586, 46.57 55.514, 46.615 55.401, 46.633 55.411, 72.924 5.966, 73.006 5.729, 73.031 5.681, 73.051 5.644, 73.06 5.631, 73.119 5.397, 73.142 5.231, 73.121 5.27, 73.15 5.158, 73.151 4.917, 73.125 4.868, 73.145 4.831, 73.123 4.677, 73.108 4.593, 73.058 4.466, 73.017 4.295, 72.983 4.217, 72.916 4.087, 72.872 4.003, 72.828 3.93, 72.788 3.871, 72.736 3.804, 72.683 3.736, 72.637 3.683, 72.577 3.623, 72.419 3.486, 72.33 3.409, 72.272 3.368, 72.2 3.324, 72.087 3.279, 72.097 3.261, 56.557 -5.002, 47.24499999995766 -9.953037318103943, 38.141 -14.794, 38.13858805970149 -14.794947547974413, 28.669 -19.83, 37.843 -19.573, 13.447774749054387 -32.54426655565883, 0.551 -39.402, -2.692 -41.126, -9.970159694918651 -43.215383361976876, -8.563 -46.955, -8.539799999999996 -47.01700000000002, -8.537 -47.024, -8.505 -47.11, -6.67049247441343 -47.66251836243214, -6.588 -47.687, -6.475 -47.721, -6.42010258162427 -47.737930979499055, 8.518 -52.237, 6.141 -45.918, 14.899 -49.103, 17.1714932521533 -45.929393324975194, 17.172 -45.928, 18.185 -44.514, 18.553 -45.124, 18.552957182566693 -45.124117706823704, 27.586 -60.102, 40.171 -64.679, 40.391 -64.799, 40.442 -64.818, 40.482 -64.832, 40.497 -64.836, 40.697 -64.97, 40.825 -65.078, 40.784 -65.063, 40.88 -65.127, 41.042 -65.306, 41.056 -65.359, 41.095 -65.373, 41.182 -65.502, 41.227 -65.575, 41.275 -65.703, 41.359 -65.857, 41.386 -65.938, 41.423 -66.08, 41.446 -66.171, 41.463 -66.255, 41.472 -66.325, 41.479 -66.41, 41.485 -66.496, 41.486 -66.566, 41.482 -66.651, 41.456 -66.859, 41.442 -66.975, 41.426 -67.044, 41.402 -67.126, 41.348 -67.235, 41.368 -67.242, 22.228 -119.87, 22.108 -120.089, 22.089 -120.14, 22.075 -120.18, 22.071 -120.195, 21.937 -120.396, 21.829 -120.523, 21.844 -120.482, 21.78 -120.578, 21.601 -120.741, 21.548 -120.754, 21.534 -120.794, 21.405 -120.88, 21.332 -120.925, 21.204 -120.973, 21.05 -121.057, 20.969 -121.084, 20.827 -121.121, 20.736 -121.145, 20.652 -121.161, 20.582 -121.171, 20.497 -121.177, 20.412 -121.183, 20.341 -121.184, 20.256 -121.18, 20.048 -121.154, 19.932 -121.14, 19.863 -121.124, 19.781 -121.1, 19.672 -121.047, 19.665 -121.066, 2.32 -114.758, -15.671 -108.215, -26.557 -104.256, -20.226 -110.9, -31.574987758322873 -106.77276057092328, -33.057 -121.061, -25.763 -132.293, -25.631 -132.536, -25.631 -132.567, -25.608 -132.602, -25.598 -132.614, -25.519 -132.842, -25.482 -133.005, -25.506 -132.969, -25.468 -133.078, -25.446 -133.318, -25.467 -133.368, -25.444 -133.404, -25.452 -133.559, -25.46 -133.644, -25.499 -133.775, -25.525 -133.949, -25.552 -134.03, -25.608 -134.165, -25.644 -134.252, -25.681 -134.329, -25.716 -134.391, -25.762 -134.463, -25.808 -134.534, -25.85 -134.591, -25.905 -134.657, -26.05 -134.807, -26.132 -134.892, -26.186 -134.937, -26.254 -134.988, -26.363 -135.042, -26.352 -135.059, -73.317 -165.559, -73.56 -165.692, -73.591 -165.691, -73.627 -165.714, -73.639 -165.725, -73.866 -165.804, -74.03 -165.84, -73.993 -165.817, -74.102 -165.855, -74.342 -165.877, -74.392 -165.856, -74.428 -165.879, -74.583 -165.87, -74.668 -165.863, -74.799 -165.823, -74.973 -165.798, -75.054 -165.77, -75.189 -165.715, -75.277 -165.679, -75.354 -165.641, -75.415 -165.607, -75.487 -165.561, -75.559 -165.514, -75.616 -165.473, -75.681 -165.418, -75.831 -165.272, -75.916 -165.191, -75.961 -165.137, -76.012 -165.068, -76.067 -164.96, -76.084 -164.971, -102.871 -123.722, -101.816 -132.838, -113.927 -114.189, -126.82 -94.336, -130.031 -85.98, -139.262 -78.627, -140.34 -76.97, -140.997 -75.96, -151.245 -60.205, -152.34698426043025 -58.51073275334338, -159.064 -56.068, -164.532 -54.079, -164.754 -53.983, -164.77943884892076 -53.968079136690704, -164.793 -53.962, -164.83545257452624 -53.93522493224902, -164.962 -53.861, -165.00342623738578 -53.829283037001495, -165.034 -53.81, -165.08146313173177 -53.76953603976786, -165.154 -53.714, -165.2097974683544 -53.66012658227852, -165.251 -53.625, -165.27891575492345 -53.59339168490151, -165.328 -53.546, -165.4005907395899 -53.455622125543734, -165.44 -53.411, -165.45548232509975 -53.387280283981774, -165.479 -53.358, -165.57610662824234 -53.20247766570563, -165.596 -53.172, -165.59860579145885 -53.16644384961665, -165.607 -53.153, -165.709 -52.934, -165.71214858490563 -52.92434433962273, -165.717 -52.914, -165.7363287671235 -52.85019178082126, -165.784 -52.704, -165.79050014903126 -52.671360953800495, -165.8 -52.64, -165.8096517055656 -52.57519569120245, -165.831 -52.468, -165.83641498216406 -52.39549940547007, -165.842 -52.358, -165.8424567733152 -52.31460653505753, -165.849 -52.227, -165.84436324167874 -52.13349204052121, -165.845 -52.073, -165.83846210995543 -52.0144858841011, -165.837 -51.985, -165.8315333333333 -51.95247333333318, -165.825 -51.894, -165.82619920820585 -51.92073528882481, -165.8222636442791 -51.89731868346074, -165.8203231590996 -51.88577279664251, -165.82 -51.88, -165.806 -51.79, -165.80167122567067 -51.77479379274053, -165.797 -51.747, -165.728 -51.516, -162.5609790385408 -42.80702678269911, -165.203 -38.745, -165.861 -37.734, -169.553 -32.057, -172.628 -18.282, -172.62743855046935 -18.281635648477348, -173.086 -16.227, -172.76653612858635 -16.093224503845544, -182.833 -0.592, -182.952 -0.382, -182.96151754385963 -0.3591783625731453, -182.971 -0.342, -182.99362435008686 -0.282191074522897, -183.045 -0.159, -183.05841453544832 -0.1109140498544306, -183.072 -0.075, -183.08621688741718 -0.0112533112584031, -183.11 0.074, -183.12082568402477 0.1439280670787902, -183.134 0.203, -183.13800718744088 0.254911291847837, -183.147 0.313), (-182.5354383561644 1.940041095890408, -182.53380046136104 1.9415859284890267, -182.537 1.939, -182.5354383561644 1.940041095890408), (-1.8358999999993688 31.882999999999754, -1.79 31.865, -1.705 31.832, -1.8358999999993688 31.882999999999754), (38.137505367963215 -14.795372891157305, 38.1375053679632 -14.795372891157312, 28.669 -19.83, 38.137505367963215 -14.795372891157305), (-7.172 -47.512, -6.743 -47.641, -6.741059947299049 -47.641575757575765, -8.505 -47.11, -7.172 -47.512), (-6.58223001774453 -47.689101315809424, -6.5822300177445 -47.68910131580943, -6.588 -47.687, -6.58223001774453 -47.689101315809424), (-37.906355076629225 -94.45455696377799, -37.90635507662923 -94.45455696377799, -26.557 -104.256, -37.906355076629225 -94.45455696377799), (-165.8187777777778 -51.876577777777825, -165.81806870229008 -51.87235877862595, -165.82 -51.88, -165.8187777777778 -51.876577777777825), (72.906 5.956, 72.908 5.914, 72.943 5.848, 72.906 5.956), (64.959 0.758, 64.797 0.649, 64.891 0.707, 64.959 0.758), (61.574 5.205, 61.394 5.025, 61.244 4.821, 61.126 4.596, 61.043 4.356, 60.996 4.106, 60.987 3.852, 61.016 3.599, 61.082 3.354, 61.185 3.122, 61.32 2.907, 61.487 2.715, 61.68 2.549, 61.895 2.415, 62.128 2.314, 62.374 2.249, 62.626 2.221, 62.88 2.231, 63.13 2.279, 63.369 2.363, 63.594 2.483, 63.798 2.634, 63.977 2.814, 64.127 3.019, 64.246 3.244, 64.329 3.484, 64.375 3.734, 64.384 3.987, 64.355 4.24, 64.289 4.485, 64.187 4.718, 64.051 4.933, 63.885 5.125, 63.692 5.29, 63.476 5.425, 63.243 5.526, 62.998 5.591, 62.745 5.619, 62.491 5.609, 62.242 5.561, 62.002 5.476, 61.778 5.357, 61.574 5.205), (53.235 22.5, 53.414 22.68, 53.564 22.885, 53.682 23.11, 53.766 23.35, 53.812 23.6, 53.821 23.854, 53.792 24.106, 53.726 24.351, 53.624 24.584, 53.488 24.799, 53.322 24.991, 53.129 25.156, 52.913 25.291, 52.68 25.392, 52.434 25.457, 52.182 25.485, 51.928 25.475, 51.678 25.427, 51.439 25.342, 51.215 25.223, 51.01 25.072, 50.831 24.892, 50.681 24.687, 50.563 24.462, 50.479 24.222, 50.433 23.972, 50.424 23.718, 50.453 23.466, 50.519 23.221, 50.622 22.988, 50.757 22.773, 50.923 22.581, 51.116 22.416, 51.332 22.281, 51.565 22.18, 51.811 22.115, 52.063 22.087, 52.317 22.097, 52.567 22.145, 52.806 22.23, 53.031 22.349, 53.235 22.5), (43.98 56.222, 44.046 56.257, 43.938 56.22, 43.98 56.222), (40.118 44.553, 40 44.328, 39.916 44.088, 39.87 43.838, 39.861 43.585, 39.89 43.332, 39.956 43.087, 40.058 42.854, 40.194 42.639, 40.36 42.447, 40.553 42.282, 40.769 42.147, 41.002 42.046, 41.248 41.981, 41.5 41.953, 41.754 41.963, 42.004 42.011, 42.243 42.096, 42.467 42.215, 42.672 42.367, 42.851 42.547, 43.001 42.751, 43.119 42.976, 43.203 43.216, 43.249 43.466, 43.258 43.72, 43.229 43.973, 43.163 44.218, 43.06 44.45, 42.925 44.665, 42.759 44.857, 42.566 45.023, 42.35 45.157, 42.117 45.258, 41.871 45.323, 41.619 45.351, 41.365 45.341, 41.115 45.293, 40.876 45.209, 40.651 45.09, 40.447 44.938, 40.268 44.758, 40.118 44.553), (40.165 -64.698, 40.194 -64.728, 40.265 -64.753, 40.165 -64.698), (12.025 -22.641, 13.791 -21.702, 34.62802452772146 -10.622046108981808, 34.628 -10.622, 12.025 -22.641), (27.569 -71.006, 27.538 -71.258, 27.544 -71.512, 27.588 -71.762, 27.669 -72.003, 27.785 -72.229, 27.934 -72.435, 28.111 -72.617, 28.314 -72.771, 28.537 -72.892, 28.776 -72.979, 29.025 -73.029, 29.278 -73.042, 29.531 -73.016, 29.777 -72.954, 30.011 -72.855, 30.228 -72.722, 30.423 -72.559, 30.591 -72.368, 30.729 -72.155, 30.833 -71.923, 30.902 -71.679, 30.933 -71.427, 30.927 -71.173, 30.883 -70.922, 30.802 -70.682, 30.686 -70.455, 30.538 -70.249, 30.36 -70.067, 30.157 -69.914, 29.934 -69.793, 29.696 -69.706, 29.446 -69.655, 29.193 -69.643, 28.94 -69.668, 28.694 -69.731, 28.46 -69.83, 28.243 -69.962, 28.048 -70.126, 27.88 -70.316, 27.742 -70.53, 27.638 -70.761, 27.569 -71.006), (-0.5086601534445173 32.55682644791307, 27.358 47.307, -0.5086601534444827 32.55682644791309, -0.5086601534445173 32.55682644791307), (19.898 -92.907, 19.979 -93.148, 20.095 -93.374, 20.244 -93.581, 20.421 -93.762, 20.624 -93.916, 20.847 -94.037, 21.086 -94.124, 21.335 -94.174, 21.589 -94.187, 21.841 -94.162, 22.088 -94.099, 22.322 -94, 22.538 -93.867, 22.733 -93.704, 22.901 -93.514, 23.039 -93.3, 23.143 -93.068, 23.212 -92.824, 23.244 -92.572, 23.237 -92.318, 23.193 -92.067, 23.112 -91.827, 22.996 -91.601, 22.848 -91.394, 22.67 -91.212, 22.468 -91.059, 22.244 -90.938, 22.006 -90.851, 21.757 -90.801, 21.503 -90.788, 21.25 -90.813, 21.004 -90.876, 20.77 -90.975, 20.553 -91.107, 20.358 -91.271, 20.19 -91.461, 20.053 -91.675, 19.948 -91.906, 19.879 -92.151, 19.848 -92.403, 19.854 -92.657, 19.898 -92.907), (-6.576834598757195 -47.69106622292951, -6.576834598757206 -47.69106622292951, 22.642 -58.332, -6.576834598757195 -47.69106622292951), (22.154 -119.963, 22.209 -119.863, 22.179 -119.892, 22.154 -119.963), (12.934 -115.061, 13.157 -115.182, 13.396 -115.269, 13.645 -115.319, 13.899 -115.332, 14.152 -115.307, 14.398 -115.244, 14.632 -115.145, 14.849 -115.013, 15.043 -114.849, 15.211 -114.659, 15.349 -114.445, 15.454 -114.214, 15.522 -113.969, 15.554 -113.717, 15.547 -113.463, 15.503 -113.213, 15.422 -112.972, 15.306 -112.746, 15.158 -112.539, 14.98 -112.358, 14.778 -112.204, 14.555 -112.083, 14.316 -111.996, 14.067 -111.946, 13.813 -111.933, 13.56 -111.958, 13.314 -112.021, 13.08 -112.12, 12.863 -112.253, 12.669 -112.416, 12.501 -112.606, 12.363 -112.82, 12.258 -113.052, 12.19 -113.296, 12.158 -113.548, 12.164 -113.802, 12.209 -114.052, 12.29 -114.293, 12.406 -114.519, 12.554 -114.726, 12.731 -114.907, 12.934 -115.061), (15.46 -26.847, -0.3360626440167659 -35.252219614059314, -0.3360626440136628 -35.252219614057665, 15.46 -26.847), (15.263 -25.54, 13.589 -25.583, 13.59 -25.584, 13.59 -25.585, 15.263 -25.54), (13.591 -25.587, 14.019 -25.575, 14.181117647051979 -25.570411764706076, 13.591 -25.587), (12.945 -117.422, 13.029 -117.438, 12.839 -117.391, 12.945 -117.422), (11.953 -17.393, 11.817 -17.178, 11.651 -16.986, 11.458 -16.82, 11.242 -16.686, 11.009 -16.585, 10.764 -16.52, 10.511 -16.492, 10.257 -16.502, 10.008 -16.55, 9.768 -16.634, 9.544 -16.754, 9.34 -16.905, 9.16 -17.085, 9.01 -17.29, 8.892 -17.515, 8.809 -17.755, 8.762 -18.005, 8.753 -18.259, 8.782 -18.511, 8.849 -18.756, 8.951 -18.989, 9.086 -19.204, 9.253 -19.396, 9.446 -19.561, 9.661 -19.696, 9.894 -19.797, 10.14 -19.862, 10.392 -19.89, 10.646 -19.88, 10.896 -19.832, 11.135 -19.747, 11.36 -19.628, 11.564 -19.477, 11.743 -19.296, 11.893 -19.092, 12.012 -18.867, 12.095 -18.627, 12.142 -18.377, 12.15 -18.123, 12.121 -17.871, 12.055 -17.625, 11.953 -17.393), (0.0382181818181812 32.888163636363636, -0.049432989690345 32.83505841924421, 0.007 32.869, 0.0382181818181812 32.888163636363636), (-1.8414000000000597 31.88514285714288, -1.859 31.892, -1.855 31.89, -1.8414000000000597 31.88514285714288), (-4.706 11.47, -4.481 11.589, -4.277 11.741, -4.098 11.921, -3.948 12.125, -3.83 12.35, -3.746 12.59, -3.7 12.84, -3.691 13.094, -3.72 13.347, -3.786 13.592, -3.888 13.824, -4.024 14.039, -4.19 14.231, -4.383 14.397, -4.599 14.531, -4.832 14.632, -5.078 14.697, -5.33 14.725, -5.584 14.715, -5.833 14.667, -6.073 14.583, -6.297 14.463, -6.502 14.312, -6.681 14.132, -6.831 13.927, -6.949 13.702, -7.033 13.462, -7.079 13.212, -7.088 12.959, -7.059 12.706, -6.993 12.461, -6.89 12.228, -6.755 12.013, -6.588 11.821, -6.395 11.656, -6.18 11.521, -5.947 11.42, -5.701 11.355, -5.449 11.327, -5.195 11.337, -4.945 11.385, -4.706 11.47), (-8.543006688963201 -47.008983277591994, -8.562639765554554 -46.95680117222723, -8.562 -46.96, -8.557 -46.974, -8.543006688963201 -47.008983277591994), (-10.59 -34.644, -10.465 -34.601, -10.344 -34.544, -10.23 -34.474, -10.07 -34.339, -9.979 -34.236, -9.872 -34.073, -9.793 -33.893, -9.744 -33.698, -9.729 -33.499, -9.748 -33.302, -9.799 -33.112, -9.872 -32.949, -9.958 -32.815, -10.052 -32.701, -10.154 -32.607, -10.346 -32.477, -10.55 -32.391, -10.727 -32.349, -10.875 -32.336, -11.092 -32.351, -11.219 -32.379, -11.343 -32.421, -11.464 -32.478, -11.578 -32.549, -11.738 -32.683, -11.83 -32.787, -11.936 -32.95, -12.016 -33.13, -12.064 -33.324, -12.079 -33.523, -12.061 -33.72, -12.01 -33.91, -11.936 -34.073, -11.851 -34.208, -11.756 -34.321, -11.655 -34.415, -11.462 -34.545, -11.259 -34.632, -11.081 -34.673, -10.933 -34.686, -10.716 -34.671, -10.59 -34.644), (-12.314 -24.56, -12.302 -24.688, -12.275 -24.817, -12.234 -24.944, -12.177 -25.066, -12.063 -25.241, -11.972 -25.344, -11.823 -25.47, -11.654 -25.571, -11.467 -25.643, -11.271 -25.682, -11.074 -25.688, -10.879 -25.66, -10.708 -25.607, -10.564 -25.539, -10.44 -25.458, -10.334 -25.37, -10.181 -25.194, -10.071 -25.003, -10.008 -24.832, -9.977 -24.686, -9.965 -24.469, -9.977 -24.34, -10.004 -24.211, -10.046 -24.084, -10.102 -23.962, -10.216 -23.787, -10.308 -23.684, -10.456 -23.558, -10.625 -23.458, -10.813 -23.385, -11.008 -23.346, -11.206 -23.341, -11.4 -23.368, -11.572 -23.421, -11.716 -23.49, -11.839 -23.57, -11.946 -23.659, -12.098 -23.834, -12.209 -24.026, -12.271 -24.197, -12.302 -24.342, -12.314 -24.56), (-18.282 24.06, -17.181 24.727, -17.958 25.031, -18.613 24.683, -18.282 24.06), (-22.09878198119383 21.13037615194784, -22.098781981194765 21.130376151947342, -25.926745773359734 19.08867553911499, -22.09878198119383 21.13037615194784), (-25.642 -58.509, -25.403 -58.596, -25.154 -58.647, -24.9 -58.659, -24.647 -58.634, -24.401 -58.571, -24.167 -58.472, -23.95 -58.34, -23.755 -58.176, -23.587 -57.986, -23.45 -57.772, -23.345 -57.541, -23.276 -57.296, -23.245 -57.044, -23.251 -56.79, -23.295 -56.54, -23.376 -56.299, -23.492 -56.073, -23.641 -55.867, -23.818 -55.685, -24.021 -55.531, -24.244 -55.41, -24.483 -55.323, -24.732 -55.273, -24.986 -55.26, -25.238 -55.286, -25.372063633642373 -55.31965160034748, -26.066142904164877 -55.68934687308698, -26.13 -55.743, -26.298 -55.934, -26.436 -56.147, -26.54 -56.379, -26.609 -56.623, -26.641 -56.875, -26.634 -57.129, -26.59 -57.38, -26.509 -57.621, -26.393 -57.847, -26.245 -58.053, -26.067 -58.235, -25.865 -58.388, -25.642 -58.509), (-25.775 -132.346, -25.734 -132.409, -25.781 -132.304, -25.775 -132.346), (-37.744 -91.311, -37.49 -91.323, -37.237 -91.298, -36.991 -91.235, -36.757 -91.136, -36.54 -91.004, -36.346 -90.84, -36.178 -90.65, -36.04 -90.436, -35.935 -90.205, -35.867 -89.96, -35.835 -89.708, -35.842 -89.454, -35.886 -89.204, -35.967 -88.963, -36.083 -88.737, -36.231 -88.531, -36.409 -88.349, -36.611 -88.195, -36.834 -88.074, -37.073 -87.987, -37.322 -87.937, -37.576 -87.924, -37.829 -87.95, -38.075 -88.012, -38.309 -88.111, -38.526 -88.244, -38.72 -88.407, -38.888 -88.598, -39.026 -88.811, -39.131 -89.043, -39.199 -89.287, -39.231 -89.539, -39.225 -89.793, -39.18 -90.044, -39.099 -90.284, -38.983 -90.511, -38.835 -90.717, -38.658 -90.899, -38.455 -91.052, -38.232 -91.173, -37.993 -91.26, -37.744 -91.311), (-40.156 -130.614, -40.199 -130.865, -40.205 -131.119, -40.173 -131.371, -40.103 -131.615, -39.998 -131.847, -39.86 -132.06, -39.691 -132.25, -39.496 -132.413, -39.279 -132.545, -39.045 -132.643, -38.798 -132.705, -38.545 -132.729, -38.292 -132.716, -38.043 -132.665, -37.804 -132.578, -37.581 -132.456, -37.379 -132.302, -37.202 -132.119, -37.054 -131.913, -36.939 -131.686, -36.859 -131.445, -36.815 -131.195, -36.81 -130.941, -36.842 -130.689, -36.911 -130.444, -37.016 -130.213, -37.155 -130, -37.323 -129.81, -37.518 -129.647, -37.736 -129.515, -37.97 -129.417, -38.216 -129.355, -38.469 -129.33, -38.723 -129.344, -38.972 -129.395, -39.21 -129.482, -39.433 -129.604, -39.635 -129.758, -39.812 -129.94, -39.96 -130.147, -40.075 -130.373, -40.156 -130.614), (-39.773 -98.117, -40.925 -96.903, -40.925 -96.904, -39.773 -98.117), (-44.43007091462971 -102.09780565894354, -43.548 -103.302, -43.31313391972454 -102.50399751528653, -44.43007091462971 -102.09780565894354), (-57.915 -144.897, -57.668 -144.959, -57.416 -144.984, -57.162 -144.971, -56.913 -144.92, -56.674 -144.832, -56.452 -144.71, -56.249 -144.556, -56.072 -144.374, -55.925 -144.167, -55.809 -143.941, -55.729 -143.7, -55.685 -143.449, -55.68 -143.195, -55.712 -142.943, -55.781 -142.699, -55.886 -142.467, -56.025 -142.254, -56.193 -142.064, -56.388 -141.901, -56.606 -141.77, -56.84 -141.671, -57.086 -141.609, -57.339 -141.585, -57.593 -141.598, -57.842 -141.649, -58.08 -141.736, -58.303 -141.858, -58.505 -142.012, -58.682 -142.195, -58.83 -142.401, -58.946 -142.628, -59.026 -142.869, -59.069 -143.119, -59.075 -143.373, -59.043 -143.625, -58.973 -143.87, -58.868 -144.101, -58.73 -144.314, -58.561 -144.504, -58.366 -144.667, -58.149 -144.799, -57.915 -144.897), (-65.173 9.2, -65.67707826114956 8.894449588828882, -59.118 6.324, -57.113849623600444 7.60821286254729, -64.219 9.779, -65.173 9.2), (-73.37 -165.548, -73.433 -165.589, -73.328 -165.542, -73.37 -165.548), (-77.431 -156.759, -77.236 -156.921, -77.019 -157.053, -76.785 -157.151, -76.539 -157.214, -76.286 -157.238, -76.032 -157.225, -75.783 -157.174, -75.544 -157.086, -75.322 -156.964, -75.119 -156.81, -74.942 -156.628, -74.795 -156.421, -74.679 -156.195, -74.599 -155.954, -74.556 -155.704, -74.55 -155.45, -74.582 -155.198, -74.651 -154.953, -74.757 -154.722, -74.895 -154.509, -75.064 -154.319, -75.259 -154.156, -75.476 -154.024, -75.71 -153.926, -75.956 -153.864, -76.209 -153.839, -76.463 -153.852, -76.712 -153.903, -76.951 -153.991, -77.173 -154.113, -77.376 -154.267, -77.552 -154.449, -77.7 -154.656, -77.816 -154.882, -77.896 -155.123, -77.939 -155.374, -77.945 -155.628, -77.913 -155.88, -77.843 -156.124, -77.738 -156.355, -77.6 -156.568, -77.431 -156.759), (-79.199 -158.079, -79.322 -157.927, -79.256 -158.015, -79.199 -158.079), (-88.534 28.774, -88.265 28.723, -87.996 28.67, -87.727 28.615, -87.459 28.557, -87.192 28.496, -86.94284783660304 28.437211287288356, -86.936 28.436, -86.66928957528965 28.369490347490366, -86.659 28.367, -86.64855321944803 28.36431931668855, -86.539 28.337, -86.52840449179828 28.33366579794574, -86.39 28.299, -86.3757349144991 28.29417526043372, -86.129 28.229, -85.864 28.156, -85.601 28.08, -85.338 28.002, -85.076 27.922, -84.815 27.839, -84.554 27.754, -84.295 27.666, -84.036 27.576, -83.778 27.483, -83.521 27.388, -83.51000148148144 27.38383259259258, -83.501 27.381, -83.46368431891752 27.366282730214838, -83.265 27.291, -83.009 27.191, -82.89461977186315 27.144300380228152, -82.755 27.089, -82.64725855513285 27.04428517110257, -82.644 27.043, -82.64270174609189 27.04239400529505, -82.502 26.984, -80.38321564903332 26.09753801786762, -79.528 29.001, -80.34 30.223, -81.254 30.747, -82.722 30.955, -89.557 30.001, -88.623 28.79, -88.62284103383928 28.789793961571426, -88.534 28.774), (-86.40487658420876 28.30179097255168, -86.394 28.299, -86.39 28.299, -86.40487658420876 28.30179097255168), (-90.61607947019867 29.07701986754967, -90.61605027932961 29.077016759776537, -90.619 29.078, -91.77972093022366 29.20447879616866, -90.62 29.078, -90.61607947019867 29.07701986754967), (-107.122 -107.386, -106.033 -109.063, -93.17905179493523 -128.85603363427816, -93.179 -128.856, -107.122 -107.386), (-104.317 -106.247, -104.179 -106.46, -104.01 -106.65, -103.815 -106.813, -103.598 -106.945, -103.364 -107.043, -103.117 -107.105, -102.864 -107.13, -102.611 -107.117, -102.362 -107.066, -102.123 -106.978, -101.9 -106.856, -101.698 -106.702, -101.521 -106.52, -101.373 -106.313, -101.258 -106.087, -101.178 -105.846, -101.134 -105.596, -101.129 -105.342, -101.161 -105.09, -101.23 -104.845, -101.335 -104.614, -101.474 -104.401, -101.642 -104.211, -101.837 -104.048, -102.054 -103.916, -102.289 -103.818, -102.535 -103.756, -102.788 -103.731, -103.042 -103.744, -103.291 -103.795, -103.529 -103.883, -103.752 -104.005, -103.954 -104.159, -104.131 -104.341, -104.279 -104.548, -104.394 -104.774, -104.475 -105.015, -104.518 -105.265, -104.524 -105.52, -104.492 -105.772, -104.422 -106.016, -104.317 -106.247), (-109.919 -109.202, -109.92 -109.203, -109.871 -109.628, -109.822 -110.049, -109.775 -110.462, -109.728 -110.864, -109.917 -109.201, -109.918 -109.201, -109.919 -109.202), (-112.182 -84.443, -112.171 -84.641, -112.126 -84.832, -112.059 -84.998, -111.978 -85.135, -111.887 -85.252, -111.789 -85.35, -111.601 -85.486, -111.401 -85.58, -111.225 -85.627, -111.077 -85.645, -110.86 -85.638, -110.733 -85.615, -110.607 -85.577, -110.484 -85.525, -110.367 -85.458, -110.203 -85.329, -110.108 -85.229, -109.995 -85.07, -109.91 -84.893, -109.854 -84.7, -109.833 -84.502, -109.844 -84.304, -109.889 -84.113, -109.956 -83.947, -110.037 -83.809, -110.128 -83.693, -110.226 -83.595, -110.414 -83.458, -110.614 -83.365, -110.79 -83.317, -110.938 -83.299, -111.155 -83.306, -111.282 -83.33, -111.408 -83.368, -111.531 -83.42, -111.648 -83.487, -111.812 -83.616, -111.907 -83.716, -112.02 -83.875, -112.105 -84.052, -112.161 -84.245, -112.182 -84.443), (-120.529 -84.216, -120.712 -84.317, -120.879 -84.444, -121.024 -84.594, -121.146 -84.764, -121.241 -84.951, -121.307 -85.149, -121.343 -85.355, -121.348 -85.564, -121.321 -85.772, -121.264 -85.973, -121.177 -86.164, -121.064 -86.339, -120.925 -86.496, -120.764 -86.63, -120.585 -86.739, -120.392 -86.819, -120.189 -86.87, -119.981 -86.891, -119.772 -86.88, -119.567 -86.838, -119.371 -86.766, -119.187 -86.665, -119.021 -86.539, -118.875 -86.388, -118.753 -86.218, -118.658 -86.032, -118.592 -85.833, -118.556 -85.627, -118.552 -85.418, -118.578 -85.21, -118.635 -85.009, -118.722 -84.819, -118.836 -84.643, -118.975 -84.486, -119.135 -84.352, -119.314 -84.244, -119.507 -84.163, -119.71 -84.112, -119.918 -84.091, -120.127 -84.102, -120.332 -84.144, -120.529 -84.216), (-134.438 -28.392, -134.468 -28.539, -134.475 -28.688, -134.46 -28.837, -134.424 -28.981, -134.365 -29.119, -134.287 -29.247, -134.191 -29.361, -134.079 -29.46, -133.954 -29.541, -133.817 -29.602, -129.77551941901498 -31.072176737527325, -129.3817792578335 -29.08766168298841, -133.134 -27.723, -133.278 -27.682, -133.426 -27.664, -133.576 -27.668, -133.723 -27.694, -133.864 -27.741, -133.997 -27.809, -134.119 -27.897, -134.226 -28.001, -134.316 -28.12, -134.387 -28.252, -134.438 -28.392), (-137.314 18.416, -137.08 18.318, -136.833 18.256, -136.58 18.231, -136.327 18.245, -136.078 18.296, -135.839 18.383, -135.616 18.505, -135.414 18.659, -135.237 18.841, -135.09 19.048, -134.974 19.274, -134.894 19.515, -134.85 19.766, -134.845 20.02, -134.877 20.272, -134.946 20.516, -135.051 20.748, -135.19 20.961, -135.358 21.151, -135.553 21.314, -135.771 21.446, -136.005 21.544, -136.251 21.606, -136.504 21.63, -136.758 21.617, -137.007 21.566, -137.245 21.479, -137.468 21.357, -137.67 21.203, -137.847 21.02, -137.995 20.814, -138.11 20.587, -138.191 20.346, -138.234 20.096, -138.24 19.842, -138.208 19.59, -138.138 19.345, -138.033 19.114, -137.895 18.901, -137.726 18.711, -137.531 18.548, -137.314 18.416), (-152.688 -12.353, -152.538 -12.356, -152.39 -12.337, -152.246 -12.296, -152.11 -12.234, -151.985 -12.153, -151.873 -12.054, -151.777 -11.939, -151.7 -11.811, -151.642 -11.674, -151.605 -11.529, -151.591 -11.38, -151.599 -11.231, -151.629 -11.084, -151.68 -10.944, -151.752 -10.813, -154.475 -6.619, -154.566 -6.5, -154.673 -6.396, -154.794 -6.309, -154.928 -6.242, -155.069 -6.194, -155.217 -6.169, -155.366 -6.165, -155.514 -6.184, -155.658 -6.225, -155.794 -6.287, -155.92 -6.368, -156.031 -6.468, -156.127 -6.582, -156.205 -6.71, -156.263 -6.848, -156.299 -6.993, -156.314 -7.142, -156.306 -7.291, -156.276 -7.437, -156.224 -7.578, -156.152 -7.709, -153.429 -11.902, -153.339 -12.021, -153.231 -12.125, -153.11 -12.212, -152.977 -12.28, -152.835 -12.327, -152.688 -12.353), (-156.184 6.162, -155.95 6.064, -155.703 6.002, -155.451 5.977, -155.197 5.99, -154.948 6.041, -154.709 6.129, -154.487 6.251, -154.284 6.405, -154.107 6.587, -153.96 6.794, -153.844 7.02, -153.764 7.261, -153.72 7.511, -153.715 7.765, -153.747 8.017, -153.816 8.262, -153.921 8.493, -154.06 8.706, -154.228 8.896, -154.423 9.059, -154.641 9.191, -154.875 9.289, -155.121 9.351, -155.374 9.376, -155.628 9.363, -155.877 9.312, -156.115 9.224, -156.338 9.102, -156.54 8.948, -156.717 8.766, -156.865 8.559, -156.981 8.333, -157.061 8.092, -157.104 7.842, -157.11 7.587, -157.078 7.335, -157.008 7.091, -156.903 6.86, -156.765 6.647, -156.596 6.457, -156.401 6.294, -156.184 6.162), (-156.953 -52.534, -156.872 -52.775, -156.756 -53.001, -156.607 -53.207, -156.43 -53.389, -156.227 -53.542, -156.004 -53.664, -155.765 -53.751, -155.516 -53.801, -155.40664541637298 -53.806596888138394, -156.89579349605103 -51.51707705794133, -156.903 -51.533, -156.972 -51.778, -157.003 -52.03, -156.997 -52.284, -156.953 -52.534), (-175.948 -4.919, -175.879 -5.163, -175.773 -5.395, -175.635 -5.608, -175.466 -5.798, -175.271 -5.961, -175.054 -6.093, -174.82 -6.191, -174.574 -6.253, -174.321 -6.277, -174.067 -6.264, -173.818 -6.213, -173.579 -6.126, -173.357 -6.004, -173.154 -5.85, -172.978 -5.667, -172.83 -5.461, -172.714 -5.234, -172.634 -4.993, -172.591 -4.743, -172.585 -4.489, -172.617 -4.237, -172.686 -3.992, -172.792 -3.761, -172.93 -3.548, -173.099 -3.358, -173.294 -3.195, -173.511 -3.063, -173.745 -2.965, -173.991 -2.903, -174.244 -2.878, -174.498 -2.892, -174.747 -2.943, -174.986 -3.03, -175.208 -3.152, -175.411 -3.306, -175.587 -3.488, -175.735 -3.695, -175.851 -3.921, -175.931 -4.163, -175.974 -4.413, -175.98 -4.667, -175.948 -4.919)), ((95.168 -4.505, 95.524 -4.738, 95.842 -5.022, 96.114 -5.35, 96.334 -5.715, 96.497 -6.108, 96.6 -6.521, 96.639 -6.946, 96.616 -7.371, 96.529 -7.788, 96.381 -8.187, 96.175 -8.56, 95.916 -8.898, 95.609 -9.194, 95.262 -9.441, 94.882 -9.633, 94.477 -9.766, 94.057 -9.837, 93.631 -9.846, 93.209 -9.79, 92.8 -9.672, 92.412 -9.495, 92.056 -9.262, 91.738 -8.978, 91.466 -8.65, 91.246 -8.285, 91.083 -7.892, 90.98 -7.479, 90.941 -7.054, 90.964 -6.629, 91.051 -6.212, 91.199 -5.813, 91.405 -5.44, 91.664 -5.102, 91.971 -4.806, 92.318 -4.559, 92.698 -4.367, 93.103 -4.234, 93.523 -4.163, 93.949 -4.154, 94.371 -4.21, 94.78 -4.328, 95.168 -4.505), (93.7476173876497 -5.985700633655112, 93.7475280701986 -5.985572344987605, 93.72 -5.982, 93.66950246305484 -5.97539901477841, 93.7476173876497 -5.985700633655112), (92.94628571428632 -6.456999999999205, 92.873 -6.552, 92.85560834943081 -6.574814853434855, 92.85569112413982 -6.575172459692439, 92.94628571428632 -6.456999999999205)), ((88.027 2.568, 88.395 2.355, 88.728 2.089, 89.018 1.777, 89.258 1.425, 89.443 1.041, 89.569 0.634, 89.632 0.213, 89.632 -0.213, 89.569 -0.634, 89.443 -1.041, 89.258 -1.425, 89.018 -1.777, 88.728 -2.089, 88.395 -2.355, 88.027 -2.568, 87.63 -2.723, 87.215 -2.818, 86.79 -2.85, 86.365 -2.818, 85.95 -2.723, 85.553 -2.568, 85.185 -2.355, 84.852 -2.089, 84.562 -1.777, 84.322 -1.425, 84.137 -1.041, 84.011 -0.634, 83.948 -0.213, 83.948 0.213, 84.011 0.634, 84.137 1.041, 84.322 1.425, 84.562 1.777, 84.852 2.089, 85.185 2.355, 85.553 2.568, 85.95 2.723, 86.365 2.818, 86.79 2.85, 87.215 2.818, 87.63 2.723, 88.027 2.568), (87.599 -0.688, 87.79 -0.577, 87.42829787234123 -0.7860638297867697, 87.465 -0.765, 87.599 -0.688), (87.23 0.901, 87.15170212766077 0.9459361702120768, 87.36847533632194 0.8206412556059249, 87.23 0.901), (87.157 -0.943, 87.21152466367451 -0.9113587443961377, 86.79 -1.155, 86.97 -1.051, 87.157 -0.943), (86.79 1.155, 86.61 1.051, 86.423 0.943, 86.36847533632194 0.911358744394075, 86.79 1.155), (86.35 -0.901, 86.42829787234078 -0.9459361702129685, 86.2115246636752 -0.8206412556042658, 86.35 -0.901), (86.115 0.765, 85.981 0.688, 85.79 0.577, 86.15170212766066 0.7860638297878563, 86.115 0.765)), ((102.027 2.568, 102.395 2.355, 102.728 2.089, 103.018 1.777, 103.258 1.425, 103.443 1.041, 103.569 0.634, 103.632 0.213, 103.632 -0.213, 103.569 -0.634, 103.443 -1.041, 103.258 -1.425, 103.018 -1.777, 102.728 -2.089, 102.395 -2.355, 102.027 -2.568, 101.63 -2.723, 101.215 -2.818, 100.79 -2.85, 100.365 -2.818, 99.95 -2.723, 99.553 -2.568, 99.185 -2.355, 98.852 -2.089, 98.562 -1.777, 98.322 -1.425, 98.137 -1.041, 98.011 -0.634, 97.948 -0.213, 97.948 0.213, 98.011 0.634, 98.137 1.041, 98.322 1.425, 98.562 1.777, 98.852 2.089, 99.185 2.355, 99.553 2.568, 99.95 2.723, 100.365 2.818, 100.79 2.85, 101.215 2.818, 101.63 2.723, 102.027 2.568), (101.599 -0.688, 101.79 -0.577, 101.42829787234123 -0.7860638297867697, 101.465 -0.765, 101.599 -0.688), (101.23 0.901, 101.15170212766077 0.9459361702120768, 101.36847533632194 0.8206412556059249, 101.23 0.901), (101.157 -0.943, 101.21152466367451 -0.9113587443961377, 100.79 -1.155, 100.97 -1.051, 101.157 -0.943), (100.79 1.155, 100.61 1.051, 100.423 0.943, 100.36847533632194 0.911358744394075, 100.79 1.155), (100.35 -0.901, 100.42829787234078 -0.9459361702129685, 100.2115246636752 -0.8206412556042658, 100.35 -0.901), (100.15170212766066 0.7860638297878563, 100.115 0.765, 99.981 0.688, 99.79 0.577, 100.15170212766066 0.7860638297878563)), ((95.168 9.495, 95.524 9.262, 95.842 8.978, 96.114 8.65, 96.334 8.285, 96.497 7.892, 96.6 7.479, 96.639 7.054, 96.616 6.629, 96.529 6.212, 96.381 5.813, 96.175 5.44, 95.916 5.102, 95.609 4.806, 95.262 4.559, 94.882 4.367, 94.477 4.234, 94.057 4.163, 93.631 4.154, 93.209 4.21, 92.8 4.328, 92.412 4.505, 92.056 4.738, 91.738 5.022, 91.466 5.35, 91.246 5.715, 91.083 6.108, 90.98 6.521, 90.941 6.946, 90.964 7.371, 91.051 7.788, 91.199 8.187, 91.405 8.56, 91.664 8.898, 91.971 9.194, 92.318 9.441, 92.698 9.633, 93.103 9.766, 93.523 9.837, 93.949 9.846, 94.371 9.79, 94.78 9.672, 95.168 9.495), (93.7476173876497 8.014299366344886, 93.74752807019861 8.014427655012394, 93.72 8.018, 93.6695024630547 8.024600985221607, 93.7476173876497 8.014299366344886), (92.94317222878851 7.646551943267201, 92.95399370612165 7.553054379108896, 92.95399370612165 7.5530543791088975, 92.94317222878851 7.646551943267201), (92.94628571428632 7.543000000000795, 92.873 7.448, 92.85560834943081 7.425185146565145, 92.85569112413982 7.424827540307561, 92.94628571428632 7.543000000000795)), ((-156.9014873493976 7.508268072289218, -156.904 7.522, -156.9067714285714 7.605142857142427, -156.912 7.701, -156.91051219512195 7.717365853658603, -156.911 7.732, -156.893 7.914, -156.89240947075209 7.916495821726977, -156.892 7.921, -156.855 8.086, -156.84634895833338 8.111166666666549, -156.84 8.138, -156.82189814814816 8.182296296296277, -156.8 8.246, -156.77736842105256 8.291263157894932, -156.755 8.346, -156.72120689655173 8.40358620689655, -156.702 8.442, -156.68266841448195 8.469258926341992, -156.68266841448195 8.469258926341993, -156.657 8.513, -156.59631404958668 8.591024793388565, -156.563 8.638, -156.54673170731712 8.654773519163705, -156.524 8.684, -156.43763466666644 8.767258666666882, -156.43763466666638 8.767258666666946, -156.402 8.804, -156.39076447574334 8.812442879499228, -156.385 8.818, -156.229 8.934, -156.06 9.03, -156.04671484374998 9.035269531250005, -156.04 9.039, -156.0018702851889 9.053057037718379, -155.881 9.101, -155.85191149273453 9.108341385166993, -155.823 9.119, -155.75984003032605 9.131578468536759, -155.671 9.154, -155.61832743362828 9.159761061946906, -155.587 9.166, -155.5427110609481 9.168031602708803, -155.479 9.175, -155.4263502377179 9.173369255150554, -155.369 9.176, -155.2927317625736 9.169230629814226, -155.253 9.168, -155.2293516720604 9.163605177993528, -155.2 9.161, -155.034 9.128, -155.02945652173912 9.126456521739131, -155.027 9.126, -154.853 9.068, -154.84250375000005 9.062946250000024, -154.825 9.057, -154.75163687150825 9.019195530726204, -154.664 8.977, -154.6470659860926 8.9653095132416, -154.629 8.956, -154.51898611111076 8.876888888888653, -154.467 8.841, -154.46062430323303 8.834920847268704, -154.451 8.828, -154.295 8.677, -154.155 8.495, -154.044 8.291, -153.969 8.086, -153.96610526315789 8.071921052631556, -153.964 8.066, -153.95495238095234 8.017677489177307, -153.925 7.872, -153.92389970845483 7.8518279883383775, -153.92 7.831, -153.91565714285713 7.700714285713811, -153.91565714285713 7.700714285713686, -153.913 7.652, -153.913756097561 7.643682926829352, -153.913 7.621, -153.931 7.439, -153.93597872340408 7.4183475177312665, -153.969 7.267, -153.98013114754102 7.235196721311394, -153.98013114754104 7.235196721311321, -153.985 7.215, -154.0003278688524 7.177491803278846, -154.025 7.107, -154.04872582480093 7.059059158134221, -154.07 7.007, -154.09866068461295 6.958159853771769, -154.122 6.911, -154.14712759051176 6.875568289638118, -154.1471275905118 6.875568289638079, -154.168 6.84, -154.2173471074381 6.776553719008179, -154.261 6.715, -154.28179729729723 6.693689189189241, -154.301 6.669, -154.38362664714512 6.589345534406851, -154.423 6.549, -154.43480078528617 6.540012192601804, -154.44 6.535, -154.595 6.418, -154.765 6.323, -154.77792040577447 6.31787514631291, -154.785 6.314, -154.8231297148112 6.299942962281582, -154.944 6.252, -154.97308850726554 6.244658614832977, -155.002 6.234, -155.06515996967389 6.221421531463255, -155.154 6.199, -155.2066725663717 6.193238938053095, -155.238 6.187, -155.2822889390519 6.184968397291196, -155.346 6.178, -155.39864976228208 6.179630744849445, -155.456 6.177, -155.53226823742636 6.183769370185772, -155.572 6.185, -155.5956483279396 6.189394822006473, -155.625 6.192, -155.791 6.225, -155.79554347826087 6.226543478260868, -155.798 6.227, -155.971 6.285, -155.9792474226804 6.288950081389039, -156 6.296, -156.07947119645496 6.3369519940915815, -156.079471196455 6.336951994091598, -156.161 6.376, -156.17793401390742 6.387690486758412, -156.196 6.397, -156.29239073426515 6.466706293705879, -156.358 6.512, -156.3673456930976 6.52091100969772, -156.373 6.525, -156.53 6.676, -156.67 6.858, -156.781 7.062, -156.855 7.267, -156.8566082916369 7.27464832022872, -156.861 7.287, -156.87302621995627 7.35272469045872, -156.9 7.481, -156.9014873493976 7.508268072289218), (-156.8377756286267 8.13610726217689, -156.8377756286267 8.136107262176894, -156.84 8.138, -156.8377756286267 8.13610726217689), (-154.4676052332196 8.839940841865763, -154.4676052332196 8.839940841865758, -154.467 8.841, -154.4676052332196 8.839940841865763), (-154.76565462431867 6.324589047741341, -154.76565462431867 6.324589047741338, -154.765 6.323, -154.76565462431867 6.324589047741341), (-156.35712964020559 6.513523129640219, -156.35712964020559 6.513523129640223, -156.358 6.512, -156.35712964020559 6.513523129640219), (-156.85945717910764 7.288196362867406, -156.85945717910764 7.288196362867413, -156.861 7.287, -156.85945717910764 7.288196362867406), (-156.576 7.508, -156.531 7.317, -156.464 7.151, -156.383 7.013, -156.292 6.897, -156.194 6.799, -156.006 6.662, -155.806 6.569, -155.63 6.522, -155.482 6.503, -155.265 6.511, -155.138 6.534, -155.012 6.572, -154.889 6.624, -154.772 6.691, -154.608 6.82, -154.513 6.92, -154.4 7.079, -154.315 7.256, -154.259 7.449, -154.238 7.647, -154.249 7.845, -154.294 8.036, -154.361 8.202, -154.442 8.339, -154.533 8.456, -154.631 8.554, -154.818 8.691, -155.019 8.784, -155.195 8.831, -155.343 8.85, -155.56 8.842, -155.687 8.819, -155.813 8.781, -155.936 8.729, -156.052 8.662, -156.217 8.533, -156.312 8.433, -156.424 8.274, -156.51 8.097, -156.565 7.904, -156.587 7.706, -156.576 7.508)), ((-137.90322952586197 20.554267780172633, -137.884 20.601, -137.8524150647313 20.65537818752446, -137.832 20.696, -137.8140153508772 20.72148903508769, -137.787 20.768, -137.72874134651966 20.842344998098053, -137.693 20.893, -137.67292326139085 20.913575539568395, -137.653 20.939, -137.56000000000043 21.02930434782567, -137.532 21.058, -137.52494984326012 21.0633385579938, -137.515 21.073, -137.359 21.189, -137.19 21.284, -137.17645347444088 21.28944888178914, -137.17 21.293, -137.13701600000024 21.305311999999905, -137.011 21.356, -136.98222231789228 21.36309213018769, -136.953 21.374, -136.8746339702761 21.38960679405518, -136.8 21.408, -136.7606843657817 21.41230014749263, -136.717 21.421, -136.65940210526315 21.42337789473684, -136.608 21.429, -136.55965446353142 21.4274959166432, -136.499 21.43, -136.41411337061515 21.42296797153025, -136.383 21.422, -136.3666727755644 21.419037981407705, -136.33 21.416, -136.17553302961252 21.384362186788113, -136.157 21.381, -135.983 21.323, -135.96608142537443 21.31476450335686, -135.955 21.311, -135.89788741721853 21.281569536423834, -135.794 21.231, -135.77656026207532 21.219048910559234, -135.759 21.21, -135.6531718907983 21.13449342770441, -135.597 21.096, -135.59040640627117 21.089711312339553, -135.581 21.083, -135.4712949640287 20.97610791366898, -135.424 20.931, -135.33299999999952 20.811399999999374, -135.285 20.749, -135.174 20.545, -135.099 20.34, -135.096577092511 20.32821585903085, -135.094 20.321, -135.08336363636363 20.26395041322319, -135.055 20.126, -135.05390654205607 20.105953271028014, -135.05 20.085, -135.04565714285715 19.954714285714406, -135.043 19.906, -135.04374556962026 19.897367088607595, -135.043 19.875, -135.061 19.693, -135.06161468009947 19.6904615988485, -135.062 19.686, -135.099 19.521, -135.1108461538462 19.487153846153657, -135.11084615384624 19.487153846153596, -135.115 19.47, -135.128270042194 19.437371308017102, -135.155 19.361, -135.17873850730118 19.313278258518256, -135.2 19.261, -135.23303571428582 19.20412407952852, -135.252 19.166, -135.26998464912273 19.14051096491238, -135.297 19.094, -135.35525865348035 19.019655001901963, -135.391 18.969, -135.4105836909872 18.949053648068578, -135.431 18.923, -135.52751833740822 18.829953545232346, -135.553 18.804, -135.55986009506094 18.798775160157067, -135.57 18.789, -135.725 18.673, -135.895 18.578, -135.90199902248278 18.575184750733182, -135.915 18.568, -135.9732438650308 18.546527607361906, -136.074 18.506, -136.1030885072655 18.49865861483299, -136.132 18.488, -136.19515996967397 18.475421531463237, -136.284 18.453, -136.33667256637167 18.447238938053097, -136.368 18.441, -136.4122889390519 18.438968397291195, -136.476 18.432, -136.5286497622821 18.433630744849445, -136.586 18.431, -136.66226823742636 18.437769370185773, -136.702 18.439, -136.7256483279396 18.443394822006475, -136.755 18.446, -136.921 18.479, -136.92540645850016 18.480518014411537, -136.928 18.481, -137.101 18.539, -137.11512455516015 18.545875444839858, -137.13 18.551, -137.2041721854305 18.58922138126776, -137.29 18.631, -137.30470752089138 18.64102785515321, -137.326 18.652, -137.42532374100688 18.723266187050147, -137.488 18.766, -137.49725309061273 18.77487651134362, -137.503 18.779, -137.66 18.93, -137.8 19.113, -137.911 19.316, -137.92893939393974 19.366454545455476, -137.985 19.521, -137.98659010600707 19.528597173144817, -137.991 19.541, -138.00360902255636 19.609909774435888, -138.03 19.736, -138.03141882673944 19.761893587994606, -138.034 19.776, -138.03680851063828 19.860255319148642, -138.042 19.955, -138.04051400730816 19.971420219244916, -138.041 19.986, -138.023 20.168, -138.02255302087653 20.169889119314323, -138.022 20.176, -137.985 20.341, -137.97558984375 20.368375000000064, -137.97 20.392, -137.95462251655638 20.429370860926948, -137.93 20.501, -137.90322952586197 20.554267780172633), (-137.1697176156753 21.29215827749373, -137.1697176156753 21.292158277493733, -137.17 21.293, -137.1697176156753 21.29215827749373), (-135.59763872715905 21.094871451400003, -135.59763872715905 21.094871451399996, -135.597 21.096, -135.59763872715905 21.094871451400003), (-137.3242926267281 18.654381336405525, -137.3242926267281 18.654381336405528, -137.326 18.652, -137.3242926267281 18.654381336405525), (-137.4870933028048 18.767586720091597, -137.4870933028048 18.7675867200916, -137.488 18.766, -137.4870933028048 18.767586720091597), (-137.65947030356358 18.930491860976677, -137.65947030356358 18.93049186097668, -137.66 18.93, -137.65947030356358 18.930491860976677), (-137.705 19.763, -137.661 19.571, -137.594 19.405, -137.513 19.268, -137.422 19.151, -137.324 19.053, -137.136 18.917, -136.936 18.824, -136.76 18.776, -136.612 18.758, -136.395 18.765, -136.268 18.788, -136.142 18.826, -136.019 18.879, -135.902 18.945, -135.738 19.074, -135.643 19.174, -135.53 19.333, -135.445 19.511, -135.389 19.703, -135.367 19.902, -135.379 20.099, -135.423 20.29, -135.491 20.456, -135.572 20.594, -135.663 20.71, -135.76 20.808, -135.948 20.945, -136.149 21.038, -136.325 21.086, -136.472 21.104, -136.69 21.097, -136.817 21.074, -136.943 21.036, -137.066 20.983, -137.182 20.916, -137.347 20.787, -137.442 20.687, -137.554 20.528, -137.64 20.351, -137.695 20.158, -137.717 19.96, -137.705 19.763)))