MULTIPOLYGON (((-23.232 -95.833, -25.6 -96.095, -27.981 -96.024, -30.329 -95.621, -32.598 -94.893, -34.742 -93.856, -36.721 -92.529, -38.494 -90.938, -40.028 -89.115, -41.292 -87.096, -42.261 -84.919, -42.916 -82.629, -43.245 -80.269, -43.241 -77.887, -42.903 -75.528, -42.24 -73.24, -41.262 -71.067, -39.991 -69.053, -38.451 -67.235, -36.671 -65.651, -34.688 -64.331, -32.54 -63.302, 98.62446258650041 -11.400656713027956, -24.021 58.283, -26.005 59.602, -27.785 61.185, -29.326 63.002, -30.598 65.016, -31.576 67.189, -32.241 69.477, -32.579 71.835, -32.584 74.217, -32.256 76.577, -31.602 78.868, -30.633 81.044, -29.37 83.064, -27.837 84.888, -26.064 86.479, -24.086 87.807, -21.942 88.846, -19.674 89.574, -17.326 89.978, -14.945 90.05, -12.577 89.788, -10.268 89.198, -8.066 88.291, 97.94482674252038 35.67530243744335, 97.913 35.711, 97.854 35.805, 97.809 35.906, 97.782 36.014, 97.772 36.124, 97.779 36.235, 97.804 36.343, 97.845 36.446, 98.02367561727999 36.804152470511916, 91.088 40.262, 92.739 43.573, 93.854 45.811, 94.6331161522112 45.42223317252562, 95.302 46.765, 95.348 46.857, 95.391 46.944, 95.428 47.018, 95.457 47.075, 95.475 47.111, 95.481 47.123, 95.5699999999988 47.30199999999759, 95.57 47.302, 95.57000000000126 47.30200000000254, 95.62398360655737 47.4105737704918, 95.635 47.433, 95.653 47.469, 95.659 47.481, 96.465 47.079, 96.459 47.067, 96.441 47.031, 96.286 46.721, 96.28 46.709, 96.262 46.673, 96.234 46.616, 96.197 46.542, 96.154 46.456, 96.108 46.363, 95.503 45.15, 95.331 45.074, 95.689 45.231, 97.926 44.116, 98.016 43.736, 99.58200000000001 42.955, 99.179 43.156, 99.848 44.498, 99.895 44.591, 99.938 44.677, 99.975 44.751, 100.003 44.808, 100.021 44.844, 100.027 44.856, 100.832 44.454, 100.826 44.442, 100.808 44.407, 100.78 44.35, 100.743 44.275, 100.7 44.189, 100.654 44.096, 99.98500586381185 42.75401176268387, 101.148 42.174, 101.506 42.331, 103.743 41.215, 103.833 40.835, 105.309 40.099, 104.194 37.862, 102.543 34.551, 102.00638948834502 34.818448548189146, 101.891 34.587, 101.827 34.534, 101.784 34.533, 100.79800318485907 34.70001845344812, 100.798 34.7, 100.776 34.703, 100.712 34.714, 100.63575119617222 34.727502392344505, 100.36305986009846 34.77369370302661, 99.44988497121238 34.92830620122654, 135.425 17.073, 135.616 16.979, 135.802 16.886, 136.013 16.766, 136.201 16.625, 136.367 16.468, 136.509 16.3, 136.628 16.124, 136.725 15.941, 136.801 15.756, 136.87 15.507, 136.908 15.244, 136.91 14.981, 136.919 14.398, 137.013 13.823, 137.19 13.267, 137.445 12.743, 137.774 12.262, 138.17 11.833, 138.623 11.467, 139.125 11.17, 139.665 10.95, 140.231 10.81, 140.811 10.754, 141.394 10.783, 141.965 10.897, 142.515 11.092, 143.03 11.365, 143.5 11.71, 143.786 11.914, 144.108 12.066, 144.428 12.154, 144.709 12.187, 144.974 12.181, 145.219 12.144, 145.442 12.083, 145.565 12.036, 145.508 12.034, 145.573 12.007, 145.655 11.983, 145.687 11.98, 145.874 11.888, 146.064 11.793, 159.892 4.93, 160.2883878590079 4.716616024804132, 160.575 4.576, 161.124 4.255, 161.43272702413347 4.058177086692409, 162.118 3.66, 162.3039194439623 3.525613218191283, 162.674 3.287, 162.94123827851655 3.086242827151772, 163.299 2.838, 163.6669014086991 2.5411035631798438, 163.691 2.523, 163.9410349053085 2.319877831416056, 164.299 2.031, 164.31960634610255 2.0123357627470306, 164.693 1.709, 165.01056916680912 1.4095584600489202, 165.189 1.259, 165.46051625570252 0.9789544378356305, 165.742 0.724, 166.2137125322995 0.2020975452199001, 166.526 -0.12, 166.958 -0.596, 167.15877419996528 -0.8515990750181565, 167.384 -1.112, 167.65603905088236 -1.4773715975946495, 167.853 -1.722, 168.219 -2.25, 168.40855245823747 -2.547608274161712, 168.866 -3.204, 168.98266869712361 -3.413216018048672, 169.212 -3.776, 169.37598670264015 -4.08327076507988, 169.588 -4.447, 169.7870011108026 -4.853410719244772, 169.814 -4.904, 170.06188372092976 -5.41479069767343, 170.156 -5.607, 170.16153483580175 -5.6201323889247865, 170.375 -6.06, 170.5332828743337 -6.457335610467332, 170.635 -6.677, 170.76460082318005 -7.051014419985568, 170.91 -7.396, 171.11668424006214 -8.067090334632622, 171.266 -8.498, 171.455 -9.106, 171.52979918230824 -9.426100204423365, 171.623 -9.754, 171.7127784721337 -10.187581303405361, 171.791 -10.504, 171.901 -11.144, 171.94697408986553 -11.495008527386066, 172.083 -12.275, 172.10039207961543 -12.515405412556717, 172.154 -12.941, 172.1724260607826 -13.278723371201187, 172.212 -13.708, 172.2208134728247 -14.165595509058468, 172.224 -14.224, 172.2329348914858 -14.794939565943029, 172.237 -15.006, 172.236463344455 -15.020407710673698, 172.244 -15.502, 172.21959676410248 -15.938620058490711, 172.219 -16.171, 172.17920151839022 -16.557728679885013, 172.165 -16.939, 172.06647117809902 -17.653148754229672, 172.021 -18.095, 171.937 -18.719, 171.86735918570002 -19.051153028798765, 171.815 -19.377, 171.7154929034808 -19.800074389962667, 171.651 -20.128, 171.478 -20.761, 171.37420722183165 -21.089795615773056, 171.167 -21.857, 171.08343378914864 -22.076646052051217, 170.951 -22.49, 170.82517090032675 -22.803657152823757, 170.68 -23.21, 170.49276946622976 -23.63224201661229, 170.47 -23.689, 170.1729093637473 -24.353590036010374, 170.151 -24.403, 170.1495884244372 -24.405758842443944, 169.951 -24.85, 169.7460704396686 -25.232621647454135, 169.646 -25.446, 169.4479246317731 -25.77711996796963, 169.273 -26.119, 168.87741657017017 -26.73083073360109, 168.65 -27.111, 168.314 -27.636, 61.829 -181.972, 60.342 -183.833, 58.61 -185.469, 56.665 -186.845, 54.548 -187.937, 52.298 -188.722, 49.961 -189.185, 47.583 -189.316, 45.209 -189.114, 42.887 -188.581, 40.662 -187.73, 38.578 -186.575, 36.676 -185.141, 34.993 -183.455, 33.562 -181.55, 32.411 -179.464, 31.564 -177.237, 31.036 -174.914, 30.838 -172.54, 30.974 -170.161, 31.441 -167.825, 32.23 -165.577, 33.326 -163.462, 99.35272573108254 -55.275708203317315, -20.924 -95.242, -23.232 -95.833), (94.63456235643947 45.42151153913616, 94.63456235643949 45.421511539136155, 95.503 45.15, 94.63456235643947 45.42151153913616), (135.824 16.862, 135.943 16.783, 135.802 16.886, 135.824 16.862), (136.052 16.703, 136.103 16.667, 136.013 16.766, 136.052 16.703), (136.198 16.592, 136.244 16.553, 136.288 16.514, 136.201 16.625, 136.198 16.592), (136.37 16.433, 136.416 16.383, 136.452 16.341, 136.367 16.468, 136.37 16.433), (144.819 12.17, 144.886 12.166, 144.953 12.161, 144.974 12.181, 144.819 12.17), (145.077 12.145, 145.141 12.133, 145.198 12.122, 145.219 12.144, 145.077 12.145), (145.313 12.092, 145.373 12.074, 145.442 12.083, 145.313 12.092), (171.1529422570295 -21.857795721300217, 171.149 -21.872, 171.167 -21.857, 171.1529422570295 -21.857795721300217), (164.86458344378923 -20.854306211193965, 164.80851456191223 -21.02111481383853, 164.92060498253895 -20.765855943190157, 164.95811146189544 -20.65422132376869, 164.9634117955479 -20.636763924259075, 164.86458344378923 -20.854306211193965), (162.62654479428323 -5.195062807170732, 162.5174369806094 -5.046377423822708, 162.36797934198398 -4.866222731961764, 162.50278575359053 -5.054719116271413, 162.62654479428323 -5.195062807170732), (162.111 3.65, 161.75188258312727 3.861688004559928, 161.75188258312718 3.8616880045599684, 162.111 3.65), (158.0912907244663 -14.30328112064923, 158 -14.422, 158.0912907244663 -14.303281120649237, 158.0912907244663 -14.30328112064923), (157.924 -14.617, 157.855 -14.45, 157.788 -14.289, 157.924 -14.617), (158.00899999999095 -14.82199999997812, 157.98 -14.752, 157.924 -14.617, 158.00899999999095 -14.82199999997812), (157.8437142857131 -15.54300000000154, 157.917 -15.448, 157.99715257731694 -15.34285360825088, 157.8437142857131 -15.54300000000154), (157.9542897637795 -13.846839370078726, 157.96353333333357 -13.855086626746726, 157.96353333333377 -13.855086626746882, 157.95428976377963 -13.846839370078817, 157.9542897637795 -13.846839370078726), (156.87950246305394 -13.97539901477829, 157.4415067567571 -14.049514864864907, 157.282 -14.028, 157.061 -13.999, 156.93 -13.982, 156.87950246305394 -13.97539901477829), (156.55849324324348 -15.95048513513517, 156.718 -15.972, 156.939 -16.001, 157.07 -16.018, 157.12049753694563 -16.02460098522165, 156.55849324324348 -15.95048513513517), (156.083 -14.552, 156.0028474226833 -14.657146391748805, 156.15628571428644 -14.45699999999904, 156.083 -14.552), (156.0016333333342 -19.974366666669518, 156.07196954135745 -20.207276385453063, 156.07197156907702 -20.2072723707721, 156.014 -20.015, 156.0016333333342 -19.974366666669518), (155.917 -9.586, 155.78375855856012 -9.461884684686156, 156.055 -9.717, 155.917 -9.586), (155.9816666666671 -10.029222222220394, 156.005 -9.932, 156.055 -9.717, 155.9816666666671 -10.029222222220394), (155.939 -10.211, 155.94185714285618 -10.19871428571834, 155.89366666666126 -10.403888888911856, 155.939 -10.211), (155.58 -10.905, 155.791 -10.841, 155.47813855421708 -10.935283132530055, 155.58 -10.905), (155.839 -10.639, 155.8876878980896 -10.429343949042716, 155.791 -10.841, 155.839 -10.639), (155.849 -19.467, 155.80560714285775 -19.32525000000197, 155.8830110497229 -19.581563535908717, 155.849 -19.467), (155.5668746958615 -20.753181265209218, 155.693 -20.62, 155.778 -20.529, 155.82444507042072 -20.479329577466732, 155.5668746958615 -20.753181265209218), (155.529 -9.222, 155.47932957746528 -9.175554929577922, 155.75318126520474 -9.433125304134306, 155.62 -9.307, 155.529 -9.222), (155.068 -21.005, 155.283 -21.055, 154.97077777777847 -20.981666666666833, 155.068 -21.005), (155.414 -20.917, 155.53811531531693 -20.783758558556844, 155.283 -21.055, 155.414 -20.917), (155.43860483870844 -19.037209677419064, 155.328 -19.011, 155.111 -18.96, 155.04686666666754 -18.945200000000206, 155.43860483870844 -19.037209677419064), (154.686 -11.174, 154.884 -11.115, 155.092 -11.052, 155.305 -10.988, 155.39930223880563 -10.959041044776221, 154.686 -11.174), (155.20727237077213 -8.928028430922977, 155.015 -8.986, 154.97436666666428 -8.998366666667385, 155.2072763854531 -8.928030458642553, 155.20727237077213 -8.928028430922977), (154.789 -20.939, 154.80128571428622 -20.941857142857266, 154.59611111111934 -20.8936666666686, 154.789 -20.939), (154.616 -18.844, 154.518 -18.948, 154.47029394812773 -18.999296829970174, 154.616 -18.844), (154.467 -9.151, 154.3252499999993 -9.19439285714307, 154.58156353591187 -9.116988950276161, 154.467 -9.151), (154.159 -20.791, 154.06471686746983 -20.47813855421673, 154.095 -20.58, 154.159 -20.791), (154.361 -20.839, 154.5706560509558 -20.887687898089258, 154.159 -20.791, 154.361 -20.839), (154.397 -10.903, 154.52015151515494 -11.01839393939715, 154.265 -10.779, 154.397 -10.903), (154.097 -19.397, 153.98160606061504 -19.520151515141954, 154.221 -19.265, 154.097 -19.397), (154.09411270491805 -9.246887295081972, 154.108 -9.26, 154.09411270491805 -9.246887295081967, 154.09411270491805 -9.246887295081972), (153.948 -20.092, 154.012 -20.305, 154.0409589552239 -20.39930223880614, 153.826 -19.686, 153.885 -19.884, 153.948 -20.092), (154.011 -9.672, 153.96 -9.889, 153.94520000000026 -9.95313333333228, 154.03720967741933 -9.56139516129049, 154.011 -9.672), (153.844 -10.384, 153.948 -10.482, 153.99929682997 -10.529706051872093, 153.844 -10.384), (152.18023835300784 -30.836602499585027, 152.37332255887642 -30.815355938502467, 152.58748369518204 -30.7787696566041, 152.35409021672638 -30.801520617529192, 152.18023835300784 -30.836602499585027), (151.001 -22.061, 151.018 -21.93, 151.02460098522167 -21.87950246305438, 150.9504851351346 -22.441506756760734, 150.972 -22.282, 151.001 -22.061), (151.001 -8.061, 151.018 -7.93, 151.02460098522164 -7.879502463054412, 150.9504851351346 -8.441506756760736, 150.972 -8.282, 151.001 -8.061), (150.17799999999505 -23.009000000002054, 150.248 -22.98, 150.383 -22.924, 150.17799999999505 -23.009000000002054), (150.55 -22.855, 150.711 -22.788, 150.383 -22.924, 150.55 -22.855), (150.34285360824927 -7.0028474226818345, 150.54299999999878 -7.156285714284781, 150.448 -7.083, 150.34285360824927 -7.0028474226818345), (150.448 -21.083, 150.34285360824887 -21.00284742268152, 150.5429999999985 -21.15628571428455, 150.448 -21.083), (149.45 -7.145, 149.289 -7.212, 149.617 -7.076, 149.45 -7.145), (149.82200000000418 -6.990999999998272, 149.752 -7.02, 149.617 -7.076, 149.82200000000418 -6.990999999998272), (149.65714639175073 -8.997152577318166, 149.45700000000122 -8.843714285715219, 149.552 -8.917, 149.65714639175073 -8.997152577318166), (149.552 -22.917, 149.65714639175005 -22.997152577317664, 149.4570000000015 -22.84371428571545, 149.552 -22.917), (148.982 -22.07, 148.97539901477833 -22.12049753694562, 149.0495148648654 -21.558493243239266, 149.028 -21.718, 148.999 -21.939, 148.982 -22.07), (149.0495148648654 -7.558493243239294, 149.028 -7.718, 148.999 -7.939, 148.982 -8.07, 148.97539901477836 -8.120497536945601, 149.0495148648654 -7.558493243239294), (147.81976164699216 0.8366024995850259, 147.62667744112352 0.8153559385024618, 147.4125163048179 0.7787696566040999, 147.64590978327362 0.801520617529195, 147.81976164699216 0.8366024995850259), (146.115 -10.116, 146.052 -9.908, 145.988 -9.695, 145.95904104477606 -9.60069776119379, 146.174 -10.314, 146.115 -10.116), (146.00070317003033 -19.470293948128212, 146.156 -19.616, 146.052 -19.518, 146.00070317003033 -19.470293948128212), (146.05479999999943 -20.046866666669136, 145.96279032258087 -20.438604838708734, 145.989 -20.328, 146.04 -20.111, 146.05479999999943 -20.046866666669136), (146.01839393938502 -10.479848484857989, 145.77900000000068 -10.734999999999276, 145.903 -10.603, 146.01839393938502 -10.479848484857989), (145.4293439490449 -9.112312101910897, 145.841 -9.209, 145.639 -9.161, 145.4293439490449 -9.112312101910897), (145.9352831325302 -9.521861445783399, 145.905 -9.42, 145.841 -9.209, 145.9352831325302 -9.521861445783399), (145.892 -20.74, 145.90588729508195 -20.75311270491803, 145.90588729508195 -20.753112704918028, 145.892 -20.74), (145.47984848484649 -18.9816060606042, 145.73500000000394 -19.2210000000037, 145.735 -19.221, 145.603 -19.097, 145.47984848484649 -18.9816060606042), (145.533 -20.849, 145.67475000000059 -20.805607142856964, 145.41843646408813 -20.883011049723837, 145.533 -20.849), (145.384 -11.156, 145.482 -11.052, 145.52970605187213 -11.000703170029977, 145.384 -11.156), (145.40388888886997 -9.106333333328886, 145.211 -9.061, 145.1987142857149 -9.058142857143002, 145.40388888886997 -9.106333333328886), (144.908 -18.948, 144.695 -19.012, 144.60069776119434 -19.040958955223786, 145.314 -18.826, 145.116 -18.885, 144.908 -18.948), (144.46188468468316 -9.216241441443078, 144.717 -8.945, 144.586 -9.083, 144.46188468468316 -9.216241441443078), (145.0292222222211 -9.01833333333307, 144.932 -8.995, 144.717 -8.945, 145.0292222222211 -9.01833333333307), (144.985 -21.014, 145.02563333333458 -21.001633333332954, 144.7927236145469 -21.071969541357447, 144.79272762922787 -21.071971569077025, 144.985 -21.014), (144.672 -10.989, 144.889 -11.04, 144.95313333333226 -11.05479999999975, 144.56139516129178 -10.96279032258099, 144.672 -10.989), (144.1123121019104 -19.570656050957243, 144.209 -19.159, 144.161 -19.361, 144.1123121019104 -19.570656050957243), (144.52186144578303 -19.064716867469908, 144.42 -19.095, 144.209 -19.159, 144.52186144578303 -19.064716867469908), (144.4679068489879 -20.907912342509118, 144.471 -20.778, 144.46790684898787 -20.907912342509107, 144.4679068489879 -20.907912342509118), (144.52067042253418 -20.824445070421568, 144.24681873479543 -20.566874695865863, 144.38 -20.693, 144.471 -20.778, 144.52067042253418 -20.824445070421568), (144.222 -9.471, 144.17555492957794 -9.52067042253472, 144.43312530413826 -9.246818734791072, 144.307 -9.38, 144.222 -9.471), (144.18146052992054 -20.732543892606948, 144.199 -20.73, 144.18146052992054 -20.732543892606945, 144.18146052992054 -20.732543892606948), (144.29656793351384 -20.821373144084404, 144.29656793351387 -20.821373144084415, 144.199 -20.73, 144.29656793351384 -20.821373144084404), (143.93138132418554 -20.28711440356932, 143.945 -20.283, 143.93138132418554 -20.287114403569316, 143.93138132418554 -20.28711440356932), (144.083 -20.414, 144.21624144143973 -20.538115315313714, 143.945 -20.283, 144.083 -20.414), (144.01833333333298 -19.97077777777928, 143.995 -20.068, 143.945 -20.283, 144.01833333333298 -19.97077777777928), (144.11698895027732 -10.418436464092055, 144.151 -10.533, 144.19439285714137 -10.67474999999515, 144.11698895027732 -10.418436464092055), (144.013 -19.442, 144.11199728014506 -19.571996428473316, 144.11199728014506 -19.571996428473312, 144.013 -19.442), (144.10633333334425 -19.596111111064687, 144.061 -19.789, 144.0581428571436 -19.801285714282614, 144.10633333334425 -19.596111111064687), (143.92803045864255 -9.792723614546931, 143.92802843092298 -9.792727629227901, 143.986 -9.985, 143.99836666666596 -10.025633333331, 143.92803045864255 -9.792723614546931), (143.917 -15.448, 143.99715257731657 -15.342853608251366, 143.8437142857138 -15.543000000000646, 143.917 -15.448), (143.93041773604898 -19.59712597127384, 143.949 -19.603, 143.93041773604898 -19.597125971273837, 143.93041773604898 -19.59712597127384), (143.788 -14.289, 143.703 -14.084, 143.7880000000012 -14.289000000002911, 143.788 -14.289), (142.93 -13.982, 142.8795024630534 -13.97539901477822, 143.441506756757 -14.049514864864896, 143.282 -14.028, 143.061 -13.999, 142.93 -13.982), (142.5584932432429 -15.950485135135093, 142.718 -15.972, 142.939 -16.001, 143.07 -16.018, 143.12049753694606 -16.02460098522171, 142.5584932432429 -15.950485135135093), (143.11704241007808 -16.243986262326843, 143.108 -16.15, 143.11704241007808 -16.24398626232685, 143.11704241007808 -16.243986262326843), (142.02 -15.248, 142.076 -15.383, 141.99100000000905 -15.17800000002188, 142.02 -15.248), (142.145 -15.55, 142.212 -15.711, 142.076 -15.383, 142.145 -15.55), (142.083 -14.552, 142.00284742268306 -14.65714639174912, 142.1562857142869 -14.45699999999846, 142.083 -14.552), (142.03646666666634 -16.144913373253225, 142.04571023622034 -16.15316062992116, 142.04571023622043 -16.153160629921235, 142.0364666666665 -16.144913373253356, 142.03646666666634 -16.144913373253225), (142 -15.578, 141.9087092755337 -15.696718879350763, 141.9087092755337 -15.69671887935077, 142 -15.578), (137.37345520571674 -24.80493719282922, 137.48256301939062 -24.953622576177338, 137.63202065801616 -25.13377726803843, 137.4972142464095 -24.945280883728593, 137.37345520571674 -24.80493719282922), (135.1354165562108 -9.145693788805989, 135.19148543808774 -8.97888518616158, 135.0793950174611 -9.234144056809805, 135.0418885381042 -9.345778676232548, 135.03658820445213 -9.363236075740897, 135.1354165562108 -9.145693788805989), (100.908 40.769, 100.87 40.61, 100.855 40.446, 100.865 40.282, 100.9 40.121, 100.957 39.967, 101.038 39.824, 101.138 39.694, 101.257 39.58, 101.392 39.486, 101.539 39.412, 101.696 39.362, 101.858 39.335, 102.022 39.333, 102.185 39.355, 102.343 39.401, 102.492 39.471, 102.629 39.561, 102.751 39.672, 102.855 39.799, 102.939 39.94, 103.002 40.092, 103.04 40.252, 103.055 40.416, 103.045 40.58, 103.01 40.741, 102.953 40.894, 102.872 41.038, 102.772 41.168, 102.653 41.281, 102.518 41.376, 102.371 41.449, 102.214 41.5, 102.052 41.527, 101.888 41.529, 101.725 41.506, 101.567 41.46, 101.418 41.391, 101.281 41.3, 101.159 41.19, 101.055 41.063, 100.971 40.922, 100.908 40.769), (101.91308130212782 35.752775678767144, 99.60962230838743 40.147376132866285, 99.60962230838742 40.14737613286629, 101.91308130212782 35.752775678767144), (101.62 34.763, 101.662 34.765, 101.7 34.784, 101.726 34.817, 101.78220169762722 34.92964881751483, 101.559 35.041, 101.55917102219661 35.04134378951768, 99.098 36.268, 99.0972799471653 36.26835935597709, 98.919 35.911, 98.862 35.815, 98.79 35.731, 98.706 35.658, 98.612 35.6, 98.51 35.557, 98.402 35.531, 98.291 35.523, 98.2439280384241 35.526851342310756, 98.82989868587367 35.23602015728826, 100.536 34.947, 100.649 34.928, 100.6736282722508 34.92363874345559, 100.78383760683757 34.90493162393163, 100.809 34.901, 100.832 34.897, 100.83195916361849 34.89676338920129, 101.62 34.763), (97.884 41.79, 97.899 41.822, 97.661 41.343, 97.884 41.79), (95.14 42.867, 95.221 42.724, 95.321 42.594, 95.44 42.481, 95.575 42.386, 95.722 42.313, 95.878 42.262, 96.041 42.235, 96.205 42.233, 96.368 42.255, 96.526 42.302, 96.675 42.371, 96.812 42.462, 96.934 42.572, 97.038 42.699, 97.122 42.84, 97.185 42.992, 97.223 43.152, 97.238 43.316, 97.228 43.48, 97.193 43.641, 97.135 43.795, 97.055 43.938, 96.954 44.068, 96.835 44.182, 96.701 44.276, 96.554 44.349, 96.397 44.4, 96.235 44.427, 96.071 44.429, 95.908 44.407, 95.75 44.36, 95.601 44.291, 95.464 44.2, 95.342 44.09, 95.238 43.963, 95.153 43.822, 95.091 43.67, 95.053 43.51, 95.038 43.346, 95.048 43.182, 95.082 43.021, 95.14 42.867), (52.109 -176.047, 52.115 -176.286, 52.156 -176.521, 52.231 -176.748, 52.34 -176.961, 52.479 -177.156, 52.646 -177.327, 52.836 -177.472, 53.046 -177.587, 53.27 -177.669, 53.504 -177.717, 53.743 -177.73, 53.981 -177.707, 54.213 -177.648, 54.434 -177.556, 54.638 -177.432, 54.822 -177.278, 54.98 -177.1, 55.111 -176.899, 55.209 -176.681, 55.275 -176.451, 55.305 -176.214, 55.3 -175.975, 55.259 -175.739, 55.183 -175.512, 55.075 -175.299, 54.936 -175.105, 54.769 -174.933, 54.579 -174.788, 54.369 -174.674, 54.144 -174.591, 53.91 -174.543, 53.671 -174.531, 53.433 -174.554, 53.202 -174.612, 52.981 -174.705, 52.777 -174.829, 52.593 -174.982, 52.434 -175.161, 52.304 -175.362, 52.205 -175.579, 52.14 -175.809, 52.109 -176.047), (50.278 -166.166, 50.251 -166.374, 50.256 -166.583, 50.292 -166.789, 50.358 -166.988, 50.453 -167.174, 50.574 -167.344, 50.72 -167.495, 50.887 -167.621, 51.07 -167.722, 51.267 -167.794, 51.472 -167.836, 51.68 -167.847, 51.889 -167.826, 52.092 -167.775, 52.285 -167.695, 52.463 -167.586, 52.624 -167.452, 52.763 -167.295, 52.877 -167.12, 52.963 -166.929, 53.021 -166.728, 53.047 -166.52, 53.042 -166.311, 53.007 -166.105, 52.941 -165.907, 52.846 -165.72, 52.724 -165.55, 52.578 -165.4, 52.412 -165.273, 52.228 -165.172, 52.032 -165.1, 51.827 -165.058, 51.618 -165.047, 51.409 -165.068, 51.207 -165.119, 51.013 -165.2, 50.835 -165.308, 50.674 -165.442, 50.535 -165.599, 50.421 -165.775, 50.335 -165.965, 50.278 -166.166), (47.902 -171.809, 47.825 -171.805, 47.824 -171.768, 47.783 -171.771, 47.743 -171.776, 47.749 -171.813, 47.675 -171.832, 47.604 -171.861, 47.587 -171.828, 47.551 -171.848, 47.517 -171.871, 47.538 -171.901, 47.48 -171.95, 47.429 -172.007, 47.399 -171.985, 47.376 -172.019, 47.355 -172.054, 47.387 -172.072, 47.355 -172.141, 47.334 -172.215, 47.298 -172.208, 47.292 -172.248, 47.288 -172.289, 47.325 -172.291, 47.326 -172.368, 47.34 -172.443, 47.304 -172.452, 47.315 -172.492, 47.33 -172.53, 47.364 -172.516, 47.399 -172.584, 47.443 -172.646, 47.415 -172.67, 47.442 -172.701, 47.472 -172.729, 47.497 -172.701, 47.557 -172.748, 47.625 -172.784, 47.609 -172.818, 47.647 -172.834, 47.686 -172.846, 47.697 -172.811, 47.772 -172.826, 47.848 -172.83, 47.849 -172.867, 47.89 -172.865, 47.931 -172.859, 47.924 -172.823, 47.999 -172.804, 48.069 -172.774, 48.086 -172.807, 48.122 -172.787, 48.156 -172.765, 48.135 -172.735, 48.194 -172.686, 48.244 -172.628, 48.274 -172.651, 48.297 -172.617, 48.319 -172.582, 48.286 -172.564, 48.318 -172.494, 48.339 -172.421, 48.375 -172.428, 48.382 -172.388, 48.385 -172.347, 48.348 -172.345, 48.347 -172.268, 48.334 -172.193, 48.369 -172.184, 48.358 -172.144, 48.344 -172.106, 48.309 -172.12, 48.275 -172.052, 48.23 -171.989, 48.258 -171.966, 48.231 -171.935, 48.201 -171.907, 48.177 -171.934, 48.116 -171.888, 48.049 -171.851, 48.064 -171.818, 48.026 -171.802, 47.987 -171.789, 47.977 -171.825, 47.902 -171.809), (43.582 -176.86, 43.389 -176.941, 43.21 -177.05, 43.049 -177.184, 42.91 -177.34, 42.796 -177.516, 42.71 -177.706, 42.653 -177.908, 42.626 -178.115, 42.631 -178.324, 42.667 -178.531, 42.733 -178.729, 42.828 -178.916, 42.949 -179.086, 43.095 -179.236, 43.262 -179.363, 43.445 -179.463, 43.642 -179.535, 43.847 -179.577, 44.056 -179.588, 44.264 -179.568, 44.467 -179.517, 44.66 -179.436, 44.839 -179.327, 44.999 -179.193, 45.138 -179.037, 45.252 -178.861, 45.339 -178.671, 45.396 -178.469, 45.422 -178.262, 45.418 -178.053, 45.382 -177.846, 45.316 -177.648, 45.221 -177.461, 45.099 -177.291, 44.953 -177.141, 44.787 -177.014, 44.603 -176.914, 44.407 -176.842, 44.202 -176.8, 43.993 -176.789, 43.784 -176.809, 43.582 -176.86), (40.414 -168.896, 40.49 -169.123, 40.599 -169.336, 40.738 -169.531, 40.904 -169.702, 41.094 -169.847, 41.304 -169.962, 41.529 -170.044, 41.763 -170.092, 42.002 -170.105, 42.24 -170.082, 42.472 -170.023, 42.692 -169.931, 42.897 -169.807, 43.08 -169.654, 43.239 -169.475, 43.369 -169.274, 43.468 -169.056, 43.533 -168.826, 43.564 -168.589, 43.558 -168.35, 43.517 -168.114, 43.442 -167.888, 43.333 -167.674, 43.194 -167.48, 43.028 -167.308, 42.837 -167.163, 42.628 -167.049, 42.403 -166.966, 42.169 -166.918, 41.93 -166.906, 41.692 -166.929, 41.46 -166.987, 41.24 -167.08, 41.035 -167.204, 40.852 -167.357, 40.693 -167.536, 40.563 -167.737, 40.464 -167.954, 40.398 -168.184, 40.368 -168.422, 40.373 -168.661, 40.414 -168.896), (-8.513 70.177, -8.631 70.366, -8.702 70.479, -8.783 70.609, -8.901 70.797, -8.410297297297051 70.01123423423384, -8.513 70.177), (-8.444884955752656 69.52392477876022, -8.507288329518827 69.40660183066478, -8.475 69.467, -8.444884955752656 69.52392477876022), (-8.504880714374304 70.48101964529332, -8.504880714374305 70.48101964529332, -8.512 70.461, -8.504880714374304 70.48101964529332), (-8.662540540540347 69.11471621621658, -8.628 69.179, -8.589437699681051 69.25215495207566, -8.662540540540347 69.11471621621658), (-9.339 68.78, -9.206 68.785, -9.052 68.79, -8.831 68.798, -9.985 68.758, -9.778 68.765, -9.561 68.772, -9.339 68.78), (-10.206923322683833 69.11300479233246, -10.184 69.076, -10.102 68.945, -9.985 68.758, -10.206923322683833 69.11300479233246), (-9.107579672765377 70.78966051422584, -9.107579672765374 70.78966051422584, -9.059 70.866, -9.107579672765377 70.78966051422584), (-9.314838046272973 70.78229691516708, -9.324 70.782, -9.40668539325754 70.7790337078652, -9.314838046272973 70.78229691516708), (-9.382282507288632 70.95080962099125, -9.382282507288636 70.95080962099125, -9.38228250728864 70.95080962099125, -9.397 70.931, -9.38228250728863 70.95080962099125, -9.382282507288632 70.95080962099125), (-10.055 70.756, -9.555898446834355 70.77373237753882, -9.68 70.77, -9.834 70.764, -10.055 70.756), (-10.238 70.412, -10.246201166181871 70.39652769679091, -10.231081218273252 70.42495431472243, -10.238 70.412), (-10.487 69.561, -10.372 69.377, -10.360605150214507 69.35884549356209, -10.59351872376943 69.73143109570306, -10.59351889914649 69.73143023863437, -10.487 69.561), (-10.589490045655136 69.75111926840852, -10.37197804391192 70.16005788423202, -10.394 70.119, -10.493 69.933, -10.589478685677067 69.75117478468552, -10.589490045655136 69.75111926840852), (-10.97693970362801 78.61809862033724, -10.976939703628018 78.61809862033722, -10.976939703628002 78.61809862033725, -10.976939703627995 78.61809862033726, -10.97693970362801 78.61809862033724), (-11.859 78.363, -11.738 78.418, -11.712067222122677 78.4298549841725, -11.711941014846177 78.4303269084654, -11.939307692305894 78.32660439560522, -11.859 78.363), (-12.455869430051807 78.10130715025906, -12.455861272019723 78.10130930101298, -12.776057464234725 78.3292917120481, -12.775973734177215 78.32859214135021, -12.753 78.312, -12.627 78.223, -12.455869430051807 78.10130715025906), (-15.879 73.55, -15.862 73.517, -15.927 73.477, -15.985 73.427, -16.011 73.453, -16.039 73.423, -16.065 73.391, -16.035 73.369, -16.076 73.304, -16.107 73.234, -16.142 73.246, -16.154 73.207, -16.163 73.167, -16.127 73.16, -16.135 73.084, -16.133 73.007, -16.17 73.003, -16.163 72.963, -16.154 72.923, -16.119 72.932, -16.094 72.86, -16.058 72.792, -16.089 72.772, -16.066 72.738, -16.041 72.706, -16.013 72.73, -15.959 72.676, -15.897 72.63, -15.917 72.599, -15.881 72.578, -15.844 72.56, -15.829 72.594, -15.757 72.569, -15.682 72.554, -15.686 72.518, -15.645 72.514, -15.604 72.514, -15.605 72.551, -15.529 72.56, -15.455 72.579, -15.443 72.544, -15.405 72.559, -15.368 72.577, -15.385 72.61, -15.32 72.65, -15.262 72.7, -15.236 72.674, -15.208 72.704, -15.182 72.736, -15.212 72.758, -15.171 72.823, -15.14 72.893, -15.105 72.881, -15.093 72.92, -15.084 72.96, -15.12 72.967, -15.111 73.043, -15.114 73.12, -15.077 73.124, -15.083 73.164, -15.092 73.204, -15.128 73.195, -15.153 73.267, -15.189 73.335, -15.157 73.355, -15.18 73.389, -15.206 73.421, -15.234 73.397, -15.288 73.451, -15.35 73.497, -15.33 73.528, -15.365 73.549, -15.402 73.567, -15.417 73.533, -15.489 73.558, -15.565 73.573, -15.56 73.609, -15.601 73.613, -15.642 73.613, -15.641 73.576, -15.717 73.567, -15.791 73.548, -15.804 73.583, -15.842 73.568, -15.879 73.55), (-17.55107418397626 66.25436795252224, -17.551074183976255 66.25436795252226, -17.551074183976237 66.2543679525223, -17.551074183976244 66.25436795252229, -17.55107418397626 66.25436795252224), (-18.397627938955388 65.94500329117919, -18.431784505782996 66.00164266148826, -18.39762793895539 65.94500329117919, -18.397627938955388 65.94500329117919), (-18.469372539284564 65.90473557083634, -18.46937253928456 65.90473557083634, -18.446696842458362 65.96375052539682, -18.469372539284564 65.90473557083634), (-18.831 65.819, -18.634 65.909, -18.555573435505018 65.94510727969323, -18.9711586937853 65.7553062102598, -18.970732160239653 65.75541817047296, -18.831 65.819), (-18.81 -77.205, -18.711 -77.087, -18.569 -76.917, -19.312 -77.802, -19.178 -77.643, -19.039 -77.477, -18.896 -77.307, -18.81 -77.205), (-18.748205263157914 -76.4247526315789, -18.766 -76.375, -18.828 -76.205, -18.87018749999941 -76.0896875000016, -18.748205263157914 -76.4247526315789), (-19.168 -75.796, -19.22094915253832 -75.78680225988771, -18.964 -75.832, -19.168 -75.796), (-19.238950395617763 -75.64129214850882, -19.238950395617767 -75.64129214850882, -19.257 -75.653, -19.238950395617763 -75.64129214850882), (-19.478 -77.849, -19.47492008020625 -77.86408714333751, -19.474920080206246 -77.86408714333751, -19.478 -77.849), (-19.52959761694071 -77.76353287510547, -19.529597616940713 -77.76353287510547, -19.649 -77.87, -19.52959761694071 -77.76353287510547), (-20.234 -75.79, -20.373 -75.956, -20.517 -76.127, -20.58793750000084 -76.21212500000101, -20.101 -75.632, -20.234 -75.79), (-19.54192265193381 -75.73034254143644, -19.6 -75.72, -19.731 -75.697, -19.883 -75.67, -20.101 -75.632, -19.54192265193381 -75.73034254143644), (-19.6404666666679 -77.74393333333312, -19.717137931033292 -77.73037931034504, -19.681 -77.737, -19.6404666666679 -77.74393333333312), (-19.998675276754202 -77.68060885608831, -20.164749999998378 -77.65125000000029, -20.031 -77.675, -19.998675276754202 -77.68060885608831), (-20.778 -76.695, -20.71 -76.883, -20.639 -77.078, -20.632206463195825 -77.09648473967647, -20.843 -76.516, -20.778 -76.695), (-20.968580152671464 75.79104580152726, -20.921 75.88, -20.836 76.04, -20.754 76.194, -20.65 76.39, -20.968580152671464 75.79104580152726), (-20.76 76.566, -20.875 76.75, -20.886394849785265 76.76815450643754, -20.65 76.39, -20.76 76.566), (-21.061 75.617, -21.021046594983005 75.6924050179194, -21.11809090908973 75.50995454545675, -21.061 75.617), (-21.262 77.369, -21.469 77.362, -21.685 77.355, -21.908 77.347, -22.041 77.342, -22.195 77.337, -22.416 77.329, -21.262 77.369), (-21.04007667731604 77.01399520766732, -21.063 77.051, -21.145 77.182, -21.262 77.369, -21.04007667731604 77.01399520766732), (-21.252985298921924 77.38597212240008, -21.252985298921928 77.38597212240008, -21.262 77.369, -21.252985298921924 77.38597212240008), (-21.264445384230147 77.39146341327694, -21.26444538423015 77.39146341327694, -21.262 77.369, -21.264445384230147 77.39146341327694), (-21.057548394775207 75.44716825850219, -21.069 75.459, -21.05754839477521 75.44716825850219, -21.057548394775207 75.44716825850219), (-21.567 75.357, -21.413 75.363, -21.192 75.371, -21.69110155316639 75.35326762246116, -21.567 75.357), (-21.327529619181934 75.2789770216267, -21.345 75.29, -21.32752961918194 75.2789770216267, -21.327529619181934 75.2789770216267), (-21.795630769229888 75.34955384615387, -22.346 75.33, -22.139 75.337, -21.922 75.345, -21.795630769229888 75.34955384615387), (-22.194002813667307 75.24398332821268, -22.194002813667304 75.24398332821268, -22.188 75.261, -22.194002813667307 75.24398332821268), (-24.325 -84.147, -24.55 -84.229, -24.76 -84.343, -24.951 -84.488, -25.118 -84.659, -25.257 -84.853, -25.366 -85.066, -25.443 -85.292, -25.484 -85.528, -25.49 -85.767, -25.461 -86.004, -25.396 -86.234, -25.298 -86.452, -25.168 -86.653, -25.01 -86.833, -24.827 -86.986, -24.623 -87.111, -24.402 -87.204, -24.171 -87.263, -23.933 -87.287, -23.694 -87.275, -23.459 -87.228, -23.235 -87.146, -23.025 -87.032, -22.834 -86.887, -22.667 -86.716, -22.527 -86.522, -22.418 -86.309, -22.342 -86.083, -22.3 -85.847, -22.294 -85.608, -22.324 -85.371, -22.389 -85.141, -22.487 -84.923, -22.617 -84.722, -22.775 -84.542, -22.958 -84.389, -23.162 -84.264, -23.382 -84.171, -23.614 -84.112, -23.852 -84.088, -24.091 -84.1, -24.325 -84.147), (-22.50126987203379 75.40953517207106, -22.492 75.422, -22.501269872033795 75.40953517207106, -22.50126987203379 75.40953517207106), (-22.545 75.648, -22.521587743732294 75.61088300835607, -22.567923322683917 75.6850047923326, -22.545 75.648), (-22.854 76.505, -22.950811753636827 76.32254707968444, -22.95081820389192 76.32251555725136, -22.764428571426784 76.67328571428907, -22.854 76.505), (-26.472 -78.593, -26.511 -78.608, -26.495 -78.642, -26.563 -78.678, -26.624 -78.725, -26.648 -78.697, -26.678 -78.725, -26.706 -78.756, -26.677 -78.78, -26.722 -78.842, -26.757 -78.91, -26.791 -78.895, -26.806 -78.934, -26.817 -78.973, -26.781 -78.982, -26.795 -79.058, -26.797 -79.134, -26.834 -79.136, -26.83 -79.177, -26.823 -79.218, -26.787 -79.21, -26.766 -79.284, -26.735 -79.354, -26.767 -79.372, -26.746 -79.407, -26.723 -79.441, -26.693 -79.418, -26.643 -79.476, -26.584 -79.525, -26.606 -79.555, -26.571 -79.578, -26.535 -79.598, -26.519 -79.565, -26.448 -79.595, -26.374 -79.614, -26.38 -79.65, -26.34 -79.656, -26.299 -79.658, -26.298 -79.621, -26.221 -79.618, -26.146 -79.602, -26.136 -79.638, -26.097 -79.625, -26.059 -79.61, -26.074 -79.576, -26.007 -79.54, -25.946 -79.493, -25.921 -79.521, -25.891 -79.493, -25.864 -79.462, -25.892 -79.439, -25.847 -79.376, -25.812 -79.308, -25.778 -79.323, -25.764 -79.284, -25.752 -79.245, -25.788 -79.236, -25.775 -79.16, -25.773 -79.084, -25.736 -79.082, -25.739 -79.041, -25.746 -79, -25.782 -79.008, -25.803 -78.934, -25.834 -78.864, -25.802 -78.846, -25.823 -78.811, -25.847 -78.777, -25.876 -78.8, -25.927 -78.742, -25.985 -78.693, -25.964 -78.663, -25.998 -78.64, -26.034 -78.62, -26.051 -78.653, -26.121 -78.623, -26.196 -78.604, -26.189 -78.568, -26.23 -78.562, -26.271 -78.56, -26.272 -78.597, -26.348 -78.6, -26.423 -78.616, -26.433 -78.58, -26.472 -78.593), (-27.681430088495645 -72.69801592920376, -27.810249999999773 -73.1067499999993, -27.769 -72.978, -27.702 -72.765, -27.681430088495645 -72.69801592920376), (-27.907379122241508 -73.38430647160924, -27.907376743338933 -73.38430185078504, -28.159601941744647 -73.44025242718382, -28.113 -73.43, -27.907379122241508 -73.38430647160924), (-29.73417971970329 -71.47100192360546, -29.800610057708106 -71.54177411376745, -29.80061005770815 -71.5417741137675, -29.73417971970325 -71.47100192360541, -29.73417971970329 -71.47100192360546), (-34.261 -81.571, -34.235 -81.778, -34.179 -81.98, -34.093 -82.171, -33.979 -82.346, -33.841 -82.503, -33.681 -82.638, -33.502 -82.747, -33.309 -82.828, -33.107 -82.88, -32.898 -82.901, -32.689 -82.891, -32.484 -82.849, -32.288 -82.778, -32.104 -82.678, -31.937 -82.551, -31.791 -82.402, -31.669 -82.232, -31.573 -82.046, -31.507 -81.847, -31.47 -81.641, -31.465 -81.432, -31.491 -81.224, -31.547 -81.023, -31.633 -80.832, -31.747 -80.656, -31.885 -80.499, -32.046 -80.365, -32.224 -80.256, -32.417 -80.174, -32.62 -80.123, -32.828 -80.102, -33.037 -80.112, -33.242 -80.154, -33.439 -80.225, -33.622 -80.325, -33.789 -80.452, -33.935 -80.601, -34.058 -80.771, -34.153 -80.957, -34.22 -81.156, -34.256 -81.362, -34.261 -81.571)), ((104.441 42.324, 104.484 42.41, 104.521 42.485, 104.549 42.541, 104.567 42.577, 104.573 42.589, 104.61940019860972 42.68180039721947, 104.619 42.682, 104.662 42.768, 104.699 42.842, 104.728 42.899, 104.746 42.935, 104.752 42.947, 104.931 42.858, 105.15449999999727 42.74650000000136, 105.557 42.546, 105.52198360655709 42.475573770491216, 105.505 42.441, 105.468 42.367, 105.425 42.28, 105.42479408170973 42.28010270366338, 105.379 42.188, 105.373 42.176, 105.355 42.14, 105.326 42.083, 105.289 42.009, 105.246 41.922, 105.2 41.83, 104.531 40.487, 103.833 40.835, 103.79 41.018, 104.395 42.231, 104.441 42.324), (104.976 42.3885, 104.752 42.5, 104.573 42.589, 104.976 42.3885)), ((90.921 56.396, 91.254 56.637, 91.618 56.831, 92.004 56.973, 92.407 57.061, 92.818 57.093, 117.508 57.309, 117.861 57.291, 118.209 57.232, 118.548 57.132, 118.873 56.994, 119.241 56.776, 119.575 56.508, 119.867 56.195, 120.112 55.844, 120.304 55.461, 120.44 55.055, 120.516 54.634, 120.532 54.206, 120.487 53.781, 120.382 53.366, 120.219 52.97, 110.237 32.949, 110.019 32.581, 109.751 32.247, 109.438 31.955, 109.087 31.71, 108.705 31.518, 108.299 31.382, 107.878 31.306, 107.45 31.29, 107.024 31.335, 106.609 31.44, 106.214 31.603, 102.992 33.209, 102.997 33.221, 102.918 33.281, 102.841 33.337, 102.789 33.425, 102.753 33.522, 102.767 33.552, 102.747 33.65, 102.764 33.685, 102.754 33.768, 102.784 33.725, 102.769 33.798, 102.807 33.77, 102.785 33.83, 102.831 33.818, 102.865 33.831, 102.812 33.858, 102.779 33.874, 102.767 33.88, 107.988 44.351, 95.19 50.731, 90.193 40.708, 88.272 41.666, 88.049 41.218, 88.038 41.224, 88.005 41.24, 87.952 41.267, 87.962 41.232, 87.998 41.202, 87.938 41.184, 87.982 41.17, 87.915 41.139, 87.968 41.14, 87.895 41.098, 87.878 41.064, 87.787 41.021, 87.864 41.037, 87.772 40.991, 87.673 40.961, 87.571 40.951, 87.48 40.978, 87.384 41.005, 87.379 40.994, 86.525 41.42, 86.157 41.637, 85.823 41.905, 85.531 42.218, 85.286 42.569, 85.094 42.952, 84.958 43.358, 84.881 43.779, 84.865 44.207, 84.91 44.632, 85.016 45.047, 85.179 45.443, 90.159 55.432, 90.368 55.787, 90.623 56.11, 90.921 56.396), (115.089 51.111, 115.321 51.054, 115.559 51.033, 115.798 51.048, 116.032 51.098, 116.256 51.182, 116.464 51.299, 116.653 51.445, 116.818 51.618, 116.956 51.814, 117.062 52.028, 117.136 52.255, 117.175 52.491, 117.178 52.731, 117.146 52.967, 117.078 53.197, 116.978 53.414, 116.846 53.613, 116.685 53.791, 116.501 53.942, 116.295 54.065, 116.074 54.155, 115.841 54.212, 115.603 54.233, 115.364 54.218, 115.131 54.168, 114.907 54.084, 114.698 53.967, 114.509 53.821, 114.344 53.648, 114.207 53.452, 114.1 53.238, 114.026 53.01, 113.987 52.774, 113.984 52.535, 114.017 52.298, 114.084 52.069, 114.185 51.852, 114.317 51.653, 114.477 51.475, 114.662 51.323, 114.867 51.201, 115.089 51.111), (90.952 53.403, 90.984 53.167, 91.051 52.937, 91.152 52.72, 91.284 52.521, 91.444 52.343, 91.629 52.192, 91.835 52.069, 92.056 51.979, 92.289 51.922, 92.527 51.901, 92.765 51.916, 92.999 51.966, 93.223 52.05, 93.432 52.167, 93.621 52.313, 93.786 52.487, 93.923 52.682, 94.03 52.896, 94.104 53.124, 94.142 53.36, 94.146 53.599, 94.113 53.836, 94.046 54.065, 93.945 54.282, 93.813 54.481, 93.653 54.659, 93.468 54.811, 93.263 54.933, 93.041 55.023, 92.809 55.08, 92.571 55.101, 92.332 55.086, 92.098 55.036, 91.874 54.952, 91.666 54.835, 91.477 54.689, 91.312 54.516, 91.174 54.32, 91.067 54.106, 90.994 53.879, 90.955 53.643, 90.952 53.403), (86.978 45.824, 86.939 45.588, 86.936 45.349, 86.968 45.112, 87.036 44.883, 87.136 44.666, 87.268 44.466, 87.429 44.289, 87.614 44.137, 87.819 44.015, 88.04 43.924, 88.273 43.868, 88.511 43.847, 88.75 43.861, 88.983 43.911, 89.207 43.996, 89.416 44.113, 89.605 44.259, 89.77 44.432, 89.907 44.628, 90.014 44.842, 90.088 45.069, 90.127 45.305, 90.13 45.544, 90.097 45.781, 90.03 46.011, 89.929 46.228, 89.797 46.427, 89.637 46.605, 89.452 46.756, 89.247 46.879, 89.025 46.969, 88.793 47.025, 88.555 47.047, 88.316 47.032, 88.082 46.982, 87.858 46.898, 87.65 46.781, 87.461 46.634, 87.296 46.461, 87.158 46.266, 87.052 46.052, 86.978 45.824)), ((87.048 45.663, 87.06059779614323 45.718578512396604, 87.083 45.83, 87.09148725212467 45.8548555240794, 87.099 45.888, 87.12606432748538 45.95611695906433, 87.153 46.035, 87.1735428229665 46.07561339712916, 87.188 46.112, 87.21554714912277 46.15865643274848, 87.24 46.207, 87.26750998336112 46.24666555740442, 87.299 46.3, 87.35069679300284 46.36660932944595, 87.35069679300284 46.36660932944596, 87.369 46.393, 87.38080552712385 46.405403275332645, 87.403 46.434, 87.522 46.555, 87.52665819361813 46.55864088696589, 87.527 46.559, 87.67 46.674, 87.68829113924049 46.684974683544304, 87.696 46.691, 87.7437500000001 46.71825000000006, 87.85 46.782, 87.87017722878625 46.79039957035446, 87.887 46.8, 88.00398995983934 46.84610441767068, 88.071 46.874, 88.08047450980392 46.876246112238, 88.09 46.88, 88.303 46.929, 88.532 46.947, 88.533 46.94692207792208, 88.534 46.947, 88.763 46.929, 88.975 46.88, 88.98311553133513 46.87681743869211, 88.995 46.874, 89.07137500000007 46.842205882352914, 89.179 46.8, 89.19582277121377 46.790399570354445, 89.216 46.782, 89.32224999999984 46.7182500000001, 89.37 46.691, 89.37770886075955 46.68497468354426, 89.37770886075957 46.684974683544255, 89.396 46.674, 89.539 46.559, 89.53934180638186 46.55864088696591, 89.544 46.555, 89.662 46.434, 89.68074398717262 46.410079102084474, 89.697 46.393, 89.7191323529412 46.36108823529408, 89.767 46.3, 89.79667563291139 46.24928164556963, 89.826 46.207, 89.85524882995321 46.14917472698906, 89.877 46.112, 89.8877949760765 46.084830622009655, 89.913 46.035, 89.94604873294357 45.938214424951, 89.94604873294358 45.938214424950964, 89.966 45.888, 89.97153824362604 45.863566572238035, 89.983 45.83, 90.00741324200916 45.705294520547795, 90.017 45.663, 90.01779549114332 45.652260869565225, 90.02 45.641, 90.033 45.447, 90.027 45.311, 90.02154455445543 45.2725247524752, 90.02 45.249, 90.01735294117647 45.23576470588235, 90.017 45.231, 90.01338582677165 45.21498425196851, 90.008 45.177, 89.99752380952378 45.13661904761899, 89.98300000000113 45.064000000005706, 89.983 45.064, 89.98299999999998 45.0639999999999, 89.981 45.054, 89.96964856918855 45.02116816934535, 89.966 45.005, 89.95850583068302 44.98622247463274, 89.953 44.965, 89.93837929993961 44.93072782136381, 89.916 44.866, 89.91513156123824 44.86427288021539, 89.913 44.858, 89.88613266552652 44.80488297092598, 89.877 44.782, 89.86925206934251 44.76868764641576, 89.86 44.747, 89.84386278896346 44.72131493910019, 89.84386278896345 44.72131493910016, 89.826 44.686, 89.79652617216573 44.643731332175655, 89.767 44.593, 89.7486153846154 44.56971282051285, 89.74 44.556, 89.72622055674518 44.540100642398286, 89.716 44.525, 89.70536180034624 44.51299172917871, 89.697 44.501, 89.68110462776662 44.48419919517103, 89.662 44.46, 89.6228621118012 44.41986708074529, 89.584 44.376, 89.56753729360408 44.363135699373665, 89.544 44.339, 89.54294360496493 44.33816824069078, 89.539 44.334, 89.396 44.22, 89.382406743941 44.211768528275385, 89.38240674394099 44.21176852827537, 89.37 44.202, 89.30532443703088 44.165090909090914, 89.216 44.111, 89.19639728682168 44.10292829457363, 89.179 44.093, 89.03800000000007 44.03770588235297, 88.995 44.02, 88.98940807174884 44.01865022421524, 88.975 44.013, 88.82982608695663 43.98013043478263, 88.763 43.964, 88.56338113207548 43.94930943396226, 88.534 43.947, 88.533 43.9470735930736, 88.532 43.947, 88.50261886792453 43.94930943396226, 88.303 43.964, 88.24060606060584 43.979060606060656, 88.09 44.013, 88.07419354838707 44.01922914349278, 88.071 44.02, 88.04340983606562 44.031360655737686, 87.887 44.093, 87.86960271317835 44.102928294573616, 87.85 44.111, 87.76067556296907 44.16509090909094, 87.696 44.202, 87.683593256059 44.21176852827538, 87.67 44.22, 87.527 44.334, 87.52305639503508 44.33816824069077, 87.522 44.339, 87.403 44.46, 87.38018047174988 44.48918266593524, 87.369 44.501, 87.35302208353328 44.52391406625072, 87.299 44.593, 87.26777223088929 44.64617160686417, 87.24 44.686, 87.21280634201582 44.739762174405485, 87.188 44.782, 87.17512729049596 44.8142540923528, 87.153 44.858, 87.1262488986784 44.93672466960357, 87.099 45.005, 87.09099585999247 45.04046932630785, 87.083 45.064, 87.06105328258798 45.17315604186503, 87.048 45.231, 87.04724902289225 45.24181407035172, 87.045 45.253, 87.033 45.447, 87.045 45.641, 87.04724902289225 45.652185929648276, 87.048 45.663), (90.01914689475642 45.24864224618818, 90.01914689475642 45.248642246188176, 90.02 45.249, 90.01914689475642 45.24864224618818), (89.91596658986175 44.86673025016458, 89.91596658986175 44.866730250164565, 89.916 44.866, 89.91596658986175 44.86673025016458), (89.05106024096384 46.44270506684272, 89.0510602409638 46.44270506684274, 89.021 46.46, 89.05106024096384 46.44270506684272), (87.72131796694282 45.482635563987884, 87.8684028150015 45.00566906081816, 87.86840281500152 45.00566906081814, 87.72131796694282 45.482635563987884)), ((114.35728185328182 53.497583011582954, 114.368 53.515, 114.39340722166502 53.544931795386184, 114.44 53.606, 114.4774213362069 53.64390732758622, 114.514 53.687, 114.56296514161215 53.730562091503224, 114.594 53.762, 114.6197364247958 53.78106895723213, 114.659 53.816, 114.7376279069768 53.868418604651204, 114.787 53.905, 114.81233707865168 53.918224719101126, 114.839 53.936, 114.96500644567227 53.997910681399674, 114.992 54.012, 114.99770108907039 54.013974523531694, 115.012 54.021, 115.197 54.083, 115.387 54.12, 115.39651421608446 54.12064419171405, 115.409 54.123, 115.46154117647058 54.125047058823526, 115.579 54.133, 115.60896282527885 54.130790759426446, 115.64 54.132, 115.71347144592953 54.12308505467801, 115.796 54.117, 115.83950845795536 54.10779186075019, 115.879 54.103, 115.93145813353011 54.0883316119513, 115.985 54.077, 116.03114965986391 54.060455782312935, 116.09 54.044, 116.1618651685394 54.01359550561795, 116.197 54.001, 116.21494879518072 53.991137048192776, 116.246 53.978, 116.393 53.894, 116.39640954979535 53.89142346521147, 116.399 53.89, 116.546 53.782, 116.56261547762998 53.76582466747281, 116.569 53.761, 116.61121789883282 53.718509727626326, 116.697 53.635, 116.70629868228404 53.622815519765744, 116.724 53.605, 116.81111688311678 53.48546753246767, 116.842 53.445, 116.84592128650021 53.43771265340667, 116.853 53.428, 116.955 53.236, 117.031 53.019, 117.073 52.791, 117.07311320754717 52.786490566037756, 117.08 52.573, 117.07874708224632 52.56207455718796, 117.079 52.552, 117.06965271170318 52.48277164605174, 117.055 52.355, 117.04968310727496 52.33487176325515, 117.047 52.315, 117.02016387959867 52.223120401337795, 116.999 52.143, 116.99207038327528 52.12693588850177, 116.988 52.113, 116.915 51.946, 116.91174556213016 51.94072834857446, 116.911 51.939, 116.825 51.794, 116.80489722294314 51.76765169997401, 116.794 51.75, 116.76859277833508 51.720068204613945, 116.722 51.659, 116.6845594139989 51.62106999457404, 116.648 51.578, 116.59942105263163 51.53481871345033, 116.569 51.504, 116.54323437499997 51.48487499999996, 116.504 51.45, 116.4260092664093 51.397862548262566, 116.375 51.36, 116.34932787789629 51.346600404560505, 116.323 51.329, 116.21700232378 51.27753292021687, 116.17 51.253, 116.15798567449265 51.2488774373259, 116.15 51.245, 115.966 51.183, 115.833 51.154, 115.7982283590016 51.14962134891132, 115.775 51.145, 115.75798829039815 51.143936768149885, 115.753 51.143, 115.74235287610618 51.14258517699115, 115.698 51.137, 115.64298029556652 51.136748768472906, 115.583 51.133, 115.57832831001075 51.13332292787944, 115.573 51.133, 115.54576315789475 51.13492583732057, 115.522 51.134, 115.50455553869497 51.13611669195751, 115.479 51.136, 115.43276354679803 51.14291570881226, 115.375 51.147, 115.37224298093584 51.147568457539, 115.366 51.148, 115.31141750429033 51.15955185094385, 115.283 51.163, 115.2653698884758 51.16795322180918, 115.245 51.171, 115.21891213389118 51.179129707112985, 115.20913000000021 51.181199999999954, 115.181 51.187, 115.17989947517152 51.18738635446106, 115.177 51.188, 115.14371074380234 51.20009090909066, 115.1145751445086 51.21031936416187, 115.073 51.222, 115.04967094703048 51.23186998394864, 115.03 51.238, 115.01559615384615 51.24506730769231, 114.993 51.253, 114.98040121078697 51.25940616400662, 114.965 51.265, 114.94332049306628 51.276864406779644, 114.917 51.288, 114.85210266940442 51.32464271047233, 114.816 51.343, 114.80544880382779 51.35098468899519, 114.77 51.371, 114.76649070631973 51.373636926889695, 114.764 51.375, 114.617 51.484, 114.60759793814435 51.49303092783503, 114.593 51.504, 114.54122028985489 51.556788405797285, 114.465 51.63, 114.44955119322559 51.65024326404922, 114.439 51.661, 114.37905181347148 51.742621761658064, 114.32 51.82, 114.31402221025708 51.83116206757305, 114.309 51.838, 114.2337090909094 51.981127272726674, 114.207 52.031, 114.131 52.249, 114.089 52.475, 114.082 52.693, 114.08323414230557 52.703712355212424, 114.083 52.713, 114.09188714425906 52.77882041216874, 114.107 52.91, 114.11224607799191 52.92960376512769, 114.115 52.95, 114.14727350427349 53.06049572649567, 114.164 53.123, 114.16880310880829 53.13420725388601, 114.174 53.152, 114.248 53.32, 114.24941176470588 53.32229411764705, 114.251 53.326, 114.337 53.471, 114.35728185328182 53.497583011582954)), ((91.45713290632511 54.52791513210575, 91.468 54.541, 91.49136144578306 54.56185843373487, 91.551 54.621, 91.59849584026618 54.657514143094815, 91.636 54.691, 91.68561479198773 54.72448998459173, 91.724 54.754, 91.75216236162358 54.76940959409592, 91.796 54.799, 91.88941129032271 54.84450806451619, 91.936 54.87, 91.95788066604993 54.87786493987048, 91.991 54.894, 92.1178108108109 54.93535135135138, 92.153 54.948, 92.16210688836101 54.94979572446555, 92.175 54.954, 92.366 54.99, 92.56 55.001, 92.56904672897195 55.000340342679124, 92.582 55.001, 92.64123076923072 54.99507692307693, 92.752 54.987, 92.77872268907558 54.98132773109245, 92.812 54.978, 92.88741315897019 54.95825664078463, 92.964 54.942, 93.00379421221864 54.92778778135049, 93.045 54.917, 93.09545871559631 54.89505045871561, 93.146 54.877, 93.18972222222224 54.85404583333333, 93.245 54.83, 93.31133333333337 54.790199999999984, 93.31133333333338 54.79019999999998, 93.346 54.772, 93.36398496240601 54.7586090225564, 93.39 54.743, 93.525 54.64, 93.53192647058866 54.63311764705841, 93.661 54.507, 93.66874222222218 54.497173333333386, 93.682 54.484, 93.73118972332026 54.41791304347814, 93.791 54.342, 93.80159814814813 54.32331851851855, 93.813 54.308, 93.86436252189156 54.21268301225894, 93.909 54.134, 93.9139273052082 54.120702212450176, 93.917 54.115, 93.992 53.911, 94.00733333333363 53.83433333333189, 94.038 53.683, 94.04747619047619 53.465047619047716, 94.048 53.454, 94.04796853146853 53.45372377622373, 94.048 53.453, 94.025 53.237, 94.02188549618322 53.224772688719234, 94.021 53.217, 94.00442857142865 53.156238095238365, 93.971 53.025, 93.9642208588957 53.00880981595088, 93.958 52.986, 93.9069138840069 52.87194727592236, 93.886 52.822, 93.8803343982961 52.812607028754066, 93.88033439829609 52.812607028754044, 93.88033439829609 52.81260702875404, 93.872 52.794, 93.776 52.639, 93.77456039441253 52.63724486442076, 93.772 52.633, 93.666 52.501, 93.64824999999995 52.48324999999994, 93.63 52.461, 93.59266666666669 52.427666666666674, 93.546 52.381, 93.50570049916804 52.3500183028286, 93.462 52.311, 93.40666178087217 52.27387871015027, 93.373 52.248, 93.34575267509722 52.23302042801552, 93.301 52.203, 93.21444271844659 52.16083106796116, 93.162 52.132, 93.13663272727271 52.12292363636362, 93.106 52.108, 92.99402266288945 52.07189801699714, 92.944 52.054, 92.92975528826214 52.05117793446703, 92.923 52.049, 92.732 52.012, 92.596 52.002, 92.56399786438871 52.00247410571276, 92.538 52.001, 92.53627027027028 52.001126126126124, 92.534 52.001, 92.51897931034482 52.00213793103448, 92.516 52.002, 92.50133864541833 52.00340239043825, 92.461 52.004, 92.417943083004 52.00975415019762, 92.346 52.015, 92.34421102362205 52.015377952755905, 92.336 52.016, 92.3081890740023 52.02187756683456, 92.286 52.024, 92.26042810213525 52.030804539345986, 92.244 52.033, 92.21272916666668 52.04205208333333, 92.142 52.057, 92.13442953020136 52.05969798657718, 92.133 52.06, 92.0812424242424 52.07848484848485, 92.053 52.086, 92.03703013698626 52.092912328767135, 92.016 52.099, 91.99033548387101 52.11095161290321, 91.951 52.125, 91.91818245613942 52.14231578947417, 91.89222894168473 52.15558747300213, 91.852 52.173, 91.83433576642334 52.183598540146, 91.812 52.194, 91.79604015498414 52.20477492074674, 91.778 52.214, 91.76422449739394 52.223549888309726, 91.752 52.23, 91.73065384615384 52.245807692307686, 91.707 52.26, 91.6595943396226 52.2960849056604, 91.615 52.327, 91.60231249999997 52.33968750000002, 91.573 52.362, 91.57080016324309 52.36418582505781, 91.567 52.367, 91.436 52.495, 91.42465244444445 52.50940266666666, 91.416 52.518, 91.37880000000003 52.567599999999956, 91.306 52.66, 91.29549999999995 52.67866666666674, 91.284 52.694, 91.21846575342495 52.815616438355626, 91.21846575342494 52.81561643835566, 91.189 52.868, 91.18627401401673 52.87535687783435, 91.18 52.887, 91.106 53.092, 91.06 53.317, 91.049 53.548, 91.04903368492685 53.54829567880231, 91.049 53.549, 91.072 53.765, 91.07511450381678 53.77722731128067, 91.076 53.785, 91.0895722120659 53.83398720292539, 91.126 53.977, 91.13544302273068 53.99955216016858, 91.14 54.016, 91.17574516695962 54.095803163444735, 91.211 54.18, 91.22045644599304 54.195623693379815, 91.226 54.208, 91.321 54.364, 91.3263846153845 54.370483516483375, 91.431 54.502, 91.45713290632511 54.52791513210575), (92.45381220768456 52.00707483275117, 92.45381220768455 52.00707483275117, 92.461 52.004, 92.45381220768456 52.00707483275117), (92.2511454245136 54.30466362761942, 92.00975362597907 53.36448088848597, 92.00975362597907 53.364480888485964, 92.2511454245136 54.30466362761942)), ((188.656 10.665, 188.67537546746448 10.698114435302914, 188.707 10.761, 188.7391342901076 10.807084059456633, 188.766 10.853, 188.8127812061712 10.912701729780386, 188.836 10.946, 188.85272532306846 10.963678031344507, 188.871 10.987, 188.989 11.108, 188.99005639503505 11.108831759309211, 188.994 11.113, 189.137 11.227, 189.150593256059 11.235231471724624, 189.163 11.245, 189.22767556296898 11.281909090908995, 189.317 11.336, 189.3366027131783 11.344071705426355, 189.354 11.354, 189.4668000000001 11.397682352941214, 189.538 11.427, 189.5496195835678 11.429754642656153, 189.558 11.433, 189.77 11.482, 189.999 11.5, 190 11.499922077922077, 190.001 11.5, 190.23 11.482, 190.442 11.433, 190.4503804164322 11.429754642656155, 190.462 11.427, 190.53319999999988 11.397682352941223, 190.646 11.354, 190.6633972868217 11.34407170542636, 190.683 11.336, 190.77232443703102 11.281909090908995, 190.837 11.245, 190.84940674394093 11.23523147172467, 190.863 11.227, 191.006 11.113, 191.00994360496492 11.108831759309224, 191.011 11.108, 191.129 10.987, 191.14727467693157 10.96367803134447, 191.164 10.946, 191.1872187938289 10.912701729780267, 191.234 10.853, 191.2608657098924 10.80708405945662, 191.293 10.761, 191.32462453253567 10.698114435302674, 191.344 10.665, 191.35481929555894 10.638071975497743, 191.38 10.588, 191.40865703971116 10.504075812274468, 191.434 10.441, 191.44109090909092 10.409090909090839, 191.45 10.383, 191.4730222222221 10.265400000000522, 191.484 10.216, 191.48479549114333 10.20526086956513, 191.487 10.194, 191.5 10, 191.487 9.806, 191.48479549114333 9.794739130434891, 191.484 9.784, 191.4730222222221 9.734599999999435, 191.45 9.617, 191.44109090909095 9.590909090909207, 191.434 9.559, 191.40865703971116 9.495924187725551, 191.38 9.412, 191.35481929555894 9.361928024502257, 191.344 9.335, 191.32462453253552 9.301885564697086, 191.293 9.239, 191.26086570989239 9.192915940543324, 191.234 9.147, 191.18721879382886 9.087298270219689, 191.164 9.054, 191.14727467693163 9.036321968655589, 191.129 9.013, 191.011 8.892, 191.009943604965 8.891168240690842, 191.006 8.887, 190.863 8.773, 190.84940674394096 8.764768528275372, 190.837 8.755, 190.77232443703102 8.718090909091005, 190.683 8.664, 190.6633972868217 8.65592829457364, 190.646 8.646, 190.53319999999988 8.602317647058777, 190.462 8.573, 190.4503804164322 8.570245357343845, 190.442 8.567, 190.23 8.518, 190.001 8.5, 190 8.500077922077923, 189.999 8.5, 189.77 8.518, 189.558 8.567, 189.5496195835678 8.570245357343843, 189.538 8.573, 189.46680000000012 8.602317647058777, 189.354 8.646, 189.33660271317828 8.655928294573657, 189.317 8.664, 189.22767556296898 8.718090909091005, 189.163 8.755, 189.15059325605907 8.76476852827533, 189.137 8.773, 188.994 8.887, 188.99005639503508 8.891168240690774, 188.989 8.892, 188.871 9.013, 188.85272532306843 9.036321968655527, 188.836 9.054, 188.8127812061711 9.087298270219733, 188.766 9.147, 188.7391342901076 9.19291594054338, 188.707 9.239, 188.67537546746453 9.301885564696969, 188.656 9.335, 188.64518070444106 9.361928024502257, 188.62 9.412, 188.59134296028884 9.49592418772554, 188.566 9.559, 188.55890909090908 9.590909090909161, 188.55 9.617, 188.5269777777779 9.734599999999478, 188.516 9.784, 188.51520450885667 9.794739130434868, 188.513 9.806, 188.5 10, 188.513 10.194, 188.5152045088567 10.205260869565222, 188.516 10.216, 188.5269777777779 10.265400000000565, 188.55 10.383, 188.55890909090905 10.409090909090793, 188.566 10.441, 188.5913429602888 10.50407581227437, 188.62 10.588, 188.64518070444106 10.638071975497743, 188.656 10.665), (188.825 10, 188.843 9.792, 188.876 9.658, 188.948 9.477, 189.05 9.308, 189.181 9.157, 189.336 9.031, 189.508 8.933, 189.692 8.866, 189.868 8.832, 190.028 8.825, 190.175 8.838, 190.31 8.866, 190.527 8.95, 190.714 9.067, 190.85 9.188, 190.946 9.302, 191.058 9.489, 191.108 9.608, 191.145 9.734, 191.168 9.866, 191.175 10, 191.157 10.208, 191.124 10.342, 191.052 10.523, 190.95 10.692, 190.819 10.843, 190.664 10.969, 190.492 11.067, 190.308 11.134, 190.132 11.168, 189.972 11.175, 189.825 11.162, 189.69 11.134, 189.473 11.05, 189.286 10.933, 189.15 10.812, 189.054 10.698, 188.942 10.511, 188.892 10.392, 188.855 10.266, 188.832 10.134, 188.825 10)), ((139.656 15.665, 139.67537546746448 15.698114435302914, 139.707 15.761, 139.7391342901076 15.807084059456633, 139.766 15.853, 139.8127812061712 15.912701729780386, 139.836 15.946, 139.85272532306846 15.963678031344507, 139.871 15.987, 139.989 16.108, 139.99005639503505 16.10883175930922, 139.994 16.113, 140.137 16.227, 140.150593256059 16.235231471724624, 140.163 16.245, 140.22767556296904 16.28190909090903, 140.317 16.336, 140.3366027131783 16.344071705426362, 140.354 16.354, 140.46680000000012 16.397682352941224, 140.538 16.427, 140.54961958356776 16.42975464265615, 140.558 16.433, 140.77 16.482, 140.999 16.5, 141 16.49992207792208, 141.001 16.5, 141.23 16.482, 141.442 16.433, 141.4503804164322 16.429754642656157, 141.462 16.427, 141.5331999999998 16.397682352941253, 141.646 16.354, 141.6633972868217 16.344071705426348, 141.683 16.336, 141.77232443703096 16.28190909090903, 141.837 16.245, 141.84940674394093 16.23523147172466, 141.863 16.227, 142.006 16.113, 142.00994360496492 16.10883175930923, 142.011 16.108, 142.129 15.987, 142.14727467693157 15.96367803134447, 142.164 15.946, 142.1872187938289 15.912701729780267, 142.234 15.853, 142.2608657098924 15.80708405945662, 142.293 15.761, 142.32462453253567 15.698114435302674, 142.344 15.665, 142.35481929555894 15.638071975497743, 142.38 15.588, 142.40865703971116 15.504075812274468, 142.434 15.441, 142.44109090909092 15.409090909090839, 142.45 15.383, 142.4730222222221 15.265400000000522, 142.484 15.216, 142.48479549114333 15.20526086956513, 142.487 15.194, 142.5 15, 142.487 14.806, 142.48479549114333 14.794739130434891, 142.484 14.784, 142.4730222222221 14.734599999999435, 142.45 14.617, 142.44109090909095 14.590909090909207, 142.434 14.559, 142.40865703971116 14.495924187725551, 142.38 14.412, 142.35481929555894 14.361928024502257, 142.344 14.335, 142.32462453253552 14.301885564697086, 142.293 14.239, 142.26086570989239 14.192915940543324, 142.234 14.147, 142.18721879382886 14.087298270219689, 142.164 14.054, 142.14727467693163 14.036321968655589, 142.129 14.013, 142.011 13.892, 142.009943604965 13.891168240690842, 142.006 13.887, 141.863 13.773, 141.84940674394096 13.764768528275372, 141.837 13.755, 141.77232443703102 13.718090909091005, 141.683 13.664, 141.6633972868217 13.65592829457364, 141.646 13.646, 141.53319999999988 13.602317647058777, 141.462 13.573, 141.4503804164322 13.570245357343845, 141.442 13.567, 141.23 13.518, 141.001 13.5, 141 13.500077922077923, 140.999 13.5, 140.77 13.518, 140.558 13.567, 140.5496195835678 13.570245357343843, 140.538 13.573, 140.46680000000012 13.602317647058777, 140.354 13.646, 140.33660271317828 13.655928294573657, 140.317 13.664, 140.22767556296898 13.718090909091005, 140.163 13.755, 140.15059325605907 13.76476852827533, 140.137 13.773, 139.994 13.887, 139.99005639503508 13.891168240690774, 139.989 13.892, 139.871 14.013, 139.85272532306843 14.036321968655527, 139.836 14.054, 139.8127812061711 14.087298270219733, 139.766 14.147, 139.7391342901076 14.19291594054338, 139.707 14.239, 139.67537546746453 14.301885564696969, 139.656 14.335, 139.64518070444106 14.361928024502257, 139.62 14.412, 139.59134296028884 14.49592418772554, 139.566 14.559, 139.55890909090908 14.590909090909161, 139.55 14.617, 139.5269777777779 14.734599999999478, 139.516 14.784, 139.51520450885667 14.794739130434868, 139.513 14.806, 139.5 15, 139.513 15.194, 139.5152045088567 15.205260869565222, 139.516 15.216, 139.5269777777779 15.265400000000565, 139.55 15.383, 139.55890909090905 15.409090909090793, 139.566 15.441, 139.5913429602888 15.50407581227437, 139.62 15.588, 139.64518070444106 15.638071975497743, 139.656 15.665), (139.825 15, 139.843 14.792, 139.876 14.658, 139.948 14.477, 140.05 14.308, 140.181 14.157, 140.336 14.031, 140.508 13.933, 140.692 13.866, 140.868 13.832, 141.028 13.825, 141.175 13.838, 141.31 13.866, 141.527 13.95, 141.714 14.067, 141.85 14.188, 141.946 14.302, 142.058 14.489, 142.108 14.608, 142.145 14.734, 142.168 14.866, 142.175 15, 142.157 15.208, 142.124 15.342, 142.052 15.523, 141.95 15.692, 141.819 15.843, 141.664 15.969, 141.492 16.067, 141.308 16.134, 141.132 16.168, 140.972 16.175, 140.825 16.162, 140.69 16.134, 140.473 16.05, 140.286 15.933, 140.15 15.812, 140.054 15.698, 139.942 15.511, 139.892 15.392, 139.855 15.266, 139.832 15.134, 139.825 15)), ((188.73913429010761 33.30708405945666, 188.73913429010764 33.30708405945668, 188.73913429010764 33.30708405945669, 188.766 33.353, 188.8127812061712 33.4127017297804, 188.836 33.446, 188.85272532306843 33.463678031344465, 188.871 33.487, 188.989 33.608, 188.99005639503503 33.60883175930919, 188.994 33.613, 189.137 33.727, 189.150593256059 33.7352314717246, 189.163 33.745, 189.22767556296898 33.781909090909, 189.317 33.836, 189.3366027131783 33.844071705426366, 189.354 33.854, 189.4668000000002 33.89768235294126, 189.538 33.927, 189.54961958356776 33.92975464265615, 189.558 33.933, 189.77 33.982, 189.999 34, 190 33.99992207792208, 190.001 34, 190.23 33.982, 190.442 33.933, 190.4503804164322 33.92975464265616, 190.462 33.927, 190.5331999999999 33.89768235294121, 190.646 33.854, 190.6633972868217 33.844071705426366, 190.683 33.836, 190.77232443703096 33.781909090909025, 190.837 33.745, 190.84940674394093 33.73523147172467, 190.863 33.727, 191.006 33.613, 191.00994360496495 33.60883175930921, 191.011 33.608, 191.129 33.487, 191.14727467693157 33.46367803134446, 191.164 33.446, 191.1872187938289 33.412701729780274, 191.234 33.353, 191.26086570989239 33.30708405945666, 191.293 33.261, 191.32462453253558 33.198114435302834, 191.344 33.165, 191.35481929555894 33.13807197549775, 191.38 33.088, 191.40865703971116 33.00407581227447, 191.434 32.941, 191.44109090909092 32.90909090909084, 191.45 32.883, 191.47302222222214 32.76540000000042, 191.484 32.716, 191.48479549114333 32.705260869565045, 191.487 32.694, 191.5 32.5, 191.487 32.306, 191.48479549114333 32.29473913043489, 191.484 32.284, 191.47302222222214 32.234599999999574, 191.45 32.117, 191.44109090909095 32.0909090909092, 191.434 32.059, 191.40865703971116 31.99592418772555, 191.38 31.912, 191.35481929555894 31.86192802450225, 191.344 31.835, 191.32462453253555 31.801885564697155, 191.32462453253547 31.80188556469701, 191.293 31.739, 191.26086570989236 31.692915940543287, 191.234 31.647, 191.18721879382886 31.587298270219684, 191.164 31.554, 191.14727467693154 31.536321968655503, 191.14727467693152 31.53632196865548, 191.129 31.513, 191.011 31.392, 191.009943604965 31.391168240690842, 191.006 31.387, 190.863 31.273, 190.849406743941 31.264768528275376, 190.837 31.255, 190.77232443703096 31.21809090909097, 190.683 31.164, 190.6633972868217 31.155928294573638, 190.646 31.146, 190.53319999999985 31.102317647058765, 190.462 31.073, 190.4503804164322 31.070245357343847, 190.442 31.067, 190.23 31.018, 190.001 31, 190 31.00007792207792, 189.999 31, 189.77 31.018, 189.558 31.067, 189.5496195835678 31.07024535734384, 189.538 31.073, 189.46680000000012 31.10231764705878, 189.4668000000001 31.10231764705879, 189.354 31.146, 189.3366027131783 31.155928294573645, 189.3366027131783 31.15592829457365, 189.317 31.164, 189.22767556296904 31.21809090909097, 189.163 31.255, 189.15059325605907 31.26476852827534, 189.137 31.273, 188.994 31.387, 188.99005639503508 31.39116824069077, 188.989 31.392, 188.871 31.513, 188.85272532306846 31.53632196865551, 188.836 31.554, 188.81278120617108 31.587298270219758, 188.766 31.647, 188.73913429010761 31.692915940543323, 188.707 31.739, 188.67537546746442 31.80188556469716, 188.656 31.835, 188.64518070444106 31.86192802450223, 188.62 31.912, 188.59134296028884 31.995924187725528, 188.566 32.059, 188.55890909090908 32.09090909090916, 188.55 32.117, 188.5269777777779 32.23459999999945, 188.516 32.284, 188.51520450885667 32.29473913043487, 188.51520450885667 32.29473913043488, 188.513 32.306, 188.5 32.5, 188.513 32.694, 188.5152045088567 32.70526086956522, 188.516 32.716, 188.52697777777786 32.765400000000426, 188.55 32.883, 188.55890909090905 32.9090909090908, 188.566 32.941, 188.5913429602888 33.004075812274394, 188.62 33.088, 188.64518070444106 33.13807197549775, 188.656 33.165, 188.6753754674645 33.19811443530297, 188.707 33.261, 188.73913429010761 33.30708405945666), (191.12751892082662 33.484559115328814, 191.12751892082662 33.48455911532881, 191.129 33.487, 191.12751892082662 33.484559115328814), (191.1274802618632 31.515400023614916, 191.1274802618632 31.515400023614912, 191.129 31.513, 191.1274802618632 31.515400023614916), (191.0109016360057 31.39218084311993, 191.0109016360057 31.392180843119927, 191.011 31.392, 191.0109016360057 31.39218084311993), (190.83628215964464 31.25682086334038, 190.83628215964464 31.256820863340376, 190.837 31.255, 190.83628215964464 31.25682086334038), (188.87248107917338 31.515440884671182, 188.87248107917338 31.51544088467119, 188.871 31.513, 188.87248107917338 31.515440884671182), (188.832 32.634, 188.825 32.5, 188.843 32.292, 188.876 32.158, 188.948 31.977, 189.05 31.808, 189.181 31.657, 189.336 31.531, 189.508 31.433, 189.692 31.366, 189.868 31.332, 190.028 31.325, 190.175 31.338, 190.31 31.366, 190.527 31.45, 190.714 31.567, 190.85 31.688, 190.946 31.802, 191.058 31.989, 191.108 32.108, 191.145 32.234, 191.168 32.366, 191.175 32.5, 191.157 32.708, 191.124 32.842, 191.052 33.023, 190.95 33.192, 190.819 33.343, 190.664 33.469, 190.492 33.567, 190.308 33.634, 190.132 33.668, 189.972 33.675, 189.825 33.662, 189.69 33.634, 189.473 33.55, 189.286 33.433, 189.15 33.312, 189.054 33.198, 188.942 33.011, 188.892 32.892, 188.855 32.766, 188.832 32.634)), ((139.73913429010764 50.80708405945668, 139.73913429010764 50.80708405945669, 139.766 50.853, 139.8127812061712 50.9127017297804, 139.836 50.946, 139.85272532306843 50.963678031344465, 139.871 50.987, 139.989 51.108, 139.99005639503503 51.10883175930919, 139.994 51.113, 140.137 51.227, 140.150593256059 51.2352314717246, 140.163 51.245, 140.22767556296898 51.281909090909, 140.317 51.336, 140.3366027131783 51.344071705426366, 140.354 51.354, 140.4668000000002 51.39768235294126, 140.538 51.427, 140.54961958356776 51.42975464265615, 140.558 51.433, 140.77 51.482, 140.999 51.5, 141 51.49992207792208, 141.001 51.5, 141.23 51.482, 141.442 51.433, 141.4503804164322 51.42975464265616, 141.462 51.427, 141.5331999999999 51.39768235294121, 141.646 51.354, 141.6633972868217 51.344071705426366, 141.683 51.336, 141.77232443703096 51.281909090909025, 141.837 51.245, 141.84940674394093 51.23523147172467, 141.863 51.227, 142.006 51.113, 142.00994360496495 51.10883175930921, 142.011 51.108, 142.129 50.987, 142.14727467693157 50.96367803134446, 142.164 50.946, 142.1872187938289 50.912701729780274, 142.234 50.853, 142.26086570989239 50.80708405945666, 142.293 50.761, 142.32462453253558 50.698114435302834, 142.344 50.665, 142.35481929555894 50.63807197549775, 142.38 50.588, 142.40865703971116 50.50407581227447, 142.434 50.441, 142.44109090909092 50.40909090909084, 142.45 50.383, 142.47302222222214 50.26540000000042, 142.484 50.216, 142.48479549114333 50.205260869565045, 142.487 50.194, 142.5 50, 142.487 49.806, 142.48479549114333 49.79473913043489, 142.484 49.784, 142.47302222222214 49.734599999999574, 142.45 49.617, 142.44109090909095 49.5909090909092, 142.434 49.559, 142.40865703971116 49.49592418772552, 142.38 49.412, 142.35481929555894 49.36192802450225, 142.344 49.335, 142.3246245325355 49.30188556469703, 142.293 49.239, 142.26086570989239 49.19291594054334, 142.26086570989236 49.19291594054332, 142.26086570989236 49.19291594054331, 142.234 49.147, 142.18721879382886 49.08729827021968, 142.164 49.054, 142.14727467693157 49.036321968655535, 142.129 49.013, 142.011 48.892, 142.00994360496503 48.891168240690874, 142.006 48.887, 141.863 48.773, 141.849406743941 48.764768528275376, 141.837 48.755, 141.77232443703096 48.718090909090975, 141.683 48.664, 141.6633972868217 48.655928294573634, 141.646 48.646, 141.5331999999997 48.602317647058705, 141.462 48.573, 141.45038041643224 48.57024535734385, 141.442 48.567, 141.23 48.518, 141.001 48.5, 141 48.50007792207792, 140.999 48.5, 140.77 48.518, 140.558 48.567, 140.5496195835678 48.57024535734384, 140.538 48.573, 140.46679999999995 48.60231764705885, 140.354 48.646, 140.3366027131783 48.655928294573634, 140.317 48.664, 140.22767556296878 48.718090909091124, 140.22767556296876 48.71809090909114, 140.163 48.755, 140.15059325605907 48.76476852827533, 140.137 48.773, 139.994 48.887, 139.99005639503505 48.89116824069079, 139.989 48.892, 139.871 49.013, 139.85272532306843 49.03632196865554, 139.836 49.054, 139.8127812061711 49.087298270219726, 139.766 49.147, 139.73913429010761 49.19291594054334, 139.707 49.239, 139.67537546746442 49.301885564697166, 139.656 49.335, 139.64518070444106 49.36192802450224, 139.62 49.412, 139.59134296028884 49.49592418772553, 139.566 49.559, 139.55890909090908 49.59090909090916, 139.55 49.617, 139.5269777777779 49.73459999999945, 139.516 49.784, 139.51520450885667 49.79473913043487, 139.51520450885667 49.79473913043488, 139.513 49.806, 139.5 50, 139.513 50.194, 139.5152045088567 50.20526086956522, 139.516 50.216, 139.52697777777786 50.265400000000426, 139.55 50.383, 139.55890909090905 50.4090909090908, 139.566 50.441, 139.5913429602888 50.504075812274394, 139.62 50.588, 139.64518070444106 50.63807197549775, 139.656 50.665, 139.6753754674645 50.69811443530297, 139.707 50.761, 139.73913429010761 50.80708405945666, 139.73913429010764 50.80708405945668), (142.12751892082662 50.984559115328814, 142.12751892082662 50.98455911532881, 142.129 50.987, 142.12751892082662 50.984559115328814), (142.0056086567407 48.887755091801594, 142.0056086567407 48.88775509180159, 142.006 48.887, 142.0056086567407 48.887755091801594), (141.83628215964464 48.75682086334039, 141.83628215964464 48.75682086334038, 141.837 48.755, 141.83628215964464 48.75682086334039), (139.87248107917338 49.015440884671186, 139.87248107917338 49.01544088467119, 139.871 49.013, 139.87248107917338 49.015440884671186), (139.825 50, 139.843 49.792, 139.876 49.658, 139.948 49.477, 140.05 49.308, 140.181 49.157, 140.336 49.031, 140.508 48.933, 140.692 48.866, 140.868 48.832, 141.028 48.825, 141.175 48.838, 141.31 48.866, 141.527 48.95, 141.714 49.067, 141.85 49.188, 141.946 49.302, 142.058 49.489, 142.108 49.608, 142.145 49.734, 142.168 49.866, 142.175 50, 142.157 50.208, 142.124 50.342, 142.052 50.523, 141.95 50.692, 141.819 50.843, 141.664 50.969, 141.492 51.067, 141.308 51.134, 141.132 51.168, 140.972 51.175, 140.825 51.162, 140.69 51.134, 140.473 51.05, 140.286 50.933, 140.15 50.812, 140.054 50.698, 139.942 50.511, 139.892 50.392, 139.855 50.266, 139.832 50.134, 139.825 50)), ((188.73913429010764 55.80708405945668, 188.73913429010764 55.80708405945669, 188.766 55.853, 188.8127812061712 55.9127017297804, 188.836 55.946, 188.85272532306843 55.963678031344465, 188.871 55.987, 188.989 56.108, 188.99005639503503 56.10883175930919, 188.994 56.113, 189.137 56.227, 189.150593256059 56.2352314717246, 189.163 56.245, 189.22767556296898 56.281909090909, 189.317 56.336, 189.3366027131783 56.344071705426366, 189.354 56.354, 189.4668000000002 56.39768235294126, 189.538 56.427, 189.54961958356776 56.42975464265615, 189.558 56.433, 189.77 56.482, 189.999 56.5, 190 56.49992207792208, 190.001 56.5, 190.23 56.482, 190.442 56.433, 190.4503804164322 56.42975464265616, 190.462 56.427, 190.5331999999999 56.39768235294121, 190.646 56.354, 190.6633972868217 56.344071705426366, 190.683 56.336, 190.77232443703096 56.281909090909025, 190.837 56.245, 190.84940674394093 56.23523147172467, 190.863 56.227, 191.006 56.113, 191.00994360496495 56.10883175930921, 191.011 56.108, 191.129 55.987, 191.14727467693157 55.96367803134446, 191.164 55.946, 191.1872187938289 55.912701729780274, 191.234 55.853, 191.26086570989239 55.80708405945666, 191.293 55.761, 191.32462453253558 55.698114435302834, 191.344 55.665, 191.35481929555894 55.63807197549775, 191.38 55.588, 191.40865703971116 55.50407581227447, 191.434 55.441, 191.44109090909092 55.40909090909084, 191.45 55.383, 191.47302222222214 55.26540000000042, 191.484 55.216, 191.48479549114333 55.205260869565045, 191.487 55.194, 191.5 55, 191.487 54.806, 191.48479549114333 54.79473913043489, 191.484 54.784, 191.47302222222214 54.734599999999574, 191.45 54.617, 191.44109090909095 54.5909090909092, 191.434 54.559, 191.40865703971116 54.49592418772552, 191.38 54.412, 191.35481929555894 54.36192802450225, 191.344 54.335, 191.3246245325355 54.30188556469703, 191.293 54.239, 191.26086570989239 54.19291594054334, 191.26086570989236 54.19291594054332, 191.26086570989236 54.19291594054331, 191.234 54.147, 191.18721879382886 54.08729827021968, 191.164 54.054, 191.14727467693157 54.036321968655535, 191.129 54.013, 191.011 53.892, 191.00994360496503 53.891168240690874, 191.006 53.887, 190.863 53.773, 190.849406743941 53.764768528275376, 190.837 53.755, 190.77232443703096 53.718090909090975, 190.683 53.664, 190.6633972868217 53.655928294573634, 190.646 53.646, 190.5331999999997 53.602317647058705, 190.462 53.573, 190.45038041643224 53.57024535734385, 190.442 53.567, 190.23 53.518, 190.001 53.5, 190 53.50007792207792, 189.999 53.5, 189.77 53.518, 189.558 53.567, 189.5496195835678 53.57024535734384, 189.538 53.573, 189.46679999999995 53.60231764705885, 189.354 53.646, 189.3366027131783 53.655928294573634, 189.317 53.664, 189.22767556296878 53.718090909091124, 189.22767556296876 53.71809090909114, 189.163 53.755, 189.15059325605907 53.76476852827533, 189.137 53.773, 188.994 53.887, 188.99005639503505 53.89116824069079, 188.989 53.892, 188.871 54.013, 188.85272532306843 54.03632196865554, 188.836 54.054, 188.8127812061711 54.087298270219726, 188.766 54.147, 188.73913429010761 54.19291594054334, 188.707 54.239, 188.67537546746442 54.301885564697166, 188.656 54.335, 188.64518070444106 54.36192802450224, 188.62 54.412, 188.59134296028884 54.49592418772553, 188.566 54.559, 188.55890909090908 54.59090909090916, 188.55 54.617, 188.5269777777779 54.73459999999945, 188.516 54.784, 188.51520450885667 54.79473913043487, 188.51520450885667 54.79473913043488, 188.513 54.806, 188.5 55, 188.513 55.194, 188.5152045088567 55.20526086956522, 188.516 55.216, 188.52697777777786 55.265400000000426, 188.55 55.383, 188.55890909090905 55.4090909090908, 188.566 55.441, 188.5913429602888 55.504075812274394, 188.62 55.588, 188.64518070444106 55.63807197549775, 188.656 55.665, 188.6753754674645 55.69811443530297, 188.707 55.761, 188.73913429010761 55.80708405945666, 188.73913429010764 55.80708405945668), (191.12751892082662 55.984559115328814, 191.12751892082662 55.98455911532881, 191.129 55.987, 191.12751892082662 55.984559115328814), (191.0056086567407 53.887755091801594, 191.0056086567407 53.88775509180159, 191.006 53.887, 191.0056086567407 53.887755091801594), (190.83628215964464 53.75682086334039, 190.83628215964464 53.75682086334038, 190.837 53.755, 190.83628215964464 53.75682086334039), (188.87248107917338 54.015440884671186, 188.87248107917338 54.01544088467119, 188.871 54.013, 188.87248107917338 54.015440884671186), (188.825 55, 188.843 54.792, 188.876 54.658, 188.948 54.477, 189.05 54.308, 189.181 54.157, 189.336 54.031, 189.508 53.933, 189.692 53.866, 189.868 53.832, 190.028 53.825, 190.175 53.838, 190.31 53.866, 190.527 53.95, 190.714 54.067, 190.85 54.188, 190.946 54.302, 191.058 54.489, 191.108 54.608, 191.145 54.734, 191.168 54.866, 191.175 55, 191.157 55.208, 191.124 55.342, 191.052 55.523, 190.95 55.692, 190.819 55.843, 190.664 55.969, 190.492 56.067, 190.308 56.134, 190.132 56.168, 189.972 56.175, 189.825 56.162, 189.69 56.134, 189.473 56.05, 189.286 55.933, 189.15 55.812, 189.054 55.698, 188.942 55.511, 188.892 55.392, 188.855 55.266, 188.832 55.134, 188.825 55)))