MULTIPOLYGON (((48.195 -171.97, 48.264 -172.058, 48.311 -172.16, 48.334 -172.269, 48.333 -172.381, 48.306 -172.49, 48.256 -172.59, 48.185 -172.677, 48.096 -172.745, 47.995 -172.792, 47.885 -172.815, 47.773 -172.814, 47.664 -172.787, 47.564 -172.737, 47.478 -172.666, 47.409 -172.577, 47.362 -172.476, 47.339 -172.366, 47.341 -172.254, 47.367 -172.146, 47.417 -172.046, 47.488 -171.959, 47.577 -171.891, 47.679 -171.843, 47.788 -171.82, 47.9 -171.822, 48.009 -171.848, 48.109 -171.898, 48.195 -171.97)), ((-25.787 -79.159, -25.811 -79.268, -25.858 -79.37, -25.927 -79.458, -26.014 -79.529, -26.114 -79.579, -26.223 -79.605, -26.335 -79.607, -26.444 -79.583, -26.546 -79.536, -26.634 -79.467, -26.705 -79.38, -26.755 -79.28, -26.781 -79.171, -26.782 -79.059, -26.759 -78.95, -26.711 -78.848, -26.643 -78.76, -26.556 -78.689, -26.456 -78.639, -26.347 -78.613, -26.235 -78.612, -26.125 -78.635, -26.024 -78.682, -25.935 -78.751, -25.865 -78.838, -25.815 -78.938, -25.789 -79.047, -25.787 -79.159)), ((-32.598 -94.893, -34.742 -93.856, -36.721 -92.529, -38.494 -90.938, -40.028 -89.115, -41.292 -87.096, -42.261 -84.919, -42.916 -82.629, -43.245 -80.269, -43.241 -77.887, -42.903 -75.528, -42.24 -73.24, -41.262 -71.067, -39.991 -69.053, -38.451 -67.235, -36.671 -65.651, -34.688 -64.331, -32.54 -63.302, 98.62446258650041 -11.400656713027956, -24.021 58.283, -26.005 59.602, -27.785 61.185, -29.326 63.002, -30.598 65.016, -31.576 67.189, -32.241 69.477, -32.579 71.835, -32.584 74.217, -32.256 76.577, -31.602 78.868, -30.633 81.044, -29.37 83.064, -27.837 84.888, -26.064 86.479, -24.086 87.807, -21.942 88.846, -19.674 89.574, -17.326 89.978, -14.945 90.05, -12.577 89.788, -10.268 89.198, -8.066 88.291, 97.94482674252038 35.67530243744335, 97.913 35.711, 97.88513046125831 35.75540231596132, 87.379 40.994, 86.525 41.42, 86.157 41.637, 85.823 41.905, 85.531 42.218, 85.286 42.569, 85.094 42.952, 84.958 43.358, 84.881 43.779, 84.865 44.207, 84.91 44.632, 85.016 45.047, 85.179 45.443, 90.159 55.432, 90.368 55.787, 90.623 56.11, 90.921 56.396, 91.254 56.637, 91.618 56.831, 92.004 56.973, 92.407 57.061, 92.818 57.093, 117.508 57.309, 117.861 57.291, 118.209 57.232, 118.548 57.132, 118.873 56.994, 119.241 56.776, 119.575 56.508, 119.867 56.195, 120.112 55.844, 120.304 55.461, 120.44 55.055, 120.516 54.634, 120.532 54.206, 120.487 53.781, 120.382 53.366, 120.219 52.97, 110.237 32.949, 110.019 32.581, 109.751 32.247, 109.438 31.955, 109.087 31.71, 108.705 31.518, 108.299 31.382, 107.878 31.306, 107.45 31.29, 107.024 31.335, 106.609 31.44, 106.214 31.603, 102.992 33.209, 99.59222393280734 34.90420634619195, 99.44988497121238 34.92830620122653, 135.425 17.073, 135.616 16.979, 135.802 16.886, 136.013 16.766, 136.201 16.625, 136.367 16.468, 136.509 16.3, 136.628 16.124, 136.725 15.941, 136.801 15.756, 136.87 15.507, 136.908 15.244, 136.91 14.981, 136.919 14.398, 137.013 13.823, 137.19 13.267, 137.445 12.743, 137.774 12.262, 138.17 11.833, 138.623 11.467, 139.125 11.17, 139.665 10.95, 140.231 10.81, 140.811 10.754, 141.394 10.783, 141.965 10.897, 142.515 11.092, 143.03 11.365, 143.5 11.71, 143.609 11.789, 143.786 11.914, 144.108 12.066, 144.428 12.154, 144.709 12.187, 144.974 12.181, 145.219 12.144, 145.442 12.083, 145.565 12.036, 145.508 12.034, 145.573 12.007, 145.655 11.983, 145.687 11.98, 145.874 11.888, 146.064 11.793, 159.892 4.93, 160.2883878590079 4.716616024804132, 160.575 4.576, 161.124 4.255, 161.43272702413347 4.058177086692409, 162.118 3.66, 162.3039194439623 3.525613218191283, 162.674 3.287, 162.94123827851655 3.086242827151772, 163.299 2.838, 163.6669014086991 2.5411035631798438, 163.691 2.523, 163.9410349053085 2.319877831416056, 164.299 2.031, 164.31960634610255 2.0123357627470306, 164.693 1.709, 165.01056916680912 1.4095584600489202, 165.189 1.259, 165.46051625570252 0.9789544378356305, 165.742 0.724, 166.2137125322995 0.2020975452199001, 166.526 -0.12, 166.958 -0.596, 167.15877419996528 -0.8515990750181565, 167.384 -1.112, 167.65603905088236 -1.4773715975946495, 167.853 -1.722, 168.219 -2.25, 168.40855245823747 -2.547608274161712, 168.866 -3.204, 168.98266869712361 -3.413216018048672, 169.212 -3.776, 169.37598670264015 -4.08327076507988, 169.588 -4.447, 169.7870011108026 -4.853410719244772, 169.814 -4.904, 170.06188372092976 -5.41479069767343, 170.156 -5.607, 170.16153483580175 -5.6201323889247865, 170.375 -6.06, 170.5332828743337 -6.457335610467332, 170.635 -6.677, 170.76460082318005 -7.051014419985568, 170.91 -7.396, 171.11668424006214 -8.067090334632622, 171.266 -8.498, 171.455 -9.106, 171.52979918230824 -9.426100204423365, 171.623 -9.754, 171.7127784721337 -10.187581303405361, 171.791 -10.504, 171.901 -11.144, 171.94697408986553 -11.495008527386066, 172.083 -12.275, 172.10039207961543 -12.515405412556717, 172.154 -12.941, 172.1724260607826 -13.278723371201187, 172.212 -13.708, 172.2208134728247 -14.165595509058468, 172.224 -14.224, 172.2329348914858 -14.794939565943029, 172.237 -15.006, 172.236463344455 -15.020407710673698, 172.244 -15.502, 172.21959676410248 -15.938620058490711, 172.219 -16.171, 172.17920151839022 -16.557728679885013, 172.165 -16.939, 172.06647117809902 -17.653148754229672, 172.021 -18.095, 171.937 -18.719, 171.86735918570002 -19.051153028798765, 171.815 -19.377, 171.7154929034808 -19.800074389962667, 171.651 -20.128, 171.478 -20.761, 171.37420722183165 -21.089795615773056, 171.167 -21.857, 171.08343378914864 -22.076646052051217, 170.951 -22.49, 170.82517090032675 -22.803657152823757, 170.68 -23.21, 170.49276946622976 -23.63224201661229, 170.47 -23.689, 170.1729093637473 -24.353590036010374, 170.151 -24.403, 170.1495884244372 -24.405758842443944, 169.951 -24.85, 169.7460704396686 -25.232621647454135, 169.646 -25.446, 169.4479246317731 -25.77711996796963, 169.273 -26.119, 168.87741657017017 -26.73083073360109, 168.65 -27.111, 168.314 -27.636, 61.829 -181.972, 60.342 -183.833, 58.61 -185.469, 56.665 -186.845, 54.548 -187.937, 52.298 -188.722, 49.961 -189.185, 47.583 -189.316, 45.209 -189.114, 42.887 -188.581, 40.662 -187.73, 38.578 -186.575, 36.676 -185.141, 34.993 -183.455, 33.562 -181.55, 32.411 -179.464, 31.564 -177.237, 31.036 -174.914, 30.838 -172.54, 30.974 -170.161, 31.441 -167.825, 32.23 -165.577, 33.326 -163.462, 99.35272573108254 -55.275708203317315, -20.924 -95.242, -23.232 -95.833, -25.6 -96.095, -27.981 -96.024, -30.329 -95.621, -32.598 -94.893), (135.824 16.862, 135.943 16.783, 135.802 16.886, 135.824 16.862), (136.052 16.703, 136.10026341463416 16.668931707317082, 136.013 16.766, 136.052 16.703), (136.19808442776736 16.5929287054409, 136.243 16.555, 136.26838554216855 16.531385542168806, 136.28410491803277 16.517452459016415, 136.201 16.625, 136.19808442776736 16.5929287054409), (136.37 16.433, 136.40090624999934 16.39940625000071, 136.407 16.393, 136.40972727272748 16.389818181817958, 136.416 16.383, 136.44165882352945 16.353064705882307, 136.367 16.468, 136.37 16.433), (144.844 12.169, 144.88181249999997 12.166250000000003, 144.886 12.166, 144.953 12.161, 144.974 12.181, 144.844 12.169), (145.085 12.144, 145.142 12.133, 145.15300000000005 12.130684210526304, 145.198 12.122, 145.219 12.144, 145.085 12.144), (145.31429648241206 12.091909547738693, 145.373 12.074, 145.442 12.083, 145.31429648241206 12.091909547738693), (157.92400000000086 -14.61700000000204, 157.855 -14.45, 157.788 -14.289, 157.92400000000086 -14.61700000000204), (158.008999999986 -14.821999999966222, 157.98 -14.752, 157.92400000000086 -14.61700000000204, 158.008999999986 -14.821999999966222), (157.917 -15.448, 157.99715257731694 -15.34285360825088, 157.8437142857131 -15.54300000000154, 157.917 -15.448), (156.93 -13.982, 156.87950246305394 -13.97539901477829, 157.4415067567571 -14.049514864864907, 157.282 -14.028, 157.061 -13.999, 156.93 -13.982), (156.718 -15.972, 156.939 -16.001, 157.07 -16.018, 157.12049753694606 -16.02460098522171, 156.5584932432429 -15.950485135135093, 156.718 -15.972), (156.0028474226833 -14.657146391748805, 156.15628571428644 -14.45699999999904, 156.083 -14.552, 156.0028474226833 -14.657146391748805), (153.96176798623065 -9.419719104991387, 153.88518177613324 -9.560691951896365, 153.8532162554427 -9.635416545718376, 153.8217227036395 -9.73252166377825, 153.80001310759144 -9.821669579464945, 153.78420934579444 -9.929026168223979, 153.77793992932862 -10.024996466431277, 153.77979400749064 -10.117700374531758, 153.79091160220995 -10.228320441988904, 153.80835311284048 -10.31686964980549, 153.83705870696156 -10.419776496654599, 153.838069092977 -10.42339863520056, 153.8680289103039 -10.501988880652256, 153.89852661964943 -10.567447378759718, 153.9098474576272 -10.591745762712005, 153.99887499999963 -10.740124999999415, 154.0004065420561 -10.742462616822477, 154.145 -10.907, 154.248 -10.993, 154.359 -11.066, 154.477 -11.126, 154.598 -11.172, 154.811 -11.217, 154.959 -11.225, 155.141 -11.21, 155.354 -11.154, 155.564 -11.052, 155.677 -10.973, 155.787 -10.875, 155.891 -10.754, 155.987 -10.603, 156.065 -10.422, 156.111 -10.23, 156.125 -10.031, 156.122208488806 -10.00441417910462, 156.0628121005539 -9.68129782701335, 156.05809309791326 -9.66414606741553, 156.04791089108917 -9.638227722772472, 156.01788142292492 -9.56924110671942, 155.99312328991266 -9.516443642343887, 155.98589882060827 -9.501037243947767, 155.96481513204859 -9.461839400428353, 155.93288741721858 -9.410355960264967, 155.91594339622642 -9.384716981132081, 155.89015903614455 -9.348970481927676, 155.77006034710132 -9.2122792108456, 155.13987314017228 -8.893986687548944, 155.11206928525434 -8.88798209916291, 154.9178600631544 -8.876957121489113, 154.78598324958136 -8.888614740368498, 154.75522253074175 -8.891988496628327, 154.55164971751412 -8.94525988700565, 154.4773823529417 -8.979676470587979, 154.34819750628665 -9.04210551131602, 154.184416918429 -9.160824773413903, 154.14200000000008 -9.198999999999934, 154.09364705882348 -9.24735294117652, 154.04152448797862 -9.307995547640276, 153.99473081328756 -9.367871324933137, 153.96176798623065 -9.419719104991387), (153.874 -19.477, 153.828 -19.598, 153.783 -19.811, 153.775 -19.959, 153.79 -20.141, 153.846 -20.354, 153.948 -20.564, 154.027 -20.677, 154.125 -20.787, 154.246 -20.891, 154.397 -20.987, 154.578 -21.065, 154.77 -21.111, 154.969 -21.125, 154.9955858208955 -21.12220848880597, 155.3187021729868 -21.062812100553895, 155.33585393258423 -21.058093097913332, 155.36177227722774 -21.047910891089096, 155.43075889328057 -21.017881422924926, 155.47168151178002 -20.998691720464734, 155.49896275605215 -20.98589882060831, 155.5381605995717 -20.964815132048543, 155.58964403973496 -20.932887417218627, 155.61528301886784 -20.91594339622647, 155.65102951807236 -20.89015903614452, 155.78772078915438 -20.770060347101367, 156.10601331245104 -20.13987314017228, 156.1120179008371 -20.112069285254297, 156.1230428785109 -19.917860063154396, 156.11138525963153 -19.78598324958167, 156.10801150337167 -19.7552225307417, 156.05474011299432 -19.551649717514035, 156.020323529412 -19.47738235294167, 155.957894488684 -19.348197506286656, 155.83917522658618 -19.184416918429104, 155.80099999999993 -19.14199999999993, 155.7526470588235 -19.093647058823496, 155.69200445235978 -19.041524487978652, 155.6321286750668 -18.994730813287514, 155.58028089500863 -18.96176798623065, 155.43930804810356 -18.885181776133187, 155.42421704959335 -18.878726182326044, 155.3645834542816 -18.853216255442682, 155.2674783362218 -18.821722703639512, 155.22235866831096 -18.81073501249024, 155.17833042053522 -18.800013107591482, 155.07097383177566 -18.78420934579439, 154.97500353356892 -18.77793992932862, 154.88229962546816 -18.779794007490636, 154.77167955801102 -18.79091160220995, 154.6831303501946 -18.808353112840454, 154.5766013647995 -18.83806909297698, 154.49801111934764 -18.86802891030394, 154.4082542372881 -18.909847457627134, 154.25987499999988 -18.998875000000083, 154.2575373831776 -19.000406542056062, 154.093 -19.145, 154.007 -19.248, 153.934 -19.359, 153.874 -19.477), (151.14649213011543 -8.23846432318992, 151.13 -8.235, 151.14649213011543 -8.238464323189929, 151.14649213011543 -8.23846432318992), (151.001 -8.061, 151.018 -7.93, 151.0246009852218 -7.879502463053201, 150.95048513513444 -8.441506756762019, 150.972 -8.282, 151.001 -8.061), (151.001 -22.061, 151.018 -21.93, 151.0246009852218 -21.879502463053168, 150.95048513513444 -22.44150675676202, 150.972 -22.282, 151.001 -22.061), (150.94314916562345 -8.497133810338678, 151.011 -8.558, 150.94314916562345 -8.497133810338674, 150.94314916562345 -8.497133810338678), (150.94314916562345 -22.497133810338678, 151.011 -22.558, 150.94314916562345 -22.497133810338674, 150.94314916562345 -22.497133810338678), (150.9978235177013 -7.384811506685697, 150.989 -7.404, 150.9978235177013 -7.384811506685716, 150.9978235177013 -7.384811506685697), (150.92219929777866 -8.721697082100434, 150.92219929777866 -8.721697082100427, 150.916 -8.703, 150.92219929777866 -8.721697082100434), (150.92874427065354 -8.712767506705253, 150.92874427065354 -8.712767506705244, 150.916 -8.703, 150.92874427065354 -8.712767506705253), (150.90097671864706 -7.25309444322425, 150.90097671864706 -7.2530944432242475, 150.889 -7.263, 150.90097671864706 -7.25309444322425), (150.89435502255998 -7.24440346710995, 150.89435502255998 -7.244403467109936, 150.889 -7.263, 150.89435502255998 -7.24440346710995), (150.82939344262294 -22.830606557377045, 150.82939344262294 -22.830606557377042, 150.817 -22.816, 150.82939344262294 -22.830606557377045), (150.383 -22.924, 150.17800000000545 -23.00899999999774, 150.248 -22.98, 150.383 -22.924), (150.55 -22.855, 150.711 -22.788, 150.383 -22.924, 150.55 -22.855), (150.448 -7.083, 150.34285360824927 -7.0028474226818345, 150.54299999999878 -7.156285714284781, 150.448 -7.083), (150.5429999999985 -21.15628571428455, 150.448 -21.083, 150.34285360824887 -21.00284742268152, 150.5429999999985 -21.15628571428455), (150.194 -9.138, 150.19716686910752 -9.156619006304592, 150.19716686910752 -9.15661900630459, 150.194 -9.138), (149.752 -7.02, 149.617 -7.076, 149.45 -7.145, 149.289 -7.212, 149.084 -7.297, 149.82200000000418 -6.990999999998272, 149.752 -7.02), (149.69170781049937 -6.535008194622279, 149.6917078104993 -6.535008194622286, 149.6917078104993 -6.53500819462229, 149.69170781049934 -6.535008194622285, 149.69170781049937 -6.535008194622279), (149.552 -8.917, 149.65714639175113 -8.997152577318474, 149.45700000000122 -8.843714285715219, 149.552 -8.917), (149.4570000000015 -22.84371428571545, 149.552 -22.917, 149.65714639175005 -22.997152577317664, 149.4570000000015 -22.84371428571545), (149.64399212904735 -20.885504648659857, 149.64399212904732 -20.885504648659868, 149.639 -20.903, 149.64399212904735 -20.885504648659857), (149.51146511627908 -9.066430232558144, 149.519 -9.05, 149.51146511627908 -9.066430232558137, 149.51146511627908 -9.066430232558144), (149.44698010838528 -8.836032733036909, 149.44698010838528 -8.836032733036904, 149.368 -8.966, 149.44698010838528 -8.836032733036909), (149.44698010838528 -22.83603273303691, 149.44698010838528 -22.8360327330369, 149.368 -22.966, 149.44698010838528 -22.83603273303691), (149.07780070222134 -21.278302917899573, 149.084 -21.297, 149.07780070222134 -21.278302917899566, 149.07780070222134 -21.278302917899573), (149.28900000000334 -21.21199999999861, 149.331 -21.059, 149.289 -21.212, 149.084 -21.297, 149.28900000000334 -21.21199999999861), (149.183 -7.184, 149.17060655737706 -7.169393442622956, 149.17060655737706 -7.16939344262296, 149.183 -7.184), (149.09902328135294 -22.746905556775747, 149.09902328135294 -22.746905556775754, 149.111 -22.737, 149.09902328135294 -22.746905556775747), (149.05685083437655 -7.502866189661325, 149.05685083437655 -7.502866189661321, 148.989 -7.442, 149.05685083437655 -7.502866189661325), (149.05685083437655 -21.502866189661326, 149.05685083437655 -21.502866189661322, 148.989 -21.442, 149.05685083437655 -21.502866189661326), (148.982 -8.07, 148.9753990147782 -8.120497536946731, 149.04951486486556 -7.558493243238018, 149.028 -7.718, 148.999 -7.939, 148.982 -8.07), (148.982 -22.07, 148.9753990147782 -22.120497536946832, 149.04951486486556 -21.55849324323798, 149.028 -21.718, 148.999 -21.939, 148.982 -22.07), (143.89398668754896 -9.86012685982772, 143.8879820991629 -9.887930714745702, 143.8769571214891 -10.082139936845616, 143.88861474036847 -10.214016750418324, 143.89198849662833 -10.2447774692583, 143.94525988700565 -10.448350282485897, 143.97967647058806 -10.522617647058475, 144.042105511316 -10.651802493713348, 144.16082477341382 -10.815583081570892, 144.19900000000013 -10.858000000000132, 144.24735294117647 -10.906352941176465, 144.30799554764036 -10.958475512021456, 144.3678713249332 -11.005269186712484, 144.4197191049914 -11.038232013769363, 144.5606919518964 -11.114818223866784, 144.5987892496011 -11.13111540121825, 144.63541654571847 -11.146783744557341, 144.73252166377816 -11.17827729636048, 144.82166957946484 -11.199986892408532, 144.92902616822428 -11.215790654205605, 144.98633029643577 -11.219534139968166, 145.0249964664311 -11.222060070671379, 145.11770037453184 -11.220205992509364, 145.22832044198893 -11.209088397790056, 145.31686964980545 -11.19164688715953, 145.4233986352005 -11.161930907023015, 145.50198888065233 -11.131971089696071, 145.59174576271184 -11.09015254237289, 145.7401250000001 -11.001124999999938, 145.7424626168224 -10.999593457943945, 145.907 -10.855, 145.993 -10.752, 146.066 -10.641, 146.126 -10.523, 146.172 -10.402, 146.217 -10.189, 146.225 -10.041, 146.21 -9.859, 146.154 -9.646, 146.052 -9.436, 145.973 -9.323, 145.875 -9.213, 145.754 -9.109, 145.603 -9.013, 145.422 -8.935, 145.23 -8.889, 145.031 -8.875, 145.0044141791045 -8.87779151119403, 144.68129782701322 -8.937187899446096, 144.66414606741574 -8.941906902086673, 144.63822772277223 -8.952089108910908, 144.56924110671952 -8.982118577075024, 144.50103724394765 -9.01410117939178, 144.46183940042832 -9.035184867951422, 144.41035596026495 -9.067112582781423, 144.38471698113204 -9.084056603773606, 144.34897048192764 -9.109840963855484, 144.21227921084562 -9.229939652898636, 143.89398668754896 -9.86012685982772), (143.87779151119403 -19.995585820895524, 143.89081566123437 -20.066437197115036, 143.9371878994461 -20.318702172986708, 143.9419069020867 -20.33585393258437, 143.9520891089108 -20.36177227722748, 143.98211857707508 -20.430758893280565, 144.0103081114312 -20.490873924377336, 144.01410117939167 -20.498962756052137, 144.03518486795144 -20.53816059957171, 144.06711258278125 -20.58964403973476, 144.08405660377366 -20.615283018868034, 144.10984096385545 -20.651029518072328, 144.22993965289868 -20.787720789154402, 144.86012685982772 -21.106013312451054, 144.88793071474566 -21.11201790083709, 145.0821399368456 -21.123042878510887, 145.21401675041855 -21.11138525963151, 145.24477746925828 -21.10801150337167, 145.44835028248588 -21.054740112994352, 145.5226176470589 -21.02032352941173, 145.65180249371332 -20.957894488683987, 145.81558308157102 -20.83917522658607, 145.85799999999992 -20.801000000000073, 145.90635294117638 -20.752647058823626, 145.94378807064314 -20.709092725501723, 145.95847551202138 -20.692004452359726, 146.00526918671244 -20.63212867506687, 146.01370494054478 -20.618859937268063, 146.03823201376932 -20.580280895008652, 146.11481822386676 -20.439308048103666, 146.1467837445573 -20.364583454281618, 146.1782772963605 -20.267478336221746, 146.19998689240856 -20.178330420535055, 146.21579065420556 -20.07097383177602, 146.22206007067138 -19.97500353356872, 146.22020599250936 -19.88229962546819, 146.20908839779005 -19.771679558011087, 146.19164688715952 -19.683130350194496, 146.16557258000813 -19.589656418897118, 146.161930907023 -19.576601364799437, 146.1319710896961 -19.49801111934774, 146.09015254237286 -19.40825423728814, 146.001125 -19.259875000000005, 145.99959345794392 -19.257537383177564, 145.855 -19.093, 145.752 -19.007, 145.641 -18.934, 145.523 -18.874, 145.402 -18.828, 145.189 -18.783, 145.041 -18.775, 144.859 -18.79, 144.646 -18.846, 144.436 -18.948, 144.323 -19.027, 144.213 -19.125, 144.109 -19.246, 144.013 -19.397, 143.935 -19.578, 143.889 -19.77, 143.875 -19.969, 143.87779151119403 -19.995585820895524), (143.99715257731657 -15.342853608251366, 143.8437142857138 -15.543000000000646, 143.917 -15.448, 143.99715257731657 -15.342853608251366), (143.703 -14.084, 143.7880000000012 -14.289000000002911, 143.788 -14.289, 143.703 -14.084), (142.93 -13.982, 142.87950246305218 -13.975399014778061, 143.44150675675715 -14.049514864864916, 143.282 -14.028, 143.061 -13.999, 142.93 -13.982), (142.5584932432429 -15.950485135135093, 142.718 -15.972, 142.939 -16.001, 143.07 -16.018, 143.12049753694606 -16.02460098522171, 142.5584932432429 -15.950485135135093), (143.064 -13.847, 143.077655495731 -13.829225284482392, 143.07765549573097 -13.829225284482392, 143.064 -13.847), (142.02 -15.248, 142.076 -15.383, 141.9910000000088 -15.17800000002123, 142.02 -15.248), (142.145 -15.55, 142.212 -15.711, 142.076 -15.383, 142.145 -15.55), (142.184 -15.817, 142.16939344262295 -15.82939344262295, 142.16939344262295 -15.829393442622951, 142.184 -15.817), (142.1562857142869 -14.45699999999846, 142.083 -14.552, 142.00284742268306 -14.65714639174912, 142.1562857142869 -14.45699999999846), (115.559 51.033, 115.798 51.048, 116.032 51.098, 116.256 51.182, 116.464 51.299, 116.653 51.445, 116.818 51.618, 116.956 51.814, 117.062 52.028, 117.136 52.255, 117.175 52.491, 117.178 52.731, 117.146 52.967, 117.078 53.197, 116.978 53.414, 116.846 53.613, 116.685 53.791, 116.501 53.942, 116.295 54.065, 116.074 54.155, 115.841 54.212, 115.603 54.233, 115.364 54.218, 115.131 54.168, 114.907 54.084, 114.698 53.967, 114.509 53.821, 114.344 53.648, 114.207 53.452, 114.1 53.238, 114.026 53.01, 113.987 52.774, 113.984 52.535, 114.017 52.298, 114.084 52.069, 114.185 51.852, 114.317 51.653, 114.477 51.475, 114.662 51.323, 114.867 51.201, 115.089 51.111, 115.321 51.054, 115.559 51.033), (102.769 33.798, 102.807 33.77, 102.785 33.83, 102.831 33.818, 102.865 33.831, 102.812 33.858, 102.779 33.874, 102.767 33.88, 102.727 33.767, 102.715 33.648, 102.734 33.52, 102.785 33.401, 102.82722713281164 33.34662533583158, 102.83868942877622 33.34091019745563, 102.789 33.425, 102.753 33.522, 102.767 33.552, 102.747 33.65, 102.764 33.685, 102.754 33.768, 102.784 33.725, 102.769 33.798), (101.213 40.016, 101.283 39.91, 101.368 39.816, 101.467 39.735, 101.576 39.67, 101.693 39.622, 101.817 39.592, 101.943 39.581, 102.07 39.589, 102.194 39.615, 102.313 39.66, 102.424 39.722, 102.525 39.8, 102.612 39.892, 102.685 39.996, 102.742 40.109, 102.781 40.23, 102.802 40.356, 102.803 40.483, 102.786 40.609, 102.75 40.73, 102.697 40.846, 102.627 40.952, 102.542 41.046, 102.443 41.126, 102.334 41.192, 102.217 41.24, 102.093 41.27, 101.967 41.281, 101.84 41.273, 101.716 41.246, 101.597 41.202, 101.486 41.14, 101.385 41.062, 101.298 40.97, 101.225 40.866, 101.168 40.752, 101.129 40.631, 101.108 40.506, 101.107 40.379, 101.124 40.253, 101.16 40.131, 101.213 40.016), (98.97660660766311 35.211167268259956, 98.74635366040397 35.325976670323136, 98.343613833226 35.52679198798025, 98.291 35.523, 98.2439280384241 35.526851342310756, 98.82989868587367 35.23602015728825, 98.97660660766311 35.211167268259956), (96 42.492, 96.126 42.481, 96.253 42.489, 96.377 42.516, 96.496 42.56, 96.607 42.622, 96.707 42.7, 96.795 42.792, 96.868 42.896, 96.925 43.01, 96.964 43.131, 96.985 43.256, 96.986 43.383, 96.969 43.509, 96.933 43.631, 96.88 43.746, 96.81 43.852, 96.725 43.946, 96.626 44.027, 96.517 44.092, 96.4 44.14, 96.276 44.17, 96.15 44.181, 96.023 44.173, 95.899 44.147, 95.78 44.102, 95.669 44.04, 95.568 43.962, 95.481 43.87, 95.408 43.766, 95.351 43.652, 95.312 43.532, 95.291 43.406, 95.29 43.279, 95.307 43.153, 95.342 43.031, 95.396 42.916, 95.466 42.81, 95.551 42.716, 95.65 42.635, 95.759 42.57, 95.876 42.522, 96 42.492), (91.312 54.516, 91.174 54.32, 91.067 54.106, 90.994 53.879, 90.955 53.643, 90.952 53.403, 90.984 53.167, 91.051 52.937, 91.152 52.72, 91.284 52.521, 91.444 52.343, 91.629 52.192, 91.835 52.069, 92.056 51.979, 92.289 51.922, 92.527 51.901, 92.765 51.916, 92.999 51.966, 93.223 52.05, 93.432 52.167, 93.621 52.313, 93.786 52.487, 93.923 52.682, 94.03 52.896, 94.104 53.124, 94.142 53.36, 94.146 53.599, 94.113 53.836, 94.046 54.065, 93.945 54.282, 93.813 54.481, 93.653 54.659, 93.468 54.811, 93.263 54.933, 93.041 55.023, 92.809 55.08, 92.571 55.101, 92.332 55.086, 92.098 55.036, 91.874 54.952, 91.666 54.835, 91.477 54.689, 91.312 54.516), (87.158 46.266, 87.052 46.052, 86.978 45.824, 86.939 45.588, 86.936 45.349, 86.968 45.112, 87.036 44.883, 87.136 44.666, 87.268 44.466, 87.429 44.289, 87.614 44.137, 87.819 44.015, 88.04 43.924, 88.273 43.868, 88.511 43.847, 88.75 43.861, 88.983 43.911, 89.207 43.996, 89.416 44.113, 89.605 44.259, 89.77 44.432, 89.907 44.628, 90.014 44.842, 90.088 45.069, 90.127 45.305, 90.13 45.544, 90.097 45.781, 90.03 46.011, 89.929 46.228, 89.797 46.427, 89.637 46.605, 89.452 46.756, 89.247 46.879, 89.025 46.969, 88.793 47.025, 88.555 47.047, 88.316 47.032, 88.082 46.982, 87.858 46.898, 87.65 46.781, 87.461 46.634, 87.296 46.461, 87.158 46.266), (87.787 41.021, 87.864 41.037, 87.772 40.991, 87.673 40.961, 87.57507319332612 40.95139933267903, 87.58760798249537 40.94514944567235, 87.656 40.944, 87.782 40.975, 87.895 41.037, 87.983 41.118, 88.049 41.218, 88.038 41.224, 88.005 41.24, 87.952 41.267, 87.962 41.232, 87.998 41.202, 87.938 41.184, 87.982 41.17, 87.915 41.139, 87.968 41.14, 87.895 41.098, 87.878 41.064, 87.787 41.021), (52.646 -177.327, 52.836 -177.472, 53.046 -177.587, 53.27 -177.669, 53.504 -177.717, 53.743 -177.73, 53.981 -177.707, 54.213 -177.648, 54.434 -177.556, 54.638 -177.432, 54.822 -177.278, 54.98 -177.1, 55.111 -176.899, 55.209 -176.681, 55.275 -176.451, 55.305 -176.214, 55.3 -175.975, 55.259 -175.739, 55.183 -175.512, 55.075 -175.299, 54.936 -175.105, 54.769 -174.933, 54.579 -174.788, 54.369 -174.674, 54.144 -174.591, 53.91 -174.543, 53.671 -174.531, 53.433 -174.554, 53.202 -174.612, 52.981 -174.705, 52.777 -174.829, 52.593 -174.982, 52.434 -175.161, 52.304 -175.362, 52.205 -175.579, 52.14 -175.809, 52.109 -176.047, 52.115 -176.286, 52.156 -176.521, 52.231 -176.748, 52.34 -176.961, 52.479 -177.156, 52.646 -177.327), (51.267 -167.794, 51.472 -167.836, 51.68 -167.847, 51.889 -167.826, 52.092 -167.775, 52.285 -167.695, 52.463 -167.586, 52.624 -167.452, 52.763 -167.295, 52.877 -167.12, 52.963 -166.929, 53.021 -166.728, 53.047 -166.52, 53.042 -166.311, 53.007 -166.105, 52.941 -165.907, 52.846 -165.72, 52.724 -165.55, 52.578 -165.4, 52.412 -165.273, 52.228 -165.172, 52.032 -165.1, 51.827 -165.058, 51.618 -165.047, 51.409 -165.068, 51.207 -165.119, 51.013 -165.2, 50.835 -165.308, 50.674 -165.442, 50.535 -165.599, 50.421 -165.775, 50.335 -165.965, 50.278 -166.166, 50.251 -166.374, 50.256 -166.583, 50.292 -166.789, 50.358 -166.988, 50.453 -167.174, 50.574 -167.344, 50.72 -167.495, 50.887 -167.621, 51.07 -167.722, 51.267 -167.794), (47.848 -172.83, 47.849 -172.867, 47.89 -172.865, 47.931 -172.859, 47.924 -172.823, 47.999 -172.804, 48.069 -172.774, 48.086 -172.807, 48.122 -172.787, 48.156 -172.765, 48.135 -172.735, 48.194 -172.686, 48.244 -172.628, 48.274 -172.651, 48.297 -172.617, 48.319 -172.582, 48.286 -172.564, 48.318 -172.494, 48.339 -172.421, 48.375 -172.428, 48.382 -172.388, 48.385 -172.347, 48.348 -172.345, 48.347 -172.268, 48.334 -172.193, 48.369 -172.184, 48.358 -172.144, 48.344 -172.106, 48.309 -172.12, 48.275 -172.052, 48.23 -171.989, 48.258 -171.966, 48.231 -171.935, 48.201 -171.907, 48.177 -171.934, 48.116 -171.888, 48.049 -171.851, 48.064 -171.818, 48.026 -171.802, 47.987 -171.789, 47.977 -171.825, 47.902 -171.809, 47.825 -171.805, 47.824 -171.768, 47.783 -171.771, 47.743 -171.776, 47.749 -171.813, 47.675 -171.832, 47.604 -171.861, 47.587 -171.828, 47.551 -171.848, 47.517 -171.871, 47.538 -171.901, 47.48 -171.95, 47.429 -172.007, 47.399 -171.985, 47.376 -172.019, 47.355 -172.054, 47.387 -172.072, 47.355 -172.141, 47.334 -172.215, 47.298 -172.208, 47.292 -172.248, 47.288 -172.289, 47.325 -172.291, 47.326 -172.368, 47.34 -172.443, 47.304 -172.452, 47.315 -172.492, 47.33 -172.53, 47.364 -172.516, 47.399 -172.584, 47.443 -172.646, 47.415 -172.67, 47.442 -172.701, 47.472 -172.729, 47.497 -172.701, 47.557 -172.748, 47.625 -172.784, 47.609 -172.818, 47.647 -172.834, 47.686 -172.846, 47.697 -172.811, 47.772 -172.826, 47.848 -172.83), (43.847 -179.577, 44.056 -179.588, 44.264 -179.568, 44.467 -179.517, 44.66 -179.436, 44.839 -179.327, 44.999 -179.193, 45.138 -179.037, 45.252 -178.861, 45.339 -178.671, 45.396 -178.469, 45.422 -178.262, 45.418 -178.053, 45.382 -177.846, 45.316 -177.648, 45.221 -177.461, 45.099 -177.291, 44.953 -177.141, 44.787 -177.014, 44.603 -176.914, 44.407 -176.842, 44.202 -176.8, 43.993 -176.789, 43.784 -176.809, 43.582 -176.86, 43.389 -176.941, 43.21 -177.05, 43.049 -177.184, 42.91 -177.34, 42.796 -177.516, 42.71 -177.706, 42.653 -177.908, 42.626 -178.115, 42.631 -178.324, 42.667 -178.531, 42.733 -178.729, 42.828 -178.916, 42.949 -179.086, 43.095 -179.236, 43.262 -179.363, 43.445 -179.463, 43.642 -179.535, 43.847 -179.577), (41.304 -169.962, 41.529 -170.044, 41.763 -170.092, 42.002 -170.105, 42.24 -170.082, 42.472 -170.023, 42.692 -169.931, 42.897 -169.807, 43.08 -169.654, 43.239 -169.475, 43.369 -169.274, 43.468 -169.056, 43.533 -168.826, 43.564 -168.589, 43.558 -168.35, 43.517 -168.114, 43.442 -167.888, 43.333 -167.674, 43.194 -167.48, 43.028 -167.308, 42.837 -167.163, 42.628 -167.049, 42.403 -166.966, 42.169 -166.918, 41.93 -166.906, 41.692 -166.929, 41.46 -166.987, 41.24 -167.08, 41.035 -167.204, 40.852 -167.357, 40.693 -167.536, 40.563 -167.737, 40.464 -167.954, 40.398 -168.184, 40.368 -168.422, 40.373 -168.661, 40.414 -168.896, 40.49 -169.123, 40.599 -169.336, 40.738 -169.531, 40.904 -169.702, 41.094 -169.847, 41.304 -169.962), (-8.631 70.366, -8.702 70.479, -8.783 70.609, -8.901 70.797, -8.410297297297051 70.01123423423384, -8.513 70.177, -8.631 70.366), (-8.50728832951857 69.40660183066527, -8.475 69.467, -8.444884955752807 69.52392477875993, -8.50728832951857 69.40660183066527), (-8.662540540540379 69.11471621621652, -8.628 69.179, -8.589437699681 69.25215495207576, -8.662540540540379 69.11471621621652), (-9.206 68.785, -9.052 68.79, -8.831 68.798, -9.985 68.758, -9.778 68.765, -9.561 68.772, -9.339 68.78, -9.206 68.785), (-10.206923322683595 69.11300479233208, -10.184 69.076, -10.102 68.945, -9.985 68.758, -10.206923322683595 69.11300479233208), (-9.40668539325754 70.7790337078652, -9.314838046272287 70.7822969151671, -9.324 70.782, -9.40668539325754 70.7790337078652), (-9.555898446833991 70.77373237753883, -9.68 70.77, -9.834 70.764, -10.055 70.756, -9.555898446833991 70.77373237753883), (-10.238 70.412, -10.246201166181871 70.39652769679091, -10.23108121827372 70.42495431472155, -10.238 70.412), (-10.372 69.377, -10.360605150214507 69.35884549356209, -10.593518723769433 69.73143109570306, -10.59351889914649 69.73143023863439, -10.487 69.561, -10.372 69.377), (-10.589478685677067 69.75117478468552, -10.589490045655136 69.75111926840852, -10.371978043912183 70.16005788423152, -10.394 70.119, -10.493 69.933, -10.589478685677067 69.75117478468552), (-10.84539754098361 79.36975409836072, -10.845780793319417 79.37690814196245, -10.845780793319419 79.37690814196246, -10.845397540983612 79.36975409836073, -10.84539754098361 79.36975409836072), (-10.976939703628013 78.61809862033724, -10.97693970362802 78.61809862033722, -10.976939703628004 78.61809862033725, -10.976939703627997 78.61809862033726, -10.976939703628013 78.61809862033724), (-11.939307692305894 78.32660439560522, -11.859 78.363, -11.738 78.418, -11.712067222122677 78.4298549841725, -11.711941014846177 78.4303269084654, -11.939307692305894 78.32660439560522), (-11.825309361680453 78.30641700487358, -11.825309361680452 78.30641700487358, -11.859 78.363, -11.825309361680453 78.30641700487358), (-12.775973734177215 78.32859214135021, -12.753 78.312, -12.627 78.223, -12.455869430051811 78.10130715025906, -12.455861272019723 78.10130930101298, -12.776057464234725 78.3292917120481, -12.775973734177215 78.32859214135021), (-15.604 72.514, -15.605 72.551, -15.529 72.56, -15.455 72.579, -15.443 72.544, -15.405 72.559, -15.368 72.577, -15.385 72.61, -15.32 72.65, -15.262 72.7, -15.236 72.674, -15.208 72.704, -15.182 72.736, -15.212 72.758, -15.171 72.823, -15.14 72.893, -15.105 72.881, -15.093 72.92, -15.084 72.96, -15.12 72.967, -15.111 73.043, -15.114 73.12, -15.077 73.124, -15.083 73.164, -15.092 73.204, -15.128 73.195, -15.153 73.267, -15.189 73.335, -15.157 73.355, -15.18 73.389, -15.206 73.421, -15.234 73.397, -15.288 73.451, -15.35 73.497, -15.33 73.528, -15.365 73.549, -15.402 73.567, -15.417 73.533, -15.489 73.558, -15.565 73.573, -15.56 73.609, -15.601 73.613, -15.642 73.613, -15.641 73.576, -15.717 73.567, -15.791 73.548, -15.804 73.583, -15.842 73.568, -15.879 73.55, -15.862 73.517, -15.927 73.477, -15.985 73.427, -16.011 73.453, -16.039 73.423, -16.065 73.391, -16.035 73.369, -16.076 73.304, -16.107 73.234, -16.142 73.246, -16.154 73.207, -16.163 73.167, -16.127 73.16, -16.135 73.084, -16.133 73.007, -16.17 73.003, -16.163 72.963, -16.154 72.923, -16.119 72.932, -16.094 72.86, -16.058 72.792, -16.089 72.772, -16.066 72.738, -16.041 72.706, -16.013 72.73, -15.959 72.676, -15.897 72.63, -15.917 72.599, -15.881 72.578, -15.844 72.56, -15.829 72.594, -15.757 72.569, -15.682 72.554, -15.686 72.518, -15.645 72.514, -15.604 72.514), (-18.97073216023962 65.75541817047298, -18.831 65.819, -18.634 65.909, -18.555573435505018 65.94510727969323, -18.9711586937853 65.7553062102598, -18.97073216023962 65.75541817047298), (-18.711 -77.087, -18.569 -76.917, -19.312 -77.802, -19.178 -77.643, -19.039 -77.477, -18.896 -77.307, -18.81 -77.205, -18.711 -77.087), (-18.87018749999941 -76.0896875000016, -18.748205263157914 -76.4247526315789, -18.766 -76.375, -18.828 -76.205, -18.87018749999941 -76.0896875000016), (-19.22094915253832 -75.78680225988771, -18.964 -75.832, -19.168 -75.796, -19.22094915253832 -75.78680225988771), (-20.373 -75.956, -20.517 -76.127, -20.58793750000084 -76.21212500000101, -20.101 -75.632, -20.234 -75.79, -20.373 -75.956), (-19.54192265193381 -75.73034254143644, -19.6 -75.72, -19.731 -75.697, -19.883 -75.67, -20.101 -75.632, -19.54192265193381 -75.73034254143644), (-19.717137931033562 -77.73037931034499, -19.681 -77.737, -19.640466666667205 -77.74393333333325, -19.717137931033562 -77.73037931034499), (-20.164749999999223 -77.65125000000013, -20.031 -77.675, -19.998675276753875 -77.68060885608837, -20.164749999999223 -77.65125000000013), (-20.639 -77.078, -20.632206463195658 -77.09648473967692, -20.843 -76.516, -20.778 -76.695, -20.71 -76.883, -20.639 -77.078), (-20.921 75.88, -20.836 76.04, -20.754 76.194, -20.65 76.39, -20.968580152671464 75.79104580152726, -20.921 75.88), (-20.76 76.566, -20.875 76.75, -20.886394849785265 76.76815450643754, -20.65 76.39, -20.76 76.566), (-21.11809090908973 75.50995454545675, -21.061 75.617, -21.021046594983005 75.6924050179194, -21.11809090908973 75.50995454545675), (-21.262 77.369, -21.469 77.362, -21.685 77.355, -21.908 77.347, -22.041 77.342, -22.195 77.337, -22.416 77.329, -21.262 77.369), (-21.040076677315668 77.01399520766672, -21.063 77.051, -21.145 77.182, -21.262 77.369, -21.040076677315668 77.01399520766672), (-21.413 75.363, -21.192 75.371, -21.691101553166007 75.35326762246116, -21.567 75.357, -21.413 75.363), (-22.346 75.33, -22.139 75.337, -21.922 75.345, -21.79563076923674 75.34955384615363, -22.346 75.33), (-24.623 -87.111, -24.402 -87.204, -24.171 -87.263, -23.933 -87.287, -23.694 -87.275, -23.459 -87.228, -23.235 -87.146, -23.025 -87.032, -22.834 -86.887, -22.667 -86.716, -22.527 -86.522, -22.418 -86.309, -22.342 -86.083, -22.3 -85.847, -22.294 -85.608, -22.324 -85.371, -22.389 -85.141, -22.487 -84.923, -22.617 -84.722, -22.775 -84.542, -22.958 -84.389, -23.162 -84.264, -23.382 -84.171, -23.614 -84.112, -23.852 -84.088, -24.091 -84.1, -24.325 -84.147, -24.55 -84.229, -24.76 -84.343, -24.951 -84.488, -25.118 -84.659, -25.257 -84.853, -25.366 -85.066, -25.443 -85.292, -25.484 -85.528, -25.49 -85.767, -25.461 -86.004, -25.396 -86.234, -25.298 -86.452, -25.168 -86.653, -25.01 -86.833, -24.827 -86.986, -24.623 -87.111), (-22.52158774373277 75.61088300835682, -22.567923322683754 75.68500479233234, -22.545 75.648, -22.52158774373277 75.61088300835682), (-22.854 76.505, -22.950811753636827 76.32254707968444, -22.95081820389192 76.32251555725136, -22.764428571427803 76.67328571428716, -22.854 76.505), (-26.806 -78.934, -26.817 -78.973, -26.781 -78.982, -26.795 -79.058, -26.797 -79.134, -26.834 -79.136, -26.83 -79.177, -26.823 -79.218, -26.787 -79.21, -26.766 -79.284, -26.735 -79.354, -26.767 -79.372, -26.746 -79.407, -26.723 -79.441, -26.693 -79.418, -26.643 -79.476, -26.584 -79.525, -26.606 -79.555, -26.571 -79.578, -26.535 -79.598, -26.519 -79.565, -26.448 -79.595, -26.374 -79.614, -26.38 -79.65, -26.34 -79.656, -26.299 -79.658, -26.298 -79.621, -26.221 -79.618, -26.146 -79.602, -26.136 -79.638, -26.097 -79.625, -26.059 -79.61, -26.074 -79.576, -26.007 -79.54, -25.946 -79.493, -25.921 -79.521, -25.891 -79.493, -25.864 -79.462, -25.892 -79.439, -25.847 -79.376, -25.812 -79.308, -25.778 -79.323, -25.764 -79.284, -25.752 -79.245, -25.788 -79.236, -25.775 -79.16, -25.773 -79.084, -25.736 -79.082, -25.739 -79.041, -25.746 -79, -25.782 -79.008, -25.803 -78.934, -25.834 -78.864, -25.802 -78.846, -25.823 -78.811, -25.847 -78.777, -25.876 -78.8, -25.927 -78.742, -25.985 -78.693, -25.964 -78.663, -25.998 -78.64, -26.034 -78.62, -26.051 -78.653, -26.121 -78.623, -26.196 -78.604, -26.189 -78.568, -26.23 -78.562, -26.271 -78.56, -26.272 -78.597, -26.348 -78.6, -26.423 -78.616, -26.433 -78.58, -26.472 -78.593, -26.511 -78.608, -26.495 -78.642, -26.563 -78.678, -26.624 -78.725, -26.648 -78.697, -26.678 -78.725, -26.706 -78.756, -26.677 -78.78, -26.722 -78.842, -26.757 -78.91, -26.791 -78.895, -26.806 -78.934), (-27.769 -72.978, -27.702 -72.765, -27.681430088495645 -72.69801592920376, -27.810249999999773 -73.1067499999993, -27.769 -72.978), (-27.907376743338933 -73.38430185078504, -28.159601941744647 -73.44025242718382, -28.113 -73.43, -27.907379122241508 -73.38430647160924, -27.907376743338933 -73.38430185078504), (-34.235 -81.778, -34.179 -81.98, -34.093 -82.171, -33.979 -82.346, -33.841 -82.503, -33.681 -82.638, -33.502 -82.747, -33.309 -82.828, -33.107 -82.88, -32.898 -82.901, -32.689 -82.891, -32.484 -82.849, -32.288 -82.778, -32.104 -82.678, -31.937 -82.551, -31.791 -82.402, -31.669 -82.232, -31.573 -82.046, -31.507 -81.847, -31.47 -81.641, -31.465 -81.432, -31.491 -81.224, -31.547 -81.023, -31.633 -80.832, -31.747 -80.656, -31.885 -80.499, -32.046 -80.365, -32.224 -80.256, -32.417 -80.174, -32.62 -80.123, -32.828 -80.102, -33.037 -80.112, -33.242 -80.154, -33.439 -80.225, -33.622 -80.325, -33.789 -80.452, -33.935 -80.601, -34.058 -80.771, -34.153 -80.957, -34.22 -81.156, -34.256 -81.362, -34.261 -81.571, -34.235 -81.778)), ((87.099 45.888, 87.12606432748538 45.95611695906433, 87.153 46.035, 87.1735428229665 46.07561339712917, 87.188 46.112, 87.21554714912283 46.15865643274856, 87.24 46.207, 87.26750998336114 46.246665557404434, 87.299 46.3, 87.35069679300281 46.36660932944592, 87.369 46.393, 87.3808055271239 46.40540327533271, 87.403 46.434, 87.522 46.555, 87.52665819361816 46.55864088696592, 87.527 46.559, 87.67 46.674, 87.6882911392405 46.68497468354431, 87.696 46.691, 87.74374999999992 46.71824999999996, 87.85 46.782, 87.87017722878625 46.79039957035446, 87.887 46.8, 88.00398995983936 46.84610441767069, 88.071 46.874, 88.08047450980393 46.87624611223801, 88.09 46.88, 88.303 46.929, 88.532 46.947, 88.53299999999997 46.94692207792208, 88.534 46.947, 88.763 46.929, 88.975 46.88, 88.98311553133517 46.87681743869209, 88.995 46.874, 89.0713749999999 46.84220588235298, 89.179 46.8, 89.19582277121377 46.790399570354445, 89.216 46.782, 89.32224999999984 46.7182500000001, 89.37 46.691, 89.37770886075951 46.6849746835443, 89.396 46.674, 89.539 46.559, 89.53934180638187 46.55864088696589, 89.544 46.555, 89.662 46.434, 89.6807439871726 46.41007910208448, 89.697 46.393, 89.71913235294117 46.36108823529413, 89.767 46.3, 89.79667563291139 46.24928164556963, 89.826 46.207, 89.85524882995318 46.1491747269891, 89.877 46.112, 89.88779497607655 46.084830622009584, 89.913 46.035, 89.94604873294351 45.93821442495114, 89.966 45.888, 89.97153824362603 45.86356657223807, 89.983 45.83, 90.00741324200914 45.70529452054793, 90.017 45.663, 90.01779549114332 45.65226086956522, 90.02 45.641, 90.033 45.447, 90.02 45.253, 90.01779549114332 45.2417391304348, 90.017 45.231, 90.00713547376667 45.18728660924053, 89.983 45.064, 89.97202709823107 45.03170831765139, 89.966 45.005, 89.94548164464028 44.953588839941375, 89.913 44.858, 89.8861326655265 44.80488297092597, 89.877 44.782, 89.858348405329 44.74995316915618, 89.826 44.686, 89.79652617216573 44.64373133217567, 89.767 44.593, 89.71690740740743 44.529549382716084, 89.697 44.501, 89.68110462776659 44.484199195171, 89.662 44.46, 89.544 44.339, 89.54294360496493 44.33816824069078, 89.539 44.334, 89.396 44.22, 89.38240674394102 44.21176852827539, 89.37 44.202, 89.30532443703079 44.165090909090864, 89.216 44.111, 89.19639728682168 44.10292829457363, 89.179 44.093, 89.03800000000001 44.037705882352945, 88.995 44.02, 88.98940807174891 44.01865022421526, 88.975 44.013, 88.82982608695677 43.980130434782666, 88.763 43.964, 88.56338113207548 43.94930943396226, 88.534 43.947, 88.53299999999999 43.9470735930736, 88.532 43.947, 88.50261886792471 43.94930943396225, 88.303 43.964, 88.24060606060584 43.979060606060656, 88.09 44.013, 88.07419354838709 44.01922914349278, 88.071 44.02, 88.04340983606562 44.031360655737686, 87.887 44.093, 87.86960271317835 44.10292829457361, 87.85 44.111, 87.76067556296907 44.16509090909094, 87.696 44.202, 87.68359325605898 44.21176852827539, 87.67 44.22, 87.527 44.334, 87.52305639503508 44.33816824069078, 87.522 44.339, 87.403 44.46, 87.38018047174992 44.48918266593521, 87.369 44.501, 87.35302208353329 44.5239140662507, 87.299 44.593, 87.26777223088929 44.64617160686418, 87.24 44.686, 87.21280634201582 44.739762174405485, 87.188 44.782, 87.17512729049596 44.8142540923528, 87.153 44.858, 87.12624889867844 44.93672466960346, 87.099 45.005, 87.09099585999249 45.04046932630782, 87.083 45.064, 87.06105328258799 45.173156041864985, 87.048 45.231, 87.04724902289225 45.24181407035174, 87.045 45.253, 87.033 45.447, 87.045 45.641, 87.04724902289225 45.6521859296483, 87.048 45.663, 87.06059779614323 45.718578512396604, 87.083 45.83, 87.09148725212465 45.85485552407935, 87.099 45.888), (87.365 45.581, 87.358 45.447, 87.376 45.238, 87.409 45.104, 87.481 44.923, 87.583 44.755, 87.714 44.604, 87.868 44.477, 88.04 44.38, 88.225 44.313, 88.401 44.279, 88.56 44.272, 88.707 44.285, 88.843 44.313, 89.06 44.396, 89.247 44.513, 89.383 44.635, 89.479 44.749, 89.591 44.935, 89.641 45.055, 89.678 45.181, 89.7 45.313, 89.708 45.447, 89.69 45.655, 89.657 45.789, 89.585 45.97, 89.483 46.138, 89.352 46.29, 89.197 46.416, 89.025 46.514, 88.841 46.581, 88.665 46.615, 88.505 46.622, 88.358 46.609, 88.223 46.58, 88.006 46.497, 87.819 46.38, 87.683 46.258, 87.587 46.144, 87.475 45.958, 87.425 45.839, 87.388 45.712, 87.365 45.581)), ((91.321 54.364, 91.3263846153845 54.370483516483375, 91.431 54.502, 91.45713290632511 54.52791513210575, 91.468 54.541, 91.49136144578306 54.56185843373487, 91.551 54.621, 91.59849584026617 54.657514143094794, 91.636 54.691, 91.68561479198773 54.72448998459173, 91.724 54.754, 91.75216236162359 54.769409594095926, 91.796 54.799, 91.8894112903227 54.844508064516184, 91.936 54.87, 91.95788066604992 54.87786493987047, 91.991 54.894, 92.11781081081098 54.935351351351414, 92.153 54.948, 92.16210688836101 54.94979572446555, 92.175 54.954, 92.366 54.99, 92.56 55.001, 92.56904672897194 55.00034034267913, 92.582 55.001, 92.64123076923086 54.995076923076915, 92.752 54.987, 92.7787226890756 54.98132773109244, 92.812 54.978, 92.88741315897019 54.95825664078463, 92.964 54.942, 93.0037942122186 54.927787781350496, 93.045 54.917, 93.09545871559632 54.8950504587156, 93.146 54.877, 93.1897222222222 54.854045833333345, 93.245 54.83, 93.31133333333338 54.79019999999998, 93.346 54.772, 93.363984962406 54.758609022556406, 93.39 54.743, 93.525 54.64, 93.53192647058866 54.63311764705841, 93.661 54.507, 93.66874222222222 54.49717333333333, 93.682 54.484, 93.73118972332026 54.41791304347814, 93.791 54.342, 93.80159814814813 54.32331851851855, 93.813 54.308, 93.86436252189144 54.21268301225918, 93.909 54.134, 93.9139273052082 54.120702212450155, 93.917 54.115, 93.992 53.911, 94.00733333333363 53.83433333333189, 94.038 53.683, 94.04747619047619 53.465047619047716, 94.048 53.454, 94.04796853146853 53.453723776223725, 94.048 53.453, 94.025 53.237, 94.0218854961832 53.2247726887192, 94.021 53.217, 94.00442857142865 53.156238095238365, 93.971 53.025, 93.9642208588957 53.00880981595091, 93.958 52.986, 93.90691388400698 52.87194727592255, 93.886 52.822, 93.8803343982961 52.81260702875406, 93.872 52.794, 93.776 52.639, 93.77456039441252 52.63724486442074, 93.772 52.633, 93.666 52.501, 93.64824999999999 52.48324999999999, 93.63 52.461, 93.59266666666672 52.42766666666671, 93.546 52.381, 93.505700499168 52.35001830282857, 93.462 52.311, 93.40666178087217 52.27387871015027, 93.373 52.248, 93.34575267509726 52.23302042801555, 93.301 52.203, 93.21444271844673 52.16083106796123, 93.162 52.132, 93.1366327272727 52.122923636363616, 93.106 52.108, 92.99402266288949 52.07189801699715, 92.944 52.054, 92.92975528826217 52.051177934467034, 92.923 52.049, 92.732 52.012, 92.538 52.001, 92.521067961165 52.00223462783172, 92.516 52.002, 92.48942629482092 52.004541832669304, 92.346 52.015, 92.31779555084745 52.02095868644068, 92.286 52.024, 92.21895148842336 52.041841234840135, 92.133 52.06, 92.08124242424243 52.07848484848484, 92.053 52.086, 92.01902816901408 52.10070422535211, 91.951 52.125, 91.89668433544297 52.15365901898737, 91.852 52.173, 91.79345833333338 52.20812499999997, 91.752 52.23, 91.73065384615384 52.24580769230769, 91.707 52.26, 91.573 52.362, 91.5708001632431 52.3641858250578, 91.567 52.367, 91.436 52.495, 91.42465244444445 52.50940266666666, 91.416 52.518, 91.37880000000004 52.56759999999994, 91.306 52.66, 91.29549999999996 52.67866666666672, 91.284 52.694, 91.21846575342495 52.815616438355626, 91.189 52.868, 91.18627401401672 52.87535687783436, 91.18 52.887, 91.106 53.092, 91.06 53.317, 91.049 53.548, 91.04903368492685 53.548295678802305, 91.049 53.549, 91.072 53.765, 91.07511450381678 53.77722731128067, 91.076 53.785, 91.0895722120659 53.83398720292539, 91.126 53.977, 91.13544302273068 53.99955216016858, 91.14 54.016, 91.17574516695953 54.09580316344452, 91.211 54.18, 91.22045644599305 54.19562369337982, 91.226 54.208, 91.321 54.364), (91.373 53.489, 91.386 53.33, 91.416 53.186, 91.461 53.055, 91.57 52.85, 91.71 52.678, 91.847 52.558, 91.972 52.477, 92.17 52.388, 92.295 52.354, 92.425 52.332, 92.558 52.326, 92.692 52.335, 92.897 52.379, 93.026 52.427, 93.197 52.521, 93.351 52.642, 93.485 52.792, 93.592 52.96, 93.668 53.143, 93.712 53.334, 93.724 53.513, 93.711 53.672, 93.681 53.816, 93.636 53.947, 93.527 54.152, 93.388 54.324, 93.25 54.444, 93.126 54.525, 92.927 54.614, 92.803 54.649, 92.673 54.67, 92.539 54.676, 92.405 54.668, 92.201 54.624, 92.072 54.575, 91.901 54.482, 91.746 54.36, 91.612 54.211, 91.505 54.042, 91.429 53.86, 91.385 53.668, 91.373 53.489)), ((-15.245 72.736, -15.327 72.66, -15.425 72.605, -15.532 72.572, -15.643 72.564, -15.754 72.581, -15.858 72.622, -15.95 72.685, -16.026 72.768, -16.082 72.865, -16.115 72.972, -16.123 73.083, -16.106 73.194, -16.065 73.298, -16.001 73.391, -15.919 73.467, -15.822 73.522, -15.715 73.555, -15.603 73.563, -15.493 73.546, -15.389 73.505, -15.296 73.442, -15.22 73.359, -15.165 73.262, -15.132 73.155, -15.124 73.044, -15.141 72.933, -15.182 72.829, -15.245 72.736)), ((188.73913429010761 10.807084059456676, 188.766 10.853, 188.8127812061712 10.912701729780386, 188.836 10.946, 188.85272532306846 10.96367803134451, 188.871 10.987, 188.989 11.108, 188.9900563950351 11.108831759309249, 188.994 11.113, 189.137 11.227, 189.15059325605904 11.235231471724637, 189.163 11.245, 189.22767556296898 11.281909090908995, 189.317 11.336, 189.33660271317834 11.344071705426368, 189.354 11.354, 189.4668000000001 11.397682352941214, 189.538 11.427, 189.5496195835678 11.429754642656153, 189.558 11.433, 189.77 11.482, 189.999 11.5, 190 11.499922077922077, 190.001 11.5, 190.23 11.482, 190.442 11.433, 190.4503804164322 11.429754642656157, 190.462 11.427, 190.53319999999982 11.397682352941242, 190.646 11.354, 190.6633972868217 11.34407170542636, 190.683 11.336, 190.77232443703102 11.281909090908995, 190.837 11.245, 190.84940674394093 11.23523147172467, 190.863 11.227, 191.006 11.113, 191.00994360496492 11.108831759309224, 191.011 11.108, 191.129 10.987, 191.14727467693157 10.96367803134447, 191.164 10.946, 191.1872187938289 10.912701729780267, 191.234 10.853, 191.2608657098924 10.80708405945662, 191.293 10.761, 191.32462453253567 10.69811443530267, 191.344 10.665, 191.35481929555894 10.638071975497743, 191.38 10.588, 191.40865703971116 10.504075812274468, 191.434 10.441, 191.44109090909092 10.409090909090839, 191.45 10.383, 191.4730222222221 10.265400000000522, 191.484 10.216, 191.48479549114333 10.205260869565098, 191.487 10.194, 191.5 10, 191.487 9.806, 191.48479549114333 9.794739130434891, 191.484 9.784, 191.4730222222221 9.734599999999435, 191.45 9.617, 191.44109090909095 9.590909090909205, 191.434 9.559, 191.40865703971116 9.495924187725551, 191.38 9.412, 191.35481929555894 9.361928024502257, 191.344 9.335, 191.32462453253555 9.301885564697143, 191.293 9.239, 191.26086570989233 9.19291594054326, 191.234 9.147, 191.1872187938288 9.08729827021961, 191.164 9.054, 191.14727467693163 9.036321968655596, 191.129 9.013, 191.011 8.892, 191.009943604965 8.891168240690833, 191.006 8.887, 190.863 8.773, 190.84940674394096 8.764768528275372, 190.837 8.755, 190.77232443703102 8.718090909091005, 190.683 8.664, 190.6633972868217 8.655928294573645, 190.646 8.646, 190.53319999999988 8.602317647058777, 190.462 8.573, 190.4503804164322 8.570245357343849, 190.442 8.567, 190.23 8.518, 190.001 8.5, 190 8.500077922077923, 189.999 8.5, 189.77 8.518, 189.558 8.567, 189.5496195835678 8.570245357343845, 189.538 8.573, 189.46680000000012 8.602317647058777, 189.354 8.646, 189.3366027131783 8.655928294573645, 189.317 8.664, 189.22767556296898 8.718090909091005, 189.163 8.755, 189.15059325605907 8.76476852827533, 189.137 8.773, 188.994 8.887, 188.99005639503508 8.891168240690774, 188.989 8.892, 188.871 9.013, 188.85272532306843 9.036321968655527, 188.836 9.054, 188.8127812061711 9.087298270219733, 188.766 9.147, 188.7391342901076 9.19291594054338, 188.707 9.239, 188.67537546746445 9.301885564697123, 188.656 9.335, 188.64518070444106 9.361928024502257, 188.62 9.412, 188.59134296028884 9.49592418772554, 188.566 9.559, 188.55890909090908 9.590909090909161, 188.55 9.617, 188.5269777777779 9.734599999999478, 188.516 9.784, 188.51520450885667 9.79473913043487, 188.513 9.806, 188.5 10, 188.513 10.194, 188.5152045088567 10.205260869565222, 188.516 10.216, 188.5269777777779 10.265400000000565, 188.55 10.383, 188.55890909090905 10.409090909090793, 188.566 10.441, 188.59134296028884 10.504075812274449, 188.62 10.588, 188.64518070444106 10.638071975497743, 188.656 10.665, 188.67537546746445 10.698114435302852, 188.707 10.761, 188.73913429010761 10.807084059456676), (188.832 10.134, 188.825 10, 188.843 9.792, 188.876 9.658, 188.948 9.477, 189.05 9.308, 189.181 9.157, 189.336 9.031, 189.508 8.933, 189.692 8.866, 189.868 8.832, 190.028 8.825, 190.175 8.838, 190.31 8.866, 190.527 8.95, 190.714 9.067, 190.85 9.188, 190.946 9.302, 191.058 9.489, 191.108 9.608, 191.145 9.734, 191.168 9.866, 191.175 10, 191.157 10.208, 191.124 10.342, 191.052 10.523, 190.95 10.692, 190.819 10.843, 190.664 10.969, 190.492 11.067, 190.308 11.134, 190.132 11.168, 189.972 11.175, 189.825 11.162, 189.69 11.134, 189.473 11.05, 189.286 10.933, 189.15 10.812, 189.054 10.698, 188.942 10.511, 188.892 10.392, 188.855 10.266, 188.832 10.134)), ((139.766 15.853, 139.8127812061712 15.912701729780386, 139.836 15.946, 139.85272532306846 15.96367803134451, 139.871 15.987, 139.989 16.108, 139.99005639503505 16.108831759309215, 139.994 16.113, 140.137 16.227, 140.150593256059 16.235231471724624, 140.163 16.245, 140.22767556296904 16.28190909090903, 140.317 16.336, 140.3366027131783 16.344071705426362, 140.354 16.354, 140.46680000000012 16.397682352941224, 140.538 16.427, 140.54961958356776 16.42975464265615, 140.558 16.433, 140.77 16.482, 140.999 16.5, 141 16.49992207792208, 141.001 16.5, 141.23 16.482, 141.442 16.433, 141.4503804164322 16.429754642656157, 141.462 16.427, 141.5331999999998 16.397682352941253, 141.646 16.354, 141.6633972868217 16.344071705426348, 141.683 16.336, 141.77232443703096 16.28190909090903, 141.837 16.245, 141.84940674394093 16.23523147172466, 141.863 16.227, 142.006 16.113, 142.00994360496492 16.10883175930923, 142.011 16.108, 142.129 15.987, 142.14727467693157 15.96367803134447, 142.164 15.946, 142.1872187938289 15.912701729780267, 142.234 15.853, 142.2608657098924 15.80708405945662, 142.293 15.761, 142.32462453253567 15.69811443530267, 142.344 15.665, 142.35481929555894 15.638071975497743, 142.38 15.588, 142.40865703971116 15.504075812274468, 142.434 15.441, 142.44109090909092 15.409090909090839, 142.45 15.383, 142.4730222222221 15.265400000000522, 142.484 15.216, 142.48479549114333 15.205260869565098, 142.487 15.194, 142.5 15, 142.487 14.806, 142.48479549114333 14.794739130434891, 142.484 14.784, 142.4730222222221 14.734599999999435, 142.45 14.617, 142.44109090909095 14.590909090909205, 142.434 14.559, 142.40865703971116 14.495924187725551, 142.38 14.412, 142.35481929555894 14.361928024502257, 142.344 14.335, 142.32462453253555 14.301885564697143, 142.293 14.239, 142.26086570989233 14.19291594054326, 142.234 14.147, 142.1872187938288 14.08729827021961, 142.164 14.054, 142.14727467693163 14.036321968655596, 142.129 14.013, 142.011 13.892, 142.009943604965 13.891168240690833, 142.006 13.887, 141.863 13.773, 141.84940674394096 13.764768528275372, 141.837 13.755, 141.77232443703102 13.718090909091005, 141.683 13.664, 141.6633972868217 13.655928294573645, 141.646 13.646, 141.53319999999988 13.602317647058777, 141.462 13.573, 141.4503804164322 13.570245357343849, 141.442 13.567, 141.23 13.518, 141.001 13.5, 141 13.500077922077923, 140.999 13.5, 140.77 13.518, 140.558 13.567, 140.5496195835678 13.570245357343845, 140.538 13.573, 140.46680000000012 13.602317647058777, 140.354 13.646, 140.33660271317828 13.655928294573657, 140.317 13.664, 140.22767556296898 13.718090909091005, 140.163 13.755, 140.15059325605907 13.76476852827533, 140.137 13.773, 139.994 13.887, 139.99005639503508 13.891168240690774, 139.989 13.892, 139.871 14.013, 139.85272532306843 14.036321968655527, 139.836 14.054, 139.8127812061711 14.087298270219733, 139.766 14.147, 139.7391342901076 14.19291594054338, 139.707 14.239, 139.67537546746445 14.301885564697123, 139.656 14.335, 139.64518070444106 14.361928024502257, 139.62 14.412, 139.59134296028884 14.49592418772554, 139.566 14.559, 139.55890909090908 14.590909090909161, 139.55 14.617, 139.5269777777779 14.734599999999478, 139.516 14.784, 139.51520450885667 14.79473913043487, 139.513 14.806, 139.5 15, 139.513 15.194, 139.5152045088567 15.205260869565222, 139.516 15.216, 139.5269777777779 15.265400000000565, 139.55 15.383, 139.55890909090905 15.409090909090793, 139.566 15.441, 139.59134296028884 15.504075812274449, 139.62 15.588, 139.64518070444106 15.638071975497743, 139.656 15.665, 139.67537546746445 15.698114435302852, 139.707 15.761, 139.73913429010761 15.807084059456676, 139.766 15.853), (139.825 15, 139.843 14.792, 139.876 14.658, 139.948 14.477, 140.05 14.308, 140.181 14.157, 140.336 14.031, 140.508 13.933, 140.692 13.866, 140.868 13.832, 141.028 13.825, 141.175 13.838, 141.31 13.866, 141.527 13.95, 141.714 14.067, 141.85 14.188, 141.946 14.302, 142.058 14.489, 142.108 14.608, 142.145 14.734, 142.168 14.866, 142.175 15, 142.157 15.208, 142.124 15.342, 142.052 15.523, 141.95 15.692, 141.819 15.843, 141.664 15.969, 141.492 16.067, 141.308 16.134, 141.132 16.168, 140.972 16.175, 140.825 16.162, 140.69 16.134, 140.473 16.05, 140.286 15.933, 140.15 15.812, 140.054 15.698, 139.942 15.511, 139.892 15.392, 139.855 15.266, 139.832 15.134, 139.825 15)), ((188.73913429010764 33.30708405945668, 188.73913429010764 33.30708405945669, 188.766 33.353, 188.8127812061712 33.4127017297804, 188.836 33.446, 188.85272532306843 33.463678031344465, 188.871 33.487, 188.989 33.608, 188.99005639503505 33.608831759309204, 188.994 33.613, 189.137 33.727, 189.150593256059 33.7352314717246, 189.163 33.745, 189.22767556296898 33.78190909090898, 189.317 33.836, 189.3366027131783 33.844071705426366, 189.354 33.854, 189.4668000000002 33.89768235294126, 189.538 33.927, 189.54961958356776 33.92975464265615, 189.558 33.933, 189.77 33.982, 189.999 34, 190 33.99992207792208, 190.001 34, 190.23 33.982, 190.442 33.933, 190.4503804164322 33.92975464265616, 190.462 33.927, 190.53319999999968 33.89768235294131, 190.646 33.854, 190.6633972868217 33.844071705426366, 190.683 33.836, 190.77232443703122 33.781909090908876, 190.77232443703124 33.78190909090886, 190.837 33.745, 190.84940674394093 33.73523147172467, 190.863 33.727, 191.006 33.613, 191.00994360496495 33.60883175930921, 191.011 33.608, 191.129 33.487, 191.14727467693157 33.46367803134446, 191.164 33.446, 191.1872187938289 33.412701729780274, 191.234 33.353, 191.26086570989239 33.30708405945666, 191.293 33.261, 191.32462453253558 33.198114435302834, 191.344 33.165, 191.35481929555894 33.13807197549775, 191.38 33.088, 191.40865703971116 33.00407581227447, 191.434 32.941, 191.44109090909092 32.90909090909084, 191.45 32.883, 191.4730222222221 32.76540000000055, 191.484 32.716, 191.48479549114333 32.705260869565095, 191.487 32.694, 191.5 32.5, 191.487 32.306, 191.48479549114333 32.29473913043489, 191.484 32.284, 191.47302222222214 32.234599999999574, 191.45 32.117, 191.44109090909095 32.0909090909092, 191.434 32.059, 191.4086570397112 31.995924187725613, 191.38 31.912, 191.35481929555894 31.86192802450225, 191.344 31.835, 191.32462453253555 31.801885564697155, 191.293 31.739, 191.26086570989233 31.69291594054326, 191.234 31.647, 191.18721879382883 31.58729827021963, 191.164 31.554, 191.14727467693154 31.536321968655503, 191.14727467693152 31.53632196865548, 191.129 31.513, 191.011 31.392, 191.009943604965 31.391168240690835, 191.006 31.387, 190.863 31.273, 190.849406743941 31.264768528275376, 190.837 31.255, 190.77232443703096 31.21809090909097, 190.683 31.164, 190.6633972868217 31.155928294573638, 190.646 31.146, 190.53319999999974 31.102317647058722, 190.462 31.073, 190.45038041643224 31.07024535734385, 190.442 31.067, 190.23 31.018, 190.001 31, 190 31.00007792207792, 189.999 31, 189.77 31.018, 189.558 31.067, 189.5496195835678 31.070245357343847, 189.538 31.073, 189.4668000000002 31.102317647058744, 189.354 31.146, 189.3366027131783 31.155928294573645, 189.3366027131783 31.15592829457365, 189.317 31.164, 189.22767556296904 31.21809090909097, 189.163 31.255, 189.15059325605907 31.26476852827534, 189.137 31.273, 188.994 31.387, 188.99005639503508 31.39116824069077, 188.989 31.392, 188.871 31.513, 188.85272532306846 31.53632196865551, 188.836 31.554, 188.81278120617108 31.587298270219758, 188.766 31.647, 188.7391342901076 31.692915940543365, 188.707 31.739, 188.67537546746442 31.80188556469716, 188.656 31.835, 188.64518070444106 31.86192802450223, 188.62 31.912, 188.59134296028884 31.995924187725528, 188.566 32.059, 188.55890909090908 32.09090909090916, 188.55 32.117, 188.5269777777779 32.23459999999945, 188.516 32.284, 188.51520450885667 32.29473913043488, 188.513 32.306, 188.5 32.5, 188.513 32.694, 188.5152045088567 32.70526086956522, 188.516 32.716, 188.52697777777786 32.765400000000426, 188.55 32.883, 188.55890909090905 32.9090909090908, 188.566 32.941, 188.59134296028884 33.00407581227448, 188.62 33.088, 188.64518070444106 33.13807197549775, 188.656 33.165, 188.6753754674645 33.19811443530297, 188.707 33.261, 188.73913429010761 33.30708405945666, 188.73913429010764 33.30708405945668), (191.0109016360057 31.392180843119935, 191.0109016360057 31.39218084311993, 191.011 31.392, 191.0109016360057 31.392180843119935), (190.83628215964464 31.25682086334038, 190.83628215964464 31.256820863340376, 190.837 31.255, 190.83628215964464 31.25682086334038), (188.87248107917338 31.515440884671182, 188.87248107917338 31.51544088467119, 188.871 31.513, 188.87248107917338 31.515440884671182), (188.825 32.5, 188.843 32.292, 188.876 32.158, 188.948 31.977, 189.05 31.808, 189.181 31.657, 189.336 31.531, 189.508 31.433, 189.692 31.366, 189.868 31.332, 190.028 31.325, 190.175 31.338, 190.31 31.366, 190.527 31.45, 190.714 31.567, 190.85 31.688, 190.946 31.802, 191.058 31.989, 191.108 32.108, 191.145 32.234, 191.168 32.366, 191.175 32.5, 191.157 32.708, 191.124 32.842, 191.052 33.023, 190.95 33.192, 190.819 33.343, 190.664 33.469, 190.492 33.567, 190.308 33.634, 190.132 33.668, 189.972 33.675, 189.825 33.662, 189.69 33.634, 189.473 33.55, 189.286 33.433, 189.15 33.312, 189.054 33.198, 188.942 33.011, 188.892 32.892, 188.855 32.766, 188.832 32.634, 188.825 32.5)), ((139.73913429010761 50.80708405945666, 139.73913429010764 50.80708405945668, 139.73913429010764 50.80708405945669, 139.766 50.853, 139.8127812061712 50.9127017297804, 139.836 50.946, 139.85272532306843 50.963678031344465, 139.871 50.987, 139.989 51.108, 139.99005639503505 51.108831759309204, 139.994 51.113, 140.137 51.227, 140.150593256059 51.2352314717246, 140.163 51.245, 140.22767556296898 51.28190909090898, 140.317 51.336, 140.3366027131783 51.344071705426366, 140.354 51.354, 140.4668000000002 51.39768235294126, 140.538 51.427, 140.54961958356776 51.42975464265615, 140.558 51.433, 140.77 51.482, 140.999 51.5, 141 51.49992207792208, 141.001 51.5, 141.23 51.482, 141.442 51.433, 141.4503804164322 51.42975464265616, 141.462 51.427, 141.53319999999968 51.39768235294131, 141.646 51.354, 141.6633972868217 51.344071705426366, 141.683 51.336, 141.77232443703122 51.281909090908876, 141.77232443703124 51.28190909090886, 141.837 51.245, 141.84940674394093 51.23523147172467, 141.863 51.227, 142.006 51.113, 142.00994360496495 51.10883175930921, 142.011 51.108, 142.129 50.987, 142.14727467693157 50.96367803134446, 142.164 50.946, 142.1872187938289 50.912701729780274, 142.234 50.853, 142.26086570989239 50.80708405945666, 142.293 50.761, 142.32462453253558 50.698114435302834, 142.344 50.665, 142.35481929555894 50.63807197549775, 142.38 50.588, 142.40865703971116 50.50407581227447, 142.434 50.441, 142.44109090909092 50.40909090909084, 142.45 50.383, 142.4730222222221 50.26540000000055, 142.484 50.216, 142.48479549114333 50.205260869565095, 142.487 50.194, 142.5 50, 142.487 49.806, 142.48479549114333 49.79473913043489, 142.484 49.784, 142.47302222222214 49.734599999999574, 142.45 49.617, 142.44109090909095 49.5909090909092, 142.434 49.559, 142.40865703971116 49.49592418772552, 142.38 49.412, 142.35481929555894 49.36192802450225, 142.344 49.335, 142.32462453253555 49.30188556469715, 142.293 49.239, 142.26086570989233 49.19291594054325, 142.234 49.147, 142.1872187938288 49.0872982702196, 142.164 49.054, 142.14727467693157 49.036321968655535, 142.129 49.013, 142.011 48.892, 142.00994360496503 48.89116824069085, 142.006 48.887, 141.863 48.773, 141.849406743941 48.764768528275376, 141.837 48.755, 141.77232443703096 48.718090909090975, 141.683 48.664, 141.6633972868217 48.655928294573634, 141.646 48.646, 141.53319999999965 48.60231764705868, 141.462 48.573, 141.45038041643224 48.57024535734385, 141.442 48.567, 141.23 48.518, 141.001 48.5, 141 48.50007792207792, 140.999 48.5, 140.77 48.518, 140.558 48.567, 140.54961958356776 48.57024535734385, 140.538 48.573, 140.46679999999995 48.60231764705885, 140.354 48.646, 140.3366027131783 48.655928294573634, 140.317 48.664, 140.22767556296904 48.718090909090975, 140.163 48.755, 140.15059325605907 48.76476852827533, 140.137 48.773, 139.994 48.887, 139.99005639503505 48.89116824069079, 139.989 48.892, 139.871 49.013, 139.85272532306843 49.03632196865554, 139.836 49.054, 139.8127812061711 49.087298270219726, 139.766 49.147, 139.73913429010761 49.19291594054334, 139.707 49.239, 139.67537546746442 49.301885564697166, 139.656 49.335, 139.64518070444106 49.36192802450224, 139.62 49.412, 139.59134296028884 49.49592418772553, 139.566 49.559, 139.55890909090908 49.59090909090916, 139.55 49.617, 139.5269777777779 49.73459999999945, 139.516 49.784, 139.51520450885667 49.79473913043488, 139.513 49.806, 139.5 50, 139.513 50.194, 139.5152045088567 50.20526086956522, 139.516 50.216, 139.52697777777786 50.265400000000426, 139.55 50.383, 139.55890909090905 50.4090909090908, 139.566 50.441, 139.59134296028884 50.50407581227448, 139.62 50.588, 139.64518070444106 50.63807197549775, 139.656 50.665, 139.6753754674645 50.69811443530297, 139.707 50.761, 139.73913429010761 50.80708405945666), (142.0109016360057 48.89218084311994, 142.0109016360057 48.89218084311993, 142.011 48.892, 142.0109016360057 48.89218084311994), (142.0056086567407 48.887755091801594, 142.0056086567407 48.88775509180159, 142.006 48.887, 142.0056086567407 48.887755091801594), (141.83628215964464 48.75682086334039, 141.83628215964464 48.75682086334038, 141.837 48.755, 141.83628215964464 48.75682086334039), (139.87248107917338 49.015440884671186, 139.87248107917338 49.01544088467119, 139.871 49.013, 139.87248107917338 49.015440884671186), (139.832 50.134, 139.825 50, 139.843 49.792, 139.876 49.658, 139.948 49.477, 140.05 49.308, 140.181 49.157, 140.336 49.031, 140.508 48.933, 140.692 48.866, 140.868 48.832, 141.028 48.825, 141.175 48.838, 141.31 48.866, 141.527 48.95, 141.714 49.067, 141.85 49.188, 141.946 49.302, 142.058 49.489, 142.108 49.608, 142.145 49.734, 142.168 49.866, 142.175 50, 142.157 50.208, 142.124 50.342, 142.052 50.523, 141.95 50.692, 141.819 50.843, 141.664 50.969, 141.492 51.067, 141.308 51.134, 141.132 51.168, 140.972 51.175, 140.825 51.162, 140.69 51.134, 140.473 51.05, 140.286 50.933, 140.15 50.812, 140.054 50.698, 139.942 50.511, 139.892 50.392, 139.855 50.266, 139.832 50.134)), ((114.35728185328182 53.49758301158296, 114.368 53.515, 114.39340722166504 53.544931795386226, 114.44 53.606, 114.47742133620693 53.643907327586255, 114.514 53.687, 114.56296514161217 53.730562091503245, 114.594 53.762, 114.6197364247958 53.78106895723213, 114.659 53.816, 114.73762790697677 53.86841860465118, 114.787 53.905, 114.81233707865167 53.91822471910111, 114.839 53.936, 114.96500644567227 53.997910681399674, 114.992 54.012, 114.9977010890704 54.0139745235317, 115.012 54.021, 115.197 54.083, 115.387 54.12, 115.3965142160845 54.12064419171406, 115.409 54.123, 115.46154117647052 54.125047058823526, 115.579 54.133, 115.60896282527884 54.130790759426446, 115.64 54.132, 115.7134714459295 54.123085054678015, 115.796 54.117, 115.83950845795533 54.10779186075019, 115.879 54.103, 115.93145813353013 54.0883316119513, 115.985 54.077, 116.03114965986391 54.06045578231293, 116.09 54.044, 116.16186516853932 54.01359550561798, 116.197 54.001, 116.21494879518073 53.99113704819277, 116.246 53.978, 116.393 53.894, 116.39640954979535 53.89142346521147, 116.399 53.89, 116.546 53.782, 116.56261547763002 53.76582466747278, 116.569 53.761, 116.6112178988328 53.71850972762635, 116.697 53.635, 116.70629868228404 53.622815519765744, 116.724 53.605, 116.8111168831168 53.48546753246765, 116.842 53.445, 116.84592128650023 53.43771265340666, 116.853 53.428, 116.955 53.236, 117.031 53.019, 117.073 52.791, 117.07311320754717 52.786490566037756, 117.08 52.573, 117.07874708224632 52.56207455718792, 117.079 52.552, 117.06965271170318 52.48277164605174, 117.055 52.355, 117.04968310727496 52.334871763255165, 117.047 52.315, 117.02016387959867 52.22312040133781, 116.999 52.143, 116.99207038327528 52.126935888501784, 116.988 52.113, 116.915 51.946, 116.91174556213018 51.940728348574495, 116.911 51.939, 116.825 51.794, 116.80489722294314 51.76765169997401, 116.794 51.75, 116.76859277833506 51.72006820461391, 116.722 51.659, 116.68455941399887 51.62106999457402, 116.648 51.578, 116.59942105263164 51.53481871345035, 116.569 51.504, 116.543234375 51.484874999999995, 116.504 51.45, 116.42600926640932 51.39786254826259, 116.375 51.36, 116.34932787789626 51.34660040456048, 116.323 51.329, 116.21700232378 51.27753292021687, 116.17 51.253, 116.15798567449262 51.248877437325895, 116.15798567449261 51.24887743732589, 116.15 51.245, 115.966 51.183, 115.775 51.145, 115.75798829039815 51.143936768149885, 115.753 51.143, 115.72644827586198 51.141965517241374, 115.583 51.133, 115.55175968992249 51.13515946843854, 115.522 51.134, 115.46039660265875 51.14147488921714, 115.366 51.148, 115.31141750429036 51.15955185094384, 115.283 51.163, 115.2459770992366 51.17340167211924, 115.177 51.188, 115.11887657018032 51.209110868377905, 115.073 51.222, 115.00996969696962 51.24866666666669, 114.965 51.265, 114.9433204930663 51.276864406779644, 114.917 51.288, 114.77 51.371, 114.7664907063197 51.373636926889716, 114.764 51.375, 114.617 51.484, 114.60759793814432 51.49303092783505, 114.593 51.504, 114.54122028985495 51.55678840579722, 114.465 51.63, 114.44955119322559 51.65024326404922, 114.439 51.661, 114.37905181347143 51.742621761658114, 114.32 51.82, 114.3140222102571 51.83116206757304, 114.309 51.838, 114.2337090909094 51.981127272726674, 114.207 52.031, 114.131 52.249, 114.089 52.475, 114.082 52.693, 114.08323414230557 52.703712355212424, 114.083 52.713, 114.09188714425906 52.77882041216874, 114.107 52.91, 114.11224607799193 52.92960376512771, 114.115 52.95, 114.14727350427347 53.0604957264956, 114.164 53.123, 114.16880310880829 53.134207253886004, 114.174 53.152, 114.248 53.32, 114.24941176470587 53.32229411764704, 114.251 53.326, 114.337 53.471, 114.35728185328182 53.49758301158296), (114.419 52.461, 114.453 52.305, 114.503 52.166, 114.565 52.043, 114.701 51.854, 114.862 51.703, 115.015 51.603, 115.149 51.54, 115.358 51.479, 115.486 51.461, 115.618 51.458, 115.751 51.47, 115.883 51.497, 116.079 51.568, 116.2 51.634, 116.357 51.75, 116.493 51.892, 116.606 52.058, 116.689 52.239, 116.739 52.431, 116.756 52.626, 116.744 52.805, 116.71 52.961, 116.66 53.1, 116.597 53.223, 116.461 53.412, 116.3 53.563, 116.148 53.663, 116.013 53.726, 115.804 53.787, 115.676 53.804, 115.544 53.808, 115.411 53.796, 115.28 53.769, 115.083 53.697, 114.962 53.632, 114.806 53.516, 114.669 53.374, 114.556 53.208, 114.474 53.027, 114.423 52.835, 114.406 52.639, 114.419 52.461)), ((188.73913429010764 55.80708405945668, 188.73913429010764 55.80708405945669, 188.766 55.853, 188.8127812061712 55.9127017297804, 188.836 55.946, 188.85272532306843 55.963678031344465, 188.871 55.987, 188.989 56.108, 188.99005639503505 56.108831759309204, 188.994 56.113, 189.137 56.227, 189.150593256059 56.2352314717246, 189.163 56.245, 189.22767556296898 56.28190909090898, 189.317 56.336, 189.3366027131783 56.344071705426366, 189.354 56.354, 189.4668000000002 56.39768235294126, 189.538 56.427, 189.54961958356776 56.42975464265615, 189.558 56.433, 189.77 56.482, 189.999 56.5, 190 56.49992207792208, 190.001 56.5, 190.23 56.482, 190.442 56.433, 190.4503804164322 56.42975464265616, 190.462 56.427, 190.53319999999968 56.39768235294131, 190.646 56.354, 190.6633972868217 56.344071705426366, 190.683 56.336, 190.77232443703122 56.281909090908876, 190.77232443703124 56.28190909090886, 190.837 56.245, 190.84940674394093 56.23523147172467, 190.863 56.227, 191.006 56.113, 191.00994360496495 56.10883175930921, 191.011 56.108, 191.129 55.987, 191.14727467693157 55.96367803134446, 191.164 55.946, 191.1872187938289 55.912701729780274, 191.234 55.853, 191.26086570989239 55.80708405945666, 191.293 55.761, 191.32462453253558 55.698114435302834, 191.344 55.665, 191.35481929555894 55.63807197549775, 191.38 55.588, 191.40865703971116 55.50407581227447, 191.434 55.441, 191.44109090909092 55.40909090909084, 191.45 55.383, 191.4730222222221 55.26540000000055, 191.484 55.216, 191.48479549114333 55.205260869565095, 191.487 55.194, 191.5 55, 191.487 54.806, 191.48479549114333 54.79473913043489, 191.484 54.784, 191.47302222222214 54.734599999999574, 191.45 54.617, 191.44109090909095 54.5909090909092, 191.434 54.559, 191.40865703971116 54.49592418772552, 191.38 54.412, 191.35481929555894 54.36192802450225, 191.344 54.335, 191.32462453253555 54.30188556469715, 191.293 54.239, 191.26086570989233 54.19291594054325, 191.234 54.147, 191.1872187938288 54.0872982702196, 191.164 54.054, 191.14727467693157 54.036321968655535, 191.129 54.013, 191.011 53.892, 191.00994360496503 53.89116824069085, 191.006 53.887, 190.863 53.773, 190.849406743941 53.764768528275376, 190.837 53.755, 190.77232443703096 53.718090909090975, 190.683 53.664, 190.6633972868217 53.655928294573634, 190.646 53.646, 190.53319999999965 53.60231764705868, 190.462 53.573, 190.45038041643224 53.57024535734385, 190.442 53.567, 190.23 53.518, 190.001 53.5, 190 53.50007792207792, 189.999 53.5, 189.77 53.518, 189.558 53.567, 189.54961958356776 53.57024535734385, 189.538 53.573, 189.46679999999995 53.60231764705885, 189.354 53.646, 189.3366027131783 53.655928294573634, 189.317 53.664, 189.22767556296904 53.718090909090975, 189.163 53.755, 189.15059325605907 53.76476852827533, 189.137 53.773, 188.994 53.887, 188.99005639503505 53.89116824069079, 188.989 53.892, 188.871 54.013, 188.85272532306843 54.03632196865554, 188.836 54.054, 188.8127812061711 54.087298270219726, 188.766 54.147, 188.73913429010761 54.19291594054334, 188.707 54.239, 188.67537546746442 54.301885564697166, 188.656 54.335, 188.64518070444106 54.36192802450224, 188.62 54.412, 188.59134296028884 54.49592418772553, 188.566 54.559, 188.55890909090908 54.59090909090916, 188.55 54.617, 188.5269777777779 54.73459999999945, 188.516 54.784, 188.51520450885667 54.79473913043488, 188.513 54.806, 188.5 55, 188.513 55.194, 188.5152045088567 55.20526086956522, 188.516 55.216, 188.52697777777786 55.265400000000426, 188.55 55.383, 188.55890909090905 55.4090909090908, 188.566 55.441, 188.59134296028884 55.50407581227448, 188.62 55.588, 188.64518070444106 55.63807197549775, 188.656 55.665, 188.6753754674645 55.69811443530297, 188.707 55.761, 188.73913429010761 55.80708405945666, 188.73913429010764 55.80708405945668), (191.0109016360057 53.89218084311994, 191.0109016360057 53.89218084311993, 191.011 53.892, 191.0109016360057 53.89218084311994), (191.0056086567407 53.887755091801594, 191.0056086567407 53.88775509180159, 191.006 53.887, 191.0056086567407 53.887755091801594), (190.83628215964464 53.75682086334039, 190.83628215964464 53.75682086334038, 190.837 53.755, 190.83628215964464 53.75682086334039), (188.87248107917338 54.015440884671186, 188.87248107917338 54.01544088467119, 188.871 54.013, 188.87248107917338 54.015440884671186), (188.825 55, 188.843 54.792, 188.876 54.658, 188.948 54.477, 189.05 54.308, 189.181 54.157, 189.336 54.031, 189.508 53.933, 189.692 53.866, 189.868 53.832, 190.028 53.825, 190.175 53.838, 190.31 53.866, 190.527 53.95, 190.714 54.067, 190.85 54.188, 190.946 54.302, 191.058 54.489, 191.108 54.608, 191.145 54.734, 191.168 54.866, 191.175 55, 191.157 55.208, 191.124 55.342, 191.052 55.523, 190.95 55.692, 190.819 55.843, 190.664 55.969, 190.492 56.067, 190.308 56.134, 190.132 56.168, 189.972 56.175, 189.825 56.162, 189.69 56.134, 189.473 56.05, 189.286 55.933, 189.15 55.812, 189.054 55.698, 188.942 55.511, 188.892 55.392, 188.855 55.266, 188.832 55.134, 188.825 55)))