MULTIPOLYGON (((-101.736 -157.058, -101.689 -157.16, -101.666 -157.269, -101.667 -157.381, -101.694 -157.49, -101.744 -157.59, -101.815 -157.677, -101.904 -157.745, -102.005 -157.792, -102.115 -157.815, -102.227 -157.814, -102.336 -157.787, -102.436 -157.737, -102.522 -157.666, -102.591 -157.577, -102.638 -157.476, -102.661 -157.366, -102.659 -157.254, -102.633 -157.146, -102.583 -157.046, -102.512 -156.959, -102.423 -156.891, -102.321 -156.843, -102.212 -156.82, -102.1 -156.822, -101.991 -156.848, -101.891 -156.898, -101.805 -156.97, -101.736 -157.058)), ((-110.417 -91.192, -110.574 -91.278, -110.71 -91.353, -110.794 -91.399, -110.822 -91.415, -109.38 -87.748, -109.365 -87.777, -109.323 -87.862, -109.255 -88, -109.178 -88.158, -109.096 -88.323, -109.005 -88.509, -108.896 -88.73, -108.782 -88.96, -108.266 -90.008, -109.451 -90.66, -109.74 -90.819, -110.015 -90.971, -110.242 -91.096, -110.417 -91.192)), ((-175.865 -63.838, -175.815 -63.938, -175.789 -64.047, -175.787 -64.159, -175.811 -64.268, -175.858 -64.37, -175.927 -64.458, -176.014 -64.529, -176.114 -64.579, -176.223 -64.605, -176.335 -64.607, -176.444 -64.583, -176.546 -64.536, -176.634 -64.467, -176.705 -64.38, -176.755 -64.28, -176.781 -64.171, -176.782 -64.059, -176.759 -63.95, -176.711 -63.848, -176.643 -63.76, -176.556 -63.689, -176.456 -63.639, -176.347 -63.613, -176.235 -63.612, -176.125 -63.635, -176.024 -63.682, -175.935 -63.751, -175.865 -63.838)), ((-64.62294047380539 2.933224783996413, -73.91397511044973 -0.684710006979873, -74.19 -1.331, -75.396 -4.152, -75.359 -1.275, -75.3461646087477 -1.242405507621614, -141.118 -26.854, -142.013 -27.131, -142.938 -27.28, -143.875 -27.296, -144.805 -27.18, -145.709 -26.934, -146.569 -26.563, -147.369 -26.074, -148.758 -25.224, -150.253 -24.579, -151.824 -24.152, -153.44 -23.95, -155.068 -23.978, -156.675 -24.236, -158.23 -24.718, -159.702 -25.415, -161.061 -26.312, -162.279 -27.392, -163.333 -28.633, -164.201 -30.011, -164.866 -31.497, -165.315 -33.062, -165.573 -33.963, -165.956 -34.818, -166.456 -35.611, -167.062 -36.325, -167.763 -36.947, -168.545 -37.463, -169.392 -37.864, -186.347 -44.466, -188.655 -45.181, -188.727 -45.208, -191.041 -45.56, -191.191 -45.583, -193.457 -45.598, -193.684 -45.594, -196.152 -45.24, -198.541 -44.529, -200.801 -43.477, -200.796 -43.468, -202.452 -42.413, -202.876 -42.097, -204.306 -40.864, -204.734 -40.436, -205.922 -39.067, -206.329 -38.522, -207.266 -37.059, -207.626 -36.395, -208.312 -34.881, -208.507 -34.363, -208.608 -34.104, -208.685 -33.838, -208.847 -33.308, -208.99 -32.773, -209.116 -32.233, -209.225 -31.69, -209.316 -31.143, -209.389 -30.594, -209.444 -30.042, -209.48 -29.489, -209.502 -29.213, -209.499 -28.936, -209.5 -28.381, -209.483 -27.828, -209.447 -27.275, -209.394 -26.723, -209.323 -26.174, -209.234 -25.627, -209.127 -25.083, -209.002 -24.543, -208.943 -24.272, -208.86 -24.007, -208.7 -23.477, -208.523 -22.952, -208.33 -22.432, -208.119 -21.92, -207.892 -21.415, -207.648 -20.917, -207.388 -20.427, -207.113 -19.947, -206.978 -19.704, -206.822 -19.475, -206.515 -19.013, -206.194 -18.562, -205.858 -18.121, -205.508 -17.691, -205.145 -17.273, -204.767 -16.867, -204.377 -16.474, -203.974 -16.093, -203.775 -15.901, -203.559 -15.726, -203.132 -15.373, -202.694 -15.034, -202.245 -14.709, -201.786 -14.399, -201.317 -14.104, -200.596 -13.691, -200.104 -13.435, -199.604 -13.196, -183.92730790576712 -5.989963477630293, -183.917 -5.978, -183.873 -5.965, -183.825 -5.963, -183.717 -5.995, -183.6 -6.073, -183.528 -6.14, -183.441 -6.238, -183.34 -6.378, -183.242 -6.546, -183.155 -6.729, -181.073 -11.64, -169.841 -6.481, -171.219 -6.11, -127.253 11.586, -124.513 20.21, -124.5 20.251, -124.487 20.291, -124.474 20.332, -124.461 20.373, -125.838 19.818, -130.028 18.132, -127.84 19.782, -110.977 27.521, -110.929 27.523, -110.821 27.491, -110.704 27.414, -110.632 27.347, -110.545 27.249, -110.444 27.109, -110.345 26.941, -110.259 26.758, -109.874 25.85, -110.196 25.591, -112.136 19.483, -92.9345063416932 27.211965091852413, -174.021 73.283, -176.005 74.602, -177.785 76.185, -179.326 78.002, -180.598 80.016, -181.576 82.189, -182.241 84.477, -182.579 86.835, -182.584 89.217, -182.256 91.577, -181.602 93.868, -180.633 96.044, -179.37 98.064, -177.837 99.888, -177.78884689307196 99.93121014840524, -191.796 108.685, -193.748 110.108, -193.813 110.149, -195.479 111.794, -195.587 111.9, -196.954 113.708, -197.086 113.892, -198.278 116.081, -199.137 118.422, -199.644 120.863, -199.634 120.864, -199.779 122.822, -199.779 123.351, -199.646 125.235, -199.559 125.833, -199.171 127.604, -198.978 128.256, -198.366 129.882, -198.049 130.567, -197.245 132.022, -196.946 132.489, -196.8 132.724, -196.632 132.945, -196.304 133.392, -195.961 133.827, -195.604 134.25, -195.233 134.662, -194.849 135.062, -194.452 135.449, -194.043 135.822, -193.622 136.183, -193.413 136.365, -193.189 136.529, -192.746 136.861, -192.291 137.178, -191.827 137.48, -191.353 137.767, -190.87 138.039, -190.378 138.294, -189.878 138.534, -189.371 138.757, -189.119 138.871, -188.857 138.963, -188.336 139.152, -187.809 139.324, -187.277 139.479, -186.74 139.617, -186.2 139.737, -185.655 139.839, -185.107 139.924, -184.557 139.99, -184.282 140.027, -184.005 140.039, -183.452 140.07, -182.898 140.082, -182.344 140.077, -181.79 140.053, -181.238 140.011, -180.687 139.952, -180.138 139.874, -179.592 139.778, -179.318 139.734, -179.05 139.665, -178.511 139.534, -177.977 139.386, -177.449 139.22, -176.925 139.038, -176.409 138.838, -175.646 138.507, -175.147 138.266, -174.657 138.008, -159.5063974058838 129.7500146628834, -159.492 129.749, -159.455 129.722, -159.425 129.684, -159.386 129.579, -159.378 129.439, -159.388 129.341, -159.415 129.213, -159.467 129.048, -159.543 128.868, -159.638 128.69, -162.329694161444 124.08452328840603, -151.478 118.166, -152.005 119.492, -111.533 94.831, -102.982 97.791, -102.942 97.805, -102.901 97.819, -102.861 97.833, -102.821 97.847, -103.457 98.234, -104.088 98.619, -104.716 99.001, -105.338 99.38, -107.945 100.969, -105.314 100.202, -89.028 91.312, -88.998 91.275, -88.96 91.169, -88.952 91.029, -88.962 90.931, -88.988 90.803, -89.04 90.638, -89.116 90.459, -89.211 90.28, -89.708 89.429, -90.108 89.532, -96.165 87.436, -61.80229960672657 66.4979795639374, -59.841 70.432, -59.632 70.787, -59.377 71.11, -59.079 71.396, -58.746 71.637, -58.382 71.831, -57.996 71.973, -57.593 72.061, -57.30827094562871 72.08316868549849, -64.228 76.3, -72.951 81.39, -70.101 80.997, -53.863147363521215 72.13427913019405, -53.852 72.135, -53.8345755756557 72.12228487953254, -32.492 72.309, -32.139 72.291, -31.791 72.232, -31.452 72.132, -31.127 71.994, -30.759 71.776, -30.425 71.508, -30.133 71.195, -29.905691101180786 70.86934521026308, -30.014 71.252, -30.158 72.126, -30.201 72.915, -30.187 73.449, -30.055 75, -23.877 75, -24.146116682424285 73.45016842173898, -24.101 73.612, -24.041 73.776, -23.933 73.993, -23.782 74.22, -23.577 74.448, -23.312 74.66, -22.987 74.837, -22.774 74.915, -22.609 74.957, -22.489 74.979, -22.197 75, 48 75, 48.285 74.98, 48.39 74.952, 48.563 74.919, 48.831 74.819, 49.081 74.683, 49.111 74.655, 49.31 74.511, 49.511 74.31, 49.663 74.106, 49.819 73.831, 49.848 73.751, 49.962 73.373, 49.962 73.344, 49.962 73.302, 50 73, 50 17.58, 49.98 17.301, 49.961 17.187, 49.922 17.027, 49.852 16.825, 49.69 16.511, 49.495 16.252, 49.285 16.048, 49.074 15.893, 48.87 15.78, 48.659 15.692, 48.451 15.632, 48.222 15.593, 48 15.58, 47.844 15.587, 47.689 15.605, 47.501 15.644, 47.513 15.641, 47.524 15.638, 47.535 15.635, 50 15, 44.683 10.174, 20.79737025962024 16.326172824536417, 21.606 15.344, 21.657 15.272, 23.607 12.04, 23.644 11.967, 25.106 8.48, 25.131 8.408, 26.072 4.741, 26.085 4.672, 26.485 0.901, 26.487 0.836, 26.334 -2.959, 26.328 -3.017, 25.625 -6.755, 25.611 -6.806, 24.37 -10.408, 24.352 -10.451, 22.599 -13.84, 22.577 -13.875, 20.347 -16.978, 20.324 -17.005, 17.663 -19.755, 17.641 -19.775, 14.603 -22.113, 14.584 -22.126, 11.234 -24.001, 11.218 -24.008, 10.199647712667238 -24.396686243299893, -88.171 -166.972, -89.658 -168.833, -91.39 -170.469, -93.335 -171.845, -95.452 -172.937, -97.702 -173.722, -100.039 -174.185, -102.417 -174.316, -104.791 -174.114, -107.113 -173.581, -109.338 -172.73, -111.422 -171.575, -113.324 -170.141, -115.007 -168.455, -116.438 -166.55, -117.589 -164.464, -118.436 -162.237, -118.964 -159.914, -119.162 -157.54, -119.026 -155.161, -118.559 -152.825, -117.77 -150.577, -116.674 -148.462, -108.1782555409769 -134.5415294799657, -108.662 -134.387, -110.205 -133.771, -110.705 -133.532, -110.957 -133.416, -111.198 -133.277, -111.681 -133.007, -112.155 -132.72, -112.62 -132.418, -113.075 -132.102, -113.519 -131.77, -113.952 -131.425, -114.374 -131.065, -114.783 -130.692, -114.991 -130.508, -115.181 -130.306, -115.565 -129.907, -115.936 -129.495, -116.294 -129.072, -116.638 -128.637, -116.967 -128.192, -117.282 -127.735, -117.581 -127.269, -117.865 -126.793, -118.01 -126.557, -118.134 -126.309, -118.386 -125.816, -118.623 -125.314, -118.842 -124.806, -119.046 -124.29, -119.232 -123.768, -119.401 -123.241, -119.553 -122.708, -119.687 -122.17, -119.758 -121.902, -119.804 -121.628, -119.903 -121.083, -119.984 -120.535, -120.047 -119.984, -120.093 -119.432, -120.12 -118.879, -120.129 -118.325, -120.12 -117.771, -120.093 -117.217, -120.083 -116.94, -120.048 -116.665, -119.985 -116.114, -119.904 -115.566, -119.806 -115.021, -119.689 -114.479, -119.555 -113.941, -119.321 -113.144, -119.144 -112.619, -118.95 -112.1, -112.63624061479253 -96.04102526063961, -112.637 -96.027, -112.615 -95.987, -112.581 -95.953, -112.481 -95.901, -112.343 -95.876, -112.245 -95.874, -112.114 -95.884, -111.944 -95.916, -111.757 -95.969, -111.568 -96.04, -106.66335595223188 -98.13984760454903, -102.138 -86.637, -103.388 -87.325, -87.76993781660033 -52.61105566641636, -170.924 -80.242, -173.232 -80.833, -175.6 -81.095, -177.981 -81.024, -180.329 -80.621, -182.598 -79.893, -184.742 -78.856, -186.721 -77.529, -188.494 -75.938, -190.028 -74.115, -191.292 -72.096, -192.261 -69.919, -192.916 -67.629, -193.245 -65.269, -193.241 -62.887, -192.903 -60.528, -192.24 -58.24, -191.262 -56.067, -189.991 -54.053, -188.451 -52.235, -186.671 -50.651, -184.688 -49.331, -182.54 -48.302, -67.1275955572839 -2.633693932676781, -64.62294047380539 2.933224783996413), (-125.152 20.095, -125.28317050496413 20.042034650327892, -124.461 20.373, -125.152 20.095), (-89.43922647873275 90.63423784060714, -89.43922647873275 90.63423784060716, -103.457 98.234, -89.43922647873275 90.63423784060714), (49.962 73.038, 49.98 73, 49.962 73.113, 49.962 73.038), (40.675 25.765, 40.6382978723412 25.78606382978679, 41 25.577, 40.809 25.688, 40.675 25.765), (40.675 70.765, 40.638297872340765 70.78606382978704, 41 70.577, 40.809 70.688, 40.675 70.765), (40.675 48.265, 40.638297872339336 48.28606382978786, 41 48.077, 40.809 48.188, 40.675 48.265), (40.44 46.599, 40.578475336324814 46.67935874439575, 40.361702127659605 46.55406382978725, 40.44 46.599), (40.44 24.099, 40.57847533632305 24.179358744394722, 40.36170212765996 24.054063829787456, 40.44 24.099), (40.44 69.099, 40.57847533632148 69.17935874439381, 40.36170212766154 69.05406382978836, 40.44 69.099), (40.421524663676585 25.91135874439494, 40.367 25.943, 40.18 26.051, 40 26.155, 40.421524663676585 25.91135874439494), (40.421524663676564 70.91135874439495, 40.367 70.943, 40.18 71.051, 40 71.155, 40.421524663676564 70.91135874439495), (40.421524663676564 48.411358744394946, 40.367 48.443, 40.18 48.551, 40 48.655, 40.421524663676564 48.411358744394946), (40.172 46.358, 40.17504832494577 46.33801002295172, 40.17504832494578 46.33801002295172, 40.172 46.358), (40.17470672018645 48.65974983814579, 40.172 48.642, 40.17470672018646 48.65974983814579, 40.17470672018645 48.65974983814579), (39.578475336323436 69.08864125560505, 39.633 69.057, 39.82 68.949, 40 68.845, 39.578475336323436 69.08864125560505), (39.578475336323436 46.588641255605054, 39.633 46.557, 39.82 46.449, 40 46.345, 39.578475336323436 46.588641255605054), (39.578475336323415 24.08864125560506, 39.633 24.057, 39.82 23.949, 40 23.845, 39.578475336323415 24.08864125560506), (39.82975533576264 71.4870796460177, 39.829755335762734 71.4870796460177, 39.829755335762826 71.48707964601772, 39.82975533576264 71.4870796460177), (39.828 68.858, 39.82529327981354 68.8402501618542, 39.82529327981355 68.8402501618542, 39.828 68.858), (39.63829787234063 48.44593617021289, 39.56 48.401, 39.42152466367569 48.32064125560455, 39.63829787234063 48.44593617021289), (39.638297872340075 70.94593617021256, 39.56 70.901, 39.421524663676564 70.82064125560505, 39.638297872340075 70.94593617021256), (39.63829787234004 25.945936170212544, 39.56 25.901, 39.42152466367702 25.820641255605317, 39.63829787234004 25.945936170212544), (39.191 69.312, 39.325 69.235, 39.361702127659925 69.21393617021256, 39.0224236432241 69.41003913421648, 39.02249440473256 69.40992733546956, 39.191 69.312), (39.191 46.812, 39.325 46.735, 39.361702127659925 46.71393617021256, 39.0224236432241 46.91003913421647, 39.02249440473256 46.90992733546956, 39.191 46.812), (39.325 24.235, 39.3617021276588 24.21393617021321, 39.02242364322411 24.41003913421646, 39.02249440473257 24.40992733546955, 39.191 24.312, 39.325 24.235), (39.33868868339939 46.52946807573756, 39.35 46.546, 39.33868868339938 46.52946807573756, 39.33868868339939 46.52946807573756), (39.20290652439702 70.85907124597088, 39.215 70.846, 39.20290652439703 70.85907124597088, 39.20290652439702 70.85907124597088), (39.12084728706298 46.75453594771241, 39.215 46.654, 39.120847287062965 46.754535947712434, 39.12084728706298 46.75453594771241), (38.8590383330057 69.72687464779501, 38.874 69.743, 38.8590383330057 69.72687464779503, 38.8590383330057 69.72687464779501), (22.5 41.5, 22.351 41.489, 22.205 41.456, 22.066 41.401, 21.937 41.326, 21.82 41.233, 21.718 41.123, 21.634 41, 21.569 40.865, 21.525 40.723, 21.503 40.575, 21.503 40.425, 21.525 40.277, 21.569 40.135, 21.634 40, 21.718 39.877, 21.82 39.767, 21.937 39.674, 22.066 39.599, 22.205 39.544, 22.351 39.511, 22.5 39.5, 27.5 39.5, 27.649 39.511, 27.795 39.544, 27.934 39.599, 28.063 39.674, 28.18 39.767, 28.282 39.877, 28.366 40, 28.431 40.135, 28.475 40.277, 28.497 40.425, 28.497 40.575, 28.475 40.723, 28.431 40.865, 28.366 41, 28.282 41.123, 28.18 41.233, 28.063 41.326, 27.934 41.401, 27.795 41.456, 27.649 41.489, 27.5 41.5, 22.5 41.5), (21.82 56.233, 21.718 56.123, 21.634 56, 21.569 55.865, 21.525 55.723, 21.503 55.575, 21.503 55.425, 21.525 55.277, 21.569 55.135, 21.634 55, 21.718 54.877, 21.82 54.767, 21.937 54.674, 22.066 54.599, 22.205 54.544, 22.351 54.511, 22.5 54.5, 27.5 54.5, 27.649 54.511, 27.795 54.544, 27.934 54.599, 28.063 54.674, 28.18 54.767, 28.282 54.877, 28.366 55, 28.431 55.135, 28.475 55.277, 28.497 55.425, 28.497 55.575, 28.475 55.723, 28.431 55.865, 28.366 56, 28.282 56.123, 28.18 56.233, 28.063 56.326, 27.934 56.401, 27.795 56.456, 27.649 56.489, 27.5 56.5, 22.5 56.5, 22.351 56.489, 22.205 56.456, 22.066 56.401, 21.937 56.326, 21.82 56.233), (26.399701099038747 -1.279488461658505, 26.329370640062812 -2.983785684515602, 26.399701099038744 -1.2794884616585973, 26.399701099038747 -1.279488461658505), (26.083581920322896 4.6333133800486, 25.964 1.371, 26.083581920322896 4.633313380048591, 26.083581920322896 4.6333133800486), (26.078874439120664 4.677082696795747, 25.48 5.174, 26.078874439120664 4.677082696795746, 26.078874439120664 4.677082696795747), (22.333 -13.314, 24.336384217534096 -10.47314362813268, 24.3363842175341 -10.473143628132675, 22.333 -13.314), (22.212235472197815 -0.8348550030606664, 22.219 -1.171, 22.201517801902853 -1.3097324928204483, 22.299 -1.332, 22.5 -1.347, 22.701 -1.332, 22.898 -1.287, 23.086 -1.213, 23.261 -1.112, 23.418 -0.986, 23.556 -0.838, 23.669 -0.672, 23.757 -0.49, 23.816 -0.297, 23.846 -0.097, 23.846 0.104, 23.816 0.304, 23.757 0.497, 23.669 0.678, 23.555 0.845, 23.418 0.993, 23.26 1.119, 23.086 1.22, 22.898 1.293, 22.701 1.338, 22.5 1.353, 22.299 1.338, 22.208667009673405 1.3173655605852956, 22.212 1.292, 22.199018441341945 0.3995868931027146, 22.244 -0.502, 22.212235472197815 -0.8348550030606664), (22.56418530668743 -13.888511770699306, 20.132 -16.453, 22.564185306687428 -13.888511770699312, 22.56418530668743 -13.888511770699306), (18.767669015146375 -11.863903557606722, 18.72792160092685 -11.931549431776292, 18.79 -11.999, 18.91 -12.094, 19.043 -12.171, 19.185 -12.227, 19.335 -12.261, 19.487 -12.272, 19.64 -12.261, 19.789 -12.227, 19.932 -12.171, 20.065 -12.094, 20.184 -11.999, 20.289 -11.886, 20.375 -11.76, 20.441 -11.622, 20.487 -11.475, 20.509 -11.324, 20.509 -11.17, 20.486 -11.019, 20.441 -10.873, 20.375 -10.735, 20.288 -10.608, 20.184 -10.496, 20.064 -10.4, 19.932 -10.324, 19.789 -10.268, 19.730478005998176 -10.254645987945892, 19.646 -10.446, 19.44033573811924 -10.77303009083946, 19.273 -11.119, 18.767669015146375 -11.863903557606722), (19.38389021340302 10.87357588961197, 19.588 10.553, 19.720246673369825 10.257995885198483, 19.786 10.273, 19.929 10.329, 20.061 10.406, 20.181 10.501, 20.285 10.614, 20.372 10.74, 20.438 10.878, 20.483 11.025, 20.506 11.176, 20.506 11.33, 20.483 11.481, 20.438 11.627, 20.372 11.765, 20.285 11.892, 20.181 12.004, 20.061 12.1, 19.929 12.176, 19.786 12.232, 19.637 12.266, 19.484 12.278, 19.331 12.266, 19.182 12.232, 19.039 12.176, 18.906 12.1, 18.787 12.004, 18.74607324798733 11.959925036294047, 18.866 11.796, 19.021666300241836 11.501379089800736, 19.212 11.224, 19.38389021340302 10.87357588961197), (4.345 23.887, 4.36 23.851, 4.366 23.801, 4.393 23.851, 4.374 23.887, 4.43 23.887, 4.453 23.851, 4.493 23.851, 4.54 23.801, 4.53 23.851, 4.571 23.851, 4.6 23.801, 4.637 23.801, 4.649 23.801, 4.649 23.000775333333333, 5.997 23.001, 6.399140031841144 23.001056149124803, 12.121 23.002, 13.159 23.002, 13.997 22.502, 14.776 21.998, 15.38919635487541 21.570693878689184, 15.599 21.705, 15.827 21.876, 16.064 22.082, 16.266 22.284, 16.472 22.521, 17.172 23.456, 14.869 24.049, 15.037030336828018 24.371933303591344, 15.112 24.567, 15.176 24.846, 15.199 25.132, 15.181 25.419, 15.122 25.699, 15.023 25.969, 14.887 26.221, 14.716 26.452, 14.514 26.656, 14.285 26.828, 14.034 26.966, 13.765 27.067, 13.485 27.128, 13.199 27.149, 7.199 27.149, 6.906 27.127, 6.62 27.063, 6.346 26.958, 6.091 26.814, 5.859 26.634, 5.656 26.422, 3.203 27.054, 3.018 25.523, 3.003 25.282, 3.018 24.775, 3.093 24.274, 3.1952741935483875 23.901, 3.899 23.901, 4.149 23.901, 4.149 23.887, 4.249 23.887, 4.345 23.887), (-12.364 52.676, -12.995 51.75, -13.482 50.74, -13.812 49.669, -13.979 48.56, -13.979 47.44, -13.812 46.331, -13.482 45.26, -12.995 44.25, -12.364 43.324, -11.601 42.502, -10.725 41.803, -9.754 41.243, -8.711 40.833, -7.618 40.584, -6.5 40.5, 8.5 40.5, 9.618 40.584, 10.711 40.833, 11.754 41.243, 12.725 41.803, 13.601 42.502, 14.364 43.324, 14.995 44.25, 15.482 45.26, 15.812 46.331, 15.979 47.44, 15.979 48.56, 15.812 49.669, 15.482 50.74, 14.995 51.75, 14.364 52.676, 13.601 53.498, 12.725 54.197, 11.754 54.757, 10.711 55.167, 9.618 55.416, 8.5 55.5, -6.5 55.5, -7.618 55.416, -8.711 55.167, -9.754 54.757, -10.725 54.197, -11.601 53.498, -12.364 52.676), (-10.704 69.501, -10.731 69.49, -11.134 69.316, -11.169 69.299, -11.203 69.282, -11.237 69.263, -11.615 69.039, -11.64 69.024, -11.664 69.009, -11.687 68.992, -11.966 68.789, -11.988 68.773, -12.01 68.755, -12.031 68.738, -12.056 68.716, -12.055 68.712, -11.964 68.786, -11.685 68.989, -11.613 69.036, -11.235 69.26, -11.133 69.312, -10.729 69.487, -10.649 69.517, -10.321 69.624, -10.238 69.646, -9.809 69.742, -9.682 69.762, -9.072 69.81, -8.928 69.81, -8.318 69.762, -8.191 69.742, -7.762 69.646, -7.679 69.624, -7.351 69.517, -7.271 69.487, -6.867 69.312, -6.832 69.296, -6.798 69.279, -6.765 69.26, -6.387 69.036, -6.362 69.021, -6.338 69.006, -6.315 68.989, -6.28 68.964, -6.778 68.991, -1.746 68.716, -6.274 68.964, -6.313 68.992, -6.336 69.009, -6.36 69.024, -6.385 69.039, -6.763 69.263, -6.797 69.282, -6.831 69.299, -6.866 69.316, -7.269 69.49, -7.296 69.501, -7.323 69.511, -7.35 69.52, -7.678 69.627, -7.706 69.635, -7.733 69.643, -7.761 69.65, -8.19 69.746, -8.232 69.754, -8.275 69.761, -8.318 69.765, -8.928 69.813, -8.976 69.815, -9.024 69.815, -9.072 69.813, -9.682 69.765, -9.725 69.761, -9.768 69.754, -9.81 69.746, -10.239 69.65, -10.267 69.643, -10.294 69.635, -10.322 69.627, -10.65 69.52, -10.677 69.511, -10.704 69.501), (-1.690359086918006 68.71229060579454, -1.6903590869179534 68.71229060579454, -1.746 68.716, -1.690359086918006 68.71229060579454), (-12.555 27.743, -12.226 27.262, -11.83 26.833, -11.377 26.467, -10.875 26.17, -10.335 25.95, -9.769 25.81, -9.189 25.754, -8.606 25.783, -8.035 25.897, -7.485 26.092, -6.97 26.365, -6.5 26.71, -6.391 26.789, -6.214 26.914, -5.892 27.066, -5.572 27.154, -5.291 27.187, -5.026 27.181, -4.781 27.144, -4.558 27.083, -4.435 27.036, -4.492 27.034, -4.427 27.007, -4.345 26.983, -4.313 26.98, -4.126 26.888, -3.936 26.793, -3.2113618754983833 26.433353525567355, -3.9328917770092557 28.891631280463695, -4.439 29.022, -4.701 29.071, -4.967 29.085, -5.233 29.063, -5.493 29.006, -5.744 28.916, -5.98 28.792, -6.198 28.638, -6.393 28.457, -6.563 28.251, -6.802 27.958, -7.077 27.697, -7.383 27.473, -7.714 27.289, -8.066 27.149, -9.934 27.149, -10.324 27.308, -10.689 27.521, -11.02 27.782, -11.312 28.088, -11.557 28.431, -11.752 28.805, -11.892 29.203, -11.975 29.617, -12 30.039, -11.965 30.459, -11.871 30.871, -11.72 31.265, -11.516 31.634, -11.262 31.971, -11.088 32.203, -10.949 32.457, -10.848 32.729, -10.788 33.012, -10.77 33.302, -10.793 33.59, -11.758 32.758, -12.155 32.292, -12.475 31.771, -12.709 31.205, -12.818 30.78, -12.852 30.61, -12.989 29.455, -13.081618066650377 29.438036984129965, -13.081 29.398, -12.987 28.823, -12.81 28.267, -12.555 27.743), (-6.135 26.893, -5.952 27.019, -5.892 27.066, -6.135 26.893), (-5.156 27.169, -5.101 27.165, -5.04 27.16, -5.026 27.181, -5.156 27.169), (-4.915 27.144, -4.858 27.133, -4.801 27.121, -4.781 27.144, -4.915 27.144), (-4.686 27.092, -4.627 27.074, -4.558 27.083, -4.686 27.092), (-8.325 30.765, -8.361702127659475 30.786063829787178, -8 30.577, -8.191 30.688, -8.325 30.765), (-8.325 65.765, -8.361702127659703 65.78606382978731, -8 65.577, -8.191 65.688, -8.325 65.765), (-8.082350058343064 64.26833430571762, -8.082350058343062 64.26833430571762, -8.097 64.28, -8.082350058343064 64.26833430571762), (-8.56 29.099, -8.421524663677662 29.17935874439431, -8.63829787233978 29.054063829787605, -8.56 29.099), (-8.56 64.099, -8.42152466367852 64.17935874439381, -8.638297872339818 64.05406382978758, -8.56 64.099), (-8.578475336322903 30.91135874439464, -8.633 30.943, -8.82 31.051, -9 31.155, -8.578475336322903 30.91135874439464), (-8.578475336322924 65.91135874439465, -8.633 65.943, -8.82 66.051, -9 66.155, -8.578475336322924 65.91135874439465), (-8.825293279813543 66.1597498381458, -8.828 66.142, -8.825293279813542 66.1597498381458, -8.825293279813543 66.1597498381458), (-9.421524663677076 64.08864125560535, -9.367 64.057, -9.18 63.949, -9 63.845, -9.421524663677076 64.08864125560535), (-9.421524663677097 29.08864125560536, -9.367 29.057, -9.18 28.949, -9 28.845, -9.421524663677097 29.08864125560536), (-9.44 65.901, -9.578475336322924 65.82064125560535, -9.361702127660182 65.94593617021242, -9.44 65.901), (-9.44 30.901, -9.57847533632247 30.820641255605615, -9.361702127660367 30.94593617021231, -9.44 30.901), (-9.675 64.235, -9.638297872340297 64.21393617021269, -9.977576356775904 64.41003913421648, -9.977505595267441 64.40992733546956, -9.809 64.312, -9.675 64.235), (-9.977505595267438 29.409927335469558, -9.809 29.312, -9.675 29.235, -9.638297872340525 29.213936170212822, -9.977576356775899 29.41003913421647, -9.977540572434576 29.40998259720071, -9.977505595267438 29.409927335469558), (-17.525431396786384 48.83681087762707, -17.498 48.792, -17.495368273280278 48.78739803462795, -17.486 48.772, -17.35817825311976 48.547500891266175, -17.128 48.145, -17.112577167726794 48.11614060930696, -17.092 48.08, -17.02375000000003 47.94992613636369, -16.864 47.651, -16.71 47.369, -16.55748120613969 47.029843015990096, -16.493 46.898, -16.22 46.293, -16.107 46.054, -15.901363636363612 45.51290909090903, -15.865 45.422, -15.815661216638635 45.28740033661943, -15.73 45.062, -15.677107299458335 44.90941552746967, -15.637 44.8, -15.541 44.553, -15.355823371390196 43.933511081262594, -15.315 43.803, -15.286588280913405 43.701892373976754, -15.237 43.536, -15.187099240192268 43.34784478213673, -15.136 43.166, -15.093433526011575 42.99466994219659, -15.067 42.895, -15.036210843373468 42.764348644578206, -14.976 42.522, -14.941854075158632 42.3639531478771, -14.915 42.25, -14.878129629629615 42.06899999999994, -14.836 41.874, -14.811344827586206 41.74114733542319, -14.783 41.602, -14.749701559419252 41.408986915217795, -14.715 41.222, -14.694440203562344 41.08866666666668, -14.67 40.947, -14.643915943962634 40.76100933955965, -14.614 40.567, -14.553 40.174, -14.533 39.909, -14.519479263250213 39.762710061395744, -14.505 39.632, -14.499424208144797 39.56256561085973, -14.499 39.562, -14.496218463388965 39.52264501578709, -14.491120127596671 39.4591563059208, -14.082 39.089, -13.722 38.795, -13.152 38.375, -12.764 38.119, -12.197 37.769, -17.28610427571576 52.56771467865176, -17.54 51.873, -17.685 51.431, -17.794 51.056, -17.958 50.366, -18.070096772484593 49.70052409010908, -17.79 49.269, -17.78641117318434 49.26313743016757, -17.761 49.224, -17.525431396786384 48.83681087762707), (-24.089 72.35, -24.089 72.352, -22.825 71.488, -24.090484433584702 72.35464692252602, -24.089 72.35), (-34.92520111731843 44.41773184357542, -34.92542262540021 44.41633511205977, -34.925 44.418, -34.92520111731843 44.41773184357542), (-34.928341528833265 44.394028162717895, -34.93 44.366, -34.94139724576272 44.30036758474571, -34.948 44.253, -34.951611957349584 44.241544935262745, -34.959 44.199, -34.960805036555634 44.193229352829725, -34.961 44.192, -35.014 44.017, -35.02015701617109 44.003482872543934, -35.025 43.988, -35.06149729729732 43.912724324324266, -35.101 43.826, -35.11116759776536 43.81027932960894, -35.121 43.79, -35.18904694048617 43.68986588432522, -35.231 43.625, -35.23956864654333 43.61552093476144, -35.244 43.609, -35.391 43.448, -35.57 43.304, -35.771 43.188, -35.973 43.108, -35.98436801752465 43.105343921139095, -35.993 43.102, -36.059456000000004 43.087799999999994, -36.187 43.058, -36.206371326803186 43.05640783615316, -36.227 43.052, -36.33528125 43.0458125, -36.406 43.04, -36.420701716738165 43.040931330472105, -36.437 43.04, -36.619 43.053, -36.62228841512473 43.05370152855994, -36.627 43.054, -36.74871588295337 43.07834317659068, -23.97059500828838 36.736257523470336, -23.95832209901537 36.85259969402778, -23.953936701199133 37.672230545881966, -23.962085931101342 37.97071606465313, -23.995387903875425 38.719809837776175, -24.112894484670676 39.527066943016386, -24.167121546961315 39.831102209944696, -24.30906472715347 40.55382956908976, -24.549782471581807 41.34984443929732, -24.639852428069293 41.61643946100777, -24.894081075564337 42.32739047999629, -25.24882355581764 43.07451977361343, -25.382847138909533 43.334581889870016, -25.734031554878914 43.98848409426549, -26.200472065151697 44.679887300401894, -26.388206483790515 44.93969526184538, -26.81285825781553 45.506529549494836, -27.369197264903136 46.11308442895615, -27.602148109139968 46.35102580390349, -28.111408348811075 46.85339379972942, -28.744396264861763 47.36361514609215, -29.019204015490043 47.570826084065885, -29.590771337553978 47.98654579746646, -30.29332165266407 48.39727422099332, -30.58282534191194 48.55419156778419, -31.229369806540827 48.88994234223863, -31.987265848158284 49.192052976339596, -32.257382864487525 49.289830109171355, -32.978681227173155 49.536654492330186, -33.78484513407643 49.725010545344965, -34.07078029429716 49.78213514613142, -34.798499882207615 49.9147717413164, -35.61450766320429 49.98050813613354, -35.963245581177624 49.99714140231769, -36.66175080668731 50.018466950177384, -37.482948691989186 49.96119456547285, -37.81035251115105 49.92790821699432, -38.51587865089802 49.84347328274967, -38.856231490107135 49.76771492051343, -39.763 47.949, -39.981 47.581, -40.249 47.247, -40.562 46.955, -40.913 46.71, -41.295 46.518, -41.701 46.382, -42.122 46.306, -42.55 46.29, -42.976 46.335, -43.391 46.44, -43.786 46.603, -44.5538612313027 46.98573902466547, -44.57834014571252 46.96437213133474, -37.39108811730541 43.39716781218513, -37.399 43.403, -37.49938973966314 43.501924196018415, -37.521 43.522, -37.525738577091566 43.52788837888584, -37.536 43.538, -37.657 43.691, -37.756 43.858, -37.76063688250346 43.8687990553041, -37.766 43.878, -37.78663339731279 43.9293435700574, -37.832 44.035, -37.838486156058984 44.058372527867704, -37.852 44.092, -37.870144144144135 44.172450450450405, -37.89 44.244, -37.89566259656118 44.28559830550712, -37.905 44.327, -37.90878344630753 44.3819860863361, -37.916 44.435, -37.91578436807095 44.483732815964466, -37.92 44.545, -37.9151506456241 44.626954088952736, -37.915 44.661, -37.9120267435763 44.679748033560564, -37.91 44.714, -37.881 44.881, -37.87919496344435 44.88677064717033, -37.87919496344435 44.88677064717034, -37.879 44.888, -37.826 45.063, -37.819842983828885 45.076517127456135, -37.815 45.092, -37.77850270270274 45.167275675675604, -37.739 45.254, -37.72883240223465 45.26972067039104, -37.719 45.29, -37.65095305951383 45.39013411567477, -37.609 45.455, -37.60043135345665 45.464479065238585, -37.596 45.471, -37.449 45.632, -37.27 45.776, -37.069 45.892, -36.867 45.972, -36.85563198247537 45.974656078860896, -36.847 45.978, -36.780543999999914 45.99220000000002, -36.653 46.022, -36.63362867319681 46.023592163846835, -36.613 46.028, -36.504718749999995 46.0341875, -36.434 46.04, -36.41929828326182 46.03906866952789, -36.403 46.04, -36.221 46.027, -36.21771158487531 46.02629847144007, -36.213 46.026, -36.048 45.993, -36.01935766423356 45.98398296836983, -35.996 45.979, -35.95915416098231 45.96503001364258, -35.886 45.942, -35.83402696272803 45.91758842188741, -35.785 45.899, -35.72991991101213 45.86868965517236, -35.688 45.849, -35.659774592189855 45.8300889767672, -35.616 45.806, -35.53795744680849 45.74847148936169, -35.488 45.715, -35.47051621431088 45.69875766654916, -35.441 45.677, -35.340610260336895 45.57807580398161, -35.319 45.558, -35.31426142290844 45.55211162111416, -35.304 45.542, -35.183 45.389, -35.084 45.222, -35.08303462405246 45.21975169022744, -35.082 45.218, -35.07897101449274 45.21093236714973, -35.072 45.199, -35.05167272727279 45.1472363636365, -35.004 45.036, -34.99666089693155 45.00955153422504, -34.988 44.988, -34.98645983959084 44.98117098686506, -34.986 44.98, -34.970770158251675 44.91624717407677, -34.951 44.845, -34.94729880919413 44.81799501523125, -34.943 44.8, -34.940894423558895 44.779135651629055, -34.935 44.753, -34.931581371545555 44.7033159331287, -34.924 44.648, -34.92380817307692 44.6098264423077, -34.921 44.582, -34.92158463385354 44.55803001200476, -34.92 44.535, -34.923163501621126 44.48153682260299, -34.923 44.449, -34.92453799758745 44.4369420989144, -34.925 44.418, -34.928341528833265 44.394028162717895), (-24.148 72.55794444444443, -24.148 72.56, -24.149 72.564, -24.15 72.567, -24.149 72.562, -24.148 72.55794444444443), (-24.183 73.236, -24.174 73.289, -24.169462395543118 73.3157214484683, -24.184 73.232, -24.184350877192983 73.22789473684209, -24.183 73.236), (-24.190153846153844 73.16000000000003, -24.189 73.17, -24.187055555555563 73.1962499999999, -24.190153846153844 73.16000000000003), (-24.192 73.057, -24.193 73.086, -24.194 73.114, -24.194 73.115, -24.197 73, -24.192 72.855, -24.191 73, -24.192 73.029, -24.192 73.057), (-24.935926514399206 56.31996789142668, -24.934 56.32, -24.917682022653345 56.30953360502765, -29.482057515862813 69.58203854933024, -29.468 69.206, -29.513 68.781, -29.618 68.366, -29.781 67.97, -33.295308819768856 60.92131467836182, -26.315618201997793 57.105688494265635, -26.222 57.062, -25.298 56.539, -24.935926514399206 56.31996789142668), (-33.459 68.086, -33.567 68.195, -33.661 68.289, -33.818 68.447, -33.87156113537118 68.50091120815138, -33.871968036842375 68.50076394857133, -33.31057308740598 67.93661030159471, -33.310572118516994 67.93662065773826, -33.459 68.086), (-33.44661859261763 68.18961283019978, -33.44661859261764 68.18961283019978, -33.459 68.086, -33.44661859261763 68.18961283019978), (-34.532778228638314 68.26161359344518, -34.53277822863832 68.26161359344518, -33.31108061205466 67.93118553341583, -34.532778228638314 68.26161359344518), (-33.35819402985092 67.72454371002067, -33.438309345794316 67.42777102803767, -33.413 67.52, -33.35819402985092 67.72454371002067), (-33.49460500544087 67.21923394994496, -33.51369566263025 67.1485160670009, -33.513602063436004 67.14855840515783, -33.506 67.176, -33.49460500544087 67.21923394994496), (-35.89854934302489 67.40727816606099, -35.89266978007044 67.37558588769677, -35.89854934302489 67.40727816606102, -35.89854934302489 67.40727816606099), (-56.31174545981053 68.65097704049973, -56.438 68.819, -56.531 68.942, -56.611 69.048, -56.745 69.226, -56.79043962009996 69.28600804791827, -56.7904492124564 69.28600600558964, -56.31175053972152 68.65095539226365, -56.31174545981053 68.65097704049973), (-56.324806777475274 68.59531573291305, -56.391330033002845 68.43852145214628, -56.386 68.451, -56.32481760127718 68.5952696068649, -56.324806777475274 68.59531573291305), (-57.14318430125098 67.74325363350191, -58.287840279540184 68.22884641951161, -57.14318430125099 67.74325363350191, -57.14318430125098 67.74325363350191), (-62.621 55.994, -63.475 56.42, -63.843 56.637, -64.177 56.905, -64.3653076883142 57.106850364528576, -64.51107030353434 56.85746073187244, -57.32850423209415 53.292582164744, -57.30023696533242 53.34094547973566, -62.621 55.994), (-58.94841176470589 68.48929411764715, -58.94260958366065 68.37114061272584, -58.94260958366064 68.37114061272577, -58.94841176470589 68.48929411764716, -58.94841176470589 68.48929411764715), (-74.19069127106557 -1.3307027534418019, -74.19069127106557 -1.3307027534418014, -74.29 -1.288, -74.19069127106557 -1.3307027534418019), (-90.407 -73.734, -90.373 -73.872, -90.32 -74.005, -90.249 -74.128, -90.161 -74.24, -90.057 -74.339, -89.941 -74.422, -89.814 -74.487, -80.621 -78.422, -80.486 -78.469, -80.346 -78.496, -80.204 -78.503, -80.062 -78.489, -79.923 -78.455, -79.791 -78.402, -79.667 -78.331, -79.555 -78.243, -79.457 -78.14, -79.374 -78.023, -79.308 -77.896, -76.947 -72.381, -76.901 -72.246, -76.874 -72.106, -76.867 -71.963, -76.88 -71.821, -76.914 -71.682, -76.967 -71.55, -77.039 -71.426, -77.127 -71.314, -77.23 -71.216, -77.346 -71.133, -77.473 -71.068, -85.074 -67.814, -86.666 -67.132, -86.801 -67.086, -86.941 -67.059, -87.084 -67.052, -87.226 -67.066, -87.364 -67.099, -87.497 -67.152, -87.62 -67.224, -87.732 -67.312, -87.831 -67.415, -87.914 -67.531, -87.979 -67.658, -90.34 -73.174, -90.387 -73.309, -90.414 -73.449, -90.421 -73.592, -90.407 -73.734), (-82.06950000005585 -69.09999999997609, -82.06950000001666 -69.09999999999286, -86.666 -67.132, -82.06950000005585 -69.09999999997609), (-82.108 70.662, -82.125 70.804, -82.161 70.942, -82.216 71.073, -82.29 71.196, -82.38 71.306, -82.485 71.403, -82.603 71.483, -87.783 74.511, -87.911 74.574, -88.047 74.618, -88.187 74.642, -88.33 74.647, -88.472 74.63, -88.61 74.594, -88.741 74.539, -88.863 74.465, -88.974 74.375, -89.07 74.27, -89.151 74.152, -91.44584976572257 70.22583312971008, -84.26298175303538 66.66080470195116, -82.244 70.115, -82.181 70.243, -82.137 70.379, -82.113 70.519, -82.108 70.662), (-97.341 17.298, -97.295 17.163, -93.392 7.956, -93.327 7.829, -93.245 7.713, -93.147 7.609, -93.035 7.52, -92.911 7.449, -92.779 7.395, -92.641 7.361, -92.499 7.347, -92.356 7.353, -92.216 7.38, -92.081 7.426, -86.557 9.768, -86.43 9.833, -86.313 9.915, -86.21 10.013, -86.121 10.125, -86.049 10.248, -85.996 10.381, -85.962 10.519, -85.948 10.661, -85.954 10.804, -85.98 10.944, -86.027 11.079, -89.93 20.286, -89.995 20.413, -90.077 20.529, -90.175 20.633, -90.287 20.721, -90.41 20.793, -90.542 20.847, -90.681 20.881, -90.823 20.895, -90.965 20.889, -91.106 20.862, -91.241 20.816, -96.765 18.474, -96.892 18.409, -97.008 18.327, -97.112 18.229, -97.201 18.117, -97.272 17.994, -97.326 17.861, -97.36 17.723, -97.374 17.581, -97.368 17.438, -97.341 17.298), (-102.227 -101.171, -102.213 -101.313, -102.179 -101.452, -102.126 -101.584, -102.055 -101.708, -101.967 -101.82, -101.863 -101.918, -101.747 -102.001, -101.62 -102.066, -92.427 -106.002, -92.292 -106.048, -92.152 -106.075, -92.01 -106.082, -91.868 -106.068, -91.729 -106.035, -91.597 -105.982, -91.473 -105.91, -91.361 -105.822, -91.263 -105.719, -91.18 -105.603, -91.114 -105.476, -88.753 -99.96, -88.707 -99.825, -88.68 -99.685, -88.673 -99.542, -88.686 -99.4, -88.72 -99.262, -88.773 -99.129, -88.844 -99.006, -88.933 -98.894, -89.036 -98.795, -89.152 -98.712, -89.279 -98.647, -98.472 -94.712, -98.607 -94.665, -98.747 -94.638, -98.89 -94.631, -99.032 -94.645, -99.17 -94.679, -99.303 -94.732, -99.426 -94.803, -99.538 -94.891, -99.637 -94.995, -99.72 -95.111, -99.785 -95.238, -102.146 -100.753, -102.193 -100.888, -102.22 -101.028, -102.227 -101.171), (-112.249 -151.793, -112.96 -153.358, -113.43 -155.011, -113.648 -156.716, -113.609 -158.434, -113.315 -160.128, -112.771 -161.758, -111.991 -163.29, -110.991 -164.688, -109.794 -165.921, -108.427 -166.963, -106.919 -167.788, -105.306 -168.38, -103.622 -168.725, -101.905 -168.815, -100.195 -168.648, -98.528 -168.228, -96.942 -167.564, -95.474 -166.672, -94.154 -165.57, -93.014 -164.284, -92.078 -162.843, -91.367 -161.278, -90.897 -159.625, -90.679 -157.92, -90.718 -156.201, -91.012 -154.508, -91.555 -152.877, -92.336 -151.346, -93.335 -149.948, -94.533 -148.714, -95.9 -147.673, -97.407 -146.847, -99.021 -146.255, -100.705 -145.911, -102.421 -145.821, -104.132 -145.988, -105.799 -146.408, -107.384 -147.071, -108.853 -147.964, -110.173 -149.065, -111.313 -150.351, -112.249 -151.793), (-100.115 -113.259, -99.913 -113.203, -99.722 -113.118, -99.545 -113.006, -99.388 -112.868, -99.252 -112.708, -99.142 -112.53, -99.06 -112.338, -99.007 -112.136, -98.985 -111.928, -98.994 -111.718, -99.035 -111.513, -99.105 -111.316, -99.204 -111.132, -99.33 -110.964, -99.479 -110.817, -99.648 -110.694, -99.834 -110.598, -100.032 -110.53, -100.237 -110.493, -100.447 -110.486, -100.654 -110.511, -100.856 -110.567, -101.047 -110.652, -101.224 -110.764, -101.381 -110.902, -101.517 -111.061, -101.627 -111.239, -101.709 -111.432, -101.762 -111.634, -101.784 -111.842, -101.775 -112.051, -101.734 -112.257, -101.664 -112.454, -101.565 -112.638, -101.439 -112.805, -101.29 -112.952, -101.121 -113.075, -100.935 -113.172, -100.738 -113.24, -100.532 -113.277, -100.323 -113.283, -100.115 -113.259), (-102.653 -118.203, -102.693 -118.094, -102.757 -117.998, -102.842 -117.918, -102.943 -117.86, -103.054 -117.827, -103.17 -117.821, -103.284 -117.841, -103.39 -117.888, -103.483 -117.957, -103.558 -118.046, -103.61 -118.15, -103.636 -118.263, -103.636 -118.379, -103.609 -118.492, -103.556 -118.596, -103.481 -118.685, -103.388 -118.754, -103.281 -118.799, -103.167 -118.819, -103.051 -118.812, -102.94 -118.779, -102.84 -118.72, -102.755 -118.64, -102.692 -118.543, -102.652 -118.434, -102.639 -118.319, -102.653 -118.203), (-106.949 -125.676, -106.8 -125.823, -106.631 -125.946, -106.445 -126.042, -106.247 -126.11, -106.041 -126.147, -105.832 -126.154, -105.624 -126.129, -105.422 -126.073, -105.231 -125.988, -105.055 -125.876, -104.897 -125.738, -104.762 -125.579, -104.652 -125.401, -104.569 -125.208, -104.517 -125.006, -104.495 -124.798, -104.504 -124.589, -104.544 -124.384, -104.615 -124.186, -104.714 -124.002, -104.839 -123.835, -104.988 -123.688, -105.157 -123.565, -105.343 -123.468, -105.541 -123.4, -105.747 -123.363, -105.956 -123.357, -106.164 -123.381, -106.366 -123.437, -106.557 -123.522, -106.733 -123.635, -106.891 -123.772, -107.026 -123.932, -107.136 -124.11, -107.219 -124.302, -107.271 -124.504, -107.293 -124.713, -107.284 -124.922, -107.244 -125.127, -107.173 -125.324, -107.074 -125.508, -106.949 -125.676), (-119.137 -118.585, -119.137 -118.063, -119.139 -118.324, -119.137 -118.585), (-119.105 -119.367, -119.035 -120.147, -118.926 -120.922, -118.78 -121.691, -118.597 -122.452, -118.376 -123.203, -118.119 -123.942, -117.826 -124.668, -117.498 -125.379, -117.136 -126.073, -116.74 -126.748, -116.311 -127.403, -115.851 -128.036, -115.361 -128.646, -114.841 -129.232, -114.294 -129.791, -113.719 -130.323, -113.12 -130.826, -112.496 -131.299, -111.85 -131.741, -111.183 -132.151, -110.497 -132.528, -109.794 -132.871, -107.662 -133.667, -107.6465867918109 -133.67037814238887, -106.29016047077207 -131.44784276533133, -107.335 -128.122, -107.575 -128.02, -108.044 -127.791, -108.502 -127.54, -108.946 -127.267, -109.377 -126.972, -109.792 -126.657, -110.192 -126.321, -110.575 -125.967, -110.94 -125.594, -111.286 -125.204, -111.613 -124.797, -111.92 -124.375, -112.206 -123.938, -112.47 -123.488, -112.711 -123.026, -112.93 -122.552, -113.125 -122.068, -113.296 -121.575, -113.443 -121.074, -113.566 -120.567, -113.663 -120.055, -113.735 -119.538, -113.782 -119.018, -113.804 -118.497, -113.8 -117.975, -113.77 -117.454, -113.715 -116.935, -113.635 -116.42, -113.529 -115.909, -118.529 -113.945, -118.725 -114.703, -118.883 -115.469, -119.004 -116.243, -119.086 -117.021, -119.131 -117.803, -119.137 -118.585, -119.105 -119.367), (-119.131 -118.846, -119.12 -119.107, -119.105 -119.367, -119.131 -118.846), (-119.086 -119.628, -119.062 -119.887, -119.035 -120.147, -119.086 -119.628), (-119.003 -120.406, -118.967 -120.664, -119.035 -120.147, -119.003 -120.406), (-118.882 -121.179, -118.833 -121.436, -118.926 -120.922, -118.882 -121.179), (-118.723 -121.946, -118.662 -122.199, -118.78 -121.691, -118.723 -121.946), (-118.527 -122.703, -118.454 -122.954, -118.376 -123.203, -118.527 -122.703), (-118.294 -123.451, -118.209 -123.697, -118.119 -123.942, -118.294 -123.451), (-118.025 -124.186, -117.928 -124.428, -118.119 -123.942, -118.025 -124.186), (-117.721 -124.907, -117.611 -125.144, -117.826 -124.668, -117.721 -124.907), (-117.381 -125.612, -117.26 -125.843, -117.498 -125.379, -117.381 -125.612), (-117.007 -126.3, -116.875 -126.525, -116.74 -126.748, -117.007 -126.3), (-116.6 -126.969, -116.458 -127.187, -116.311 -127.403, -116.6 -126.969), (-116.161 -127.616, -116.008 -127.828, -115.851 -128.036, -116.161 -127.616), (-115.691 -128.242, -115.528 -128.446, -115.361 -128.646, -115.691 -128.242), (-115.191 -128.844, -115.018 -129.039, -115.361 -128.646, -115.191 -128.844), (-114.662 -129.421, -114.479 -129.607, -114.294 -129.791, -114.662 -129.421), (-114.105 -129.971, -113.914 -130.149, -114.294 -129.791, -114.105 -129.971), (-113.522 -130.494, -113.322 -130.661, -113.12 -130.826, -113.522 -130.494), (-112.914 -130.987, -112.706 -131.145, -112.496 -131.299, -112.914 -130.987), (-112.283 -131.45, -112.068 -131.597, -111.85 -131.741, -112.283 -131.45), (-111.63 -131.881, -111.408 -132.018, -111.183 -132.151, -111.63 -131.881), (-110.957 -132.28, -110.728 -132.406, -110.497 -132.528, -110.957 -132.28), (-110.265 -132.646, -110.03 -132.76, -109.794 -132.871, -110.265 -132.646), (-118.322581081081 -113.27810810810784, -118.379 -113.445, -118.529 -113.945, -118.322581081081 -113.27810810810784), (-118.599 -114.196, -118.664 -114.449, -118.725 -114.703, -118.599 -114.196), (-118.782 -114.957, -118.835 -115.213, -118.725 -114.703, -118.782 -114.957), (-118.928 -115.726, -118.968 -115.984, -119.004 -116.243, -118.928 -115.726), (-119.036 -116.502, -119.063 -116.761, -119.004 -116.243, -119.036 -116.502), (-119.106 -117.281, -119.12 -117.542, -119.131 -117.803, -119.106 -117.281), (-113.811 89.712, -113.947 89.757, -114.088 89.781, -114.23 89.785, -114.372 89.769, -114.51 89.733, -114.641 89.677, -114.764 89.604, -114.874 89.513, -114.971 89.408, -115.051 89.291, -115.925 87.795, -118.38035048062979 83.59406717863484, -111.19846010728527 80.0295239765605, -109.019 83.758, -108.144 85.254, -108.081 85.382, -108.037 85.517, -108.013 85.658, -108.009 85.801, -108.025 85.942, -108.061 86.08, -108.117 86.212, -108.19 86.334, -108.28 86.445, -108.385 86.541, -108.503 86.622, -113.683 89.649, -113.811 89.712), (-110.755 -116.318, -110.629 -116.486, -110.48 -116.633, -110.311 -116.756, -110.125 -116.852, -109.927 -116.92, -109.722 -116.958, -109.512 -116.964, -109.305 -116.939, -109.103 -116.884, -108.912 -116.799, -108.735 -116.686, -108.578 -116.548, -108.442 -116.389, -108.332 -116.211, -108.25 -116.019, -108.197 -115.816, -108.175 -115.608, -108.184 -115.399, -108.225 -115.194, -108.295 -114.997, -108.394 -114.812, -108.52 -114.645, -108.669 -114.498, -108.838 -114.375, -109.024 -114.278, -109.221 -114.211, -109.427 -114.173, -109.636 -114.167, -109.844 -114.192, -110.046 -114.247, -110.237 -114.332, -110.414 -114.445, -110.571 -114.582, -110.707 -114.742, -110.817 -114.92, -110.899 -115.112, -110.952 -115.315, -110.974 -115.523, -110.965 -115.732, -110.924 -115.937, -110.854 -116.134, -110.755 -116.318), (-110.94224984128203 27.43512572813614, -127.615 19.752, -110.94224984128203 27.435125728136136, -110.94224984128203 27.43512572813614), (-110.97016853748741 27.504118152817775, -110.97016853748741 27.504118152817778, -127.772 19.798, -110.97016853748741 27.504118152817775), (-118.212 -112.951, -118.32087267660127 -113.27305450443727, -113.392 -115.383, -118.212 -112.951), (-120.865 -3.997, -120.767 -4.1, -120.655 -4.189, -120.532 -4.261, -120.4 -4.314, -120.261 -4.348, -120.119 -4.363, -119.977 -4.356, -119.836 -4.33, -119.701 -4.284, -114.177 -1.942, -114.05 -1.877, -113.934 -1.794, -113.83 -1.696, -113.741 -1.585, -113.67 -1.461, -113.616 -1.329, -113.582 -1.19, -113.568 -1.048, -113.574 -0.906, -113.601 -0.766, -113.647 -0.631, -117.55 8.576, -117.615 8.703, -117.697 8.82, -117.795 8.923, -117.907 9.012, -118.031 9.084, -118.163 9.137, -118.301 9.171, -118.443 9.185, -118.586 9.179, -118.726 9.153, -118.861 9.106, -124.385 6.765, -124.512 6.7, -124.629 6.617, -124.732 6.519, -124.821 6.407, -124.893 6.284, -124.946 6.152, -124.98 6.013, -124.994 5.871, -124.988 5.729, -124.962 5.589, -124.916 5.454, -124.239 3.859, -121.012 -3.753, -120.947 -3.88, -120.865 -3.997), (-127.19521594040872 19.27233933492798, -127.19521594040872 19.272339334927985, -127.307 19.448, -127.19521594040872 19.27233933492798), (-133.909 100.939, -133.925 101.081, -133.961 101.219, -134.017 101.35, -134.09 101.472, -134.181 101.583, -134.286 101.68, -134.404 101.76, -139.584 104.788, -139.712 104.851, -139.847 104.895, -139.988 104.919, -140.13 104.924, -140.272 104.907, -140.41 104.871, -140.542 104.816, -140.664 104.742, -140.774 104.652, -140.871 104.547, -140.952 104.429, -145.31597062904444 96.96285682906445, -138.13310261635726 93.39782840130553, -134.045 100.392, -133.982 100.52, -133.938 100.656, -133.913 100.796, -133.909 100.939), (-148.486 -15.706, -148.387 -15.81, -148.276 -15.899, -148.152 -15.97, -148.02 -16.024, -147.881 -16.058, -147.74 -16.072, -147.597 -16.066, -147.457 -16.039, -147.322 -15.993, -141.798 -13.651, -141.671 -13.586, -141.554 -13.504, -141.45 -13.406, -141.362 -13.294, -141.29 -13.171, -141.237 -13.038, -141.202 -12.9, -141.188 -12.758, -141.195 -12.615, -141.221 -12.475, -141.267 -12.34, -145.171 -3.133, -145.235 -3.006, -145.318 -2.89, -145.416 -2.786, -145.528 -2.698, -145.651 -2.626, -145.783 -2.572, -145.922 -2.538, -146.064 -2.524, -146.206 -2.53, -146.347 -2.557, -146.482 -2.603, -152.006 -4.945, -152.133 -5.01, -152.249 -5.092, -152.353 -5.19, -152.441 -5.302, -152.513 -5.425, -152.567 -5.558, -152.601 -5.696, -152.615 -5.838, -152.609 -5.981, -152.582 -6.121, -152.536 -6.256, -148.633 -15.463, -148.568 -15.59, -148.486 -15.706), (-174.859 94.915, -175.777 93.462, -176.468 91.889, -176.917 90.23, -177.114 88.522, -177.054 86.804, -176.739 85.115, -176.175 83.491, -175.376 81.969, -174.359 80.584, -173.146 79.366, -171.766 78.341, -170.248 77.535, -168.627 76.963, -166.939 76.639, -165.222 76.57, -163.514 76.759, -161.852 77.199, -160.275 77.883, -158.817 78.794, -157.512 79.911, -156.387 81.211, -155.469 82.665, -154.778 84.238, -154.329 85.897, -154.132 87.605, -154.192 89.323, -154.508 91.012, -155.071 92.636, -155.871 94.158, -156.888 95.543, -158.1 96.761, -159.481 97.786, -160.998 98.592, -162.619 99.164, -164.307 99.488, -166.025 99.556, -167.733 99.368, -169.18277037918335 98.9839548664415, -169.82709329538267 98.74027134724858, -170.972 98.244, -172.429 97.333, -173.735 96.215, -174.859 94.915), (-172.005 110.67, -172.03 110.53, -172.034 110.387, -172.018 110.246, -171.981 110.108, -171.926 109.976, -171.852 109.854, -171.762 109.743, -171.657 109.647, -171.539 109.566, -166.359 106.538, -166.231 106.475, -166.096 106.431, -165.955 106.407, -165.812 106.403, -165.671 106.419, -165.533 106.455, -165.401 106.511, -165.279 106.584, -165.168 106.674, -165.072 106.779, -164.991 106.897, -164.117 108.393, -162.46800000009947 111.21399999982984, -159.945 115.531, -159.882 115.659, -159.838 115.794, -159.814 115.935, -159.809 116.078, -159.826 116.219, -159.862 116.357, -159.917 116.489, -159.991 116.611, -160.081 116.721, -160.186 116.818, -160.304 116.899, -165.484 119.926, -165.612 119.989, -165.748 120.034, -165.888 120.058, -166.031 120.062, -166.173 120.046, -166.311 120.01, -166.442 119.954, -166.564 119.881, -166.675 119.79, -166.771 119.685, -166.852 119.568, -167.726 118.072, -171.898 110.934, -171.961 110.806, -172.005 110.67), (-169.37499999997812 115.25100000003746, -169.3749999999137 115.25100000014761, -166.852 119.568, -169.37499999997812 115.25100000003746), (-175.062 137.264, -161.8408512602015 129.91453622309177, -161.84085126020148 129.91453622309177, -175.062 137.264), (-187.771 -64.679, -187.557 -66.385, -187.092 -68.039, -186.386 -69.606, -185.454 -71.05, -184.317 -72.339, -183 -73.445, -181.534 -74.341, -179.95 -75.009, -178.285 -75.434, -176.574 -75.605, -174.858 -75.52, -173.173 -75.18, -171.558 -74.593, -170.048 -73.771, -168.678 -72.734, -167.477 -71.503, -166.473 -70.108, -165.689 -68.579, -165.141 -66.95, -164.842 -65.257, -164.799 -63.539, -165.012 -61.833, -165.477 -60.179, -166.184 -58.612, -167.116 -57.168, -168.253 -55.879, -169.569 -54.774, -171.036 -53.877, -172.619 -53.209, -174.285 -52.784, -175.995 -52.613, -177.712 -52.698, -179.396 -53.038, -181.012 -53.625, -182.521 -54.447, -183.892 -55.485, -185.092 -56.715, -186.096 -58.11, -186.88 -59.639, -187.428 -61.268, -187.727 -62.961, -187.771 -64.679), (-179.87 -16.802, -179.973 -16.9, -180.062 -17.012, -180.134 -17.135, -180.187 -17.267, -180.221 -17.406, -180.235 -17.548, -180.229 -17.69, -180.203 -17.83, -180.156 -17.965, -176.253 -27.172, -176.188 -27.299, -176.106 -27.416, -176.008 -27.519, -175.896 -27.608, -175.773 -27.68, -175.64 -27.733, -175.502 -27.768, -175.36 -27.782, -175.217 -27.775, -175.077 -27.749, -174.942 -27.703, -169.418 -25.361, -169.291 -25.296, -169.175 -25.213, -169.071 -25.115, -168.982 -25.004, -168.911 -24.88, -168.857 -24.748, -168.823 -24.609, -168.809 -24.467, -168.815 -24.325, -168.842 -24.185, -168.888 -24.05, -172.791 -14.843, -172.856 -14.716, -172.938 -14.599, -173.036 -14.496, -173.148 -14.407, -173.271 -14.335, -173.404 -14.282, -173.542 -14.248, -173.684 -14.234, -173.827 -14.24, -173.967 -14.266, -174.102 -14.313, -179.626 -16.654, -179.753 -16.719, -179.87 -16.802), (-177.543 118.408, -177.362 118.302, -177.168 118.225, -176.964 118.177, -176.755 118.16, -176.547 118.175, -176.342 118.22, -176.147 118.296, -175.965 118.399, -175.801 118.529, -175.658 118.682, -175.539 118.854, -175.447 119.042, -175.385 119.241, -175.352 119.448, -175.351 119.657, -175.381 119.865, -175.442 120.065, -175.532 120.254, -175.649 120.427, -175.79 120.581, -175.953 120.713, -176.134 120.818, -176.328 120.896, -176.532 120.944, -176.74 120.96, -176.949 120.946, -177.153 120.9, -177.349 120.825, -177.53 120.721, -177.695 120.592, -177.838 120.439, -177.957 120.267, -178.048 120.079, -178.111 119.879, -178.143 119.672, -178.145 119.463, -178.114 119.256, -178.054 119.056, -177.964 118.867, -177.847 118.693, -177.706 118.539, -177.543 118.408), (-191.865 128.698, -191.58 129.135, -191.274 129.558, -190.948 129.965, -190.602 130.356, -190.237 130.729, -189.855 131.084, -189.456 131.42, -189.04 131.736, -188.61 132.031, -188.166 132.305, -187.709 132.557, -187.24 132.786, -186.761 132.992, -186.272 133.175, -185.775 133.333, -185.271 133.466, -184.76 133.575, -184.245 133.659, -183.727 133.717, -183.206 133.75, -182.684 133.758, -182.163 133.74, -181.643 133.696, -181.126 133.628, -180.612 133.534, -180.104 133.414, -179.603 133.271, -179.109 133.103, -176.539 137.821, -177.267 138.109, -178.008 138.361, -178.761 138.577, -179.523 138.755, -180.293 138.896, -181.068 139, -181.848 139.065, -182.631 139.092, -183.413 139.081, -184.195 139.031, -184.972 138.943, -185.745 138.818, -186.51 138.654, -187.267 138.454, -188.013 138.217, -188.746 137.943, -189.465 137.634, -190.169 137.29, -190.854 136.913, -191.52 136.502, -192.166 136.059, -192.789 135.585, -193.388 135.081, -193.961 134.548, -194.508 133.988, -195.027 133.402, -195.517 132.792, -195.976 132.158, -196.403 131.502, -197.458 129.486, -198.217 127.341, -191.997 128.473, -191.865 128.698), (-175.899 137.53, -178.604 132.902, -175.593 137.382, -176.062 137.609, -176.539 137.821, -175.899 137.53), (-176.78 137.921, -177.023 138.017, -177.267 138.109, -176.78 137.921), (-177.513 138.197, -177.76 138.281, -177.267 138.109, -177.513 138.197), (-178.258 138.437, -178.509 138.509, -178.761 138.577, -178.258 138.437), (-179.014 138.64, -179.268 138.7, -178.761 138.577, -179.014 138.64), (-179.779 138.806, -180.035 138.853, -180.293 138.896, -179.779 138.806), (-180.551 138.935, -180.809 138.969, -181.068 139, -180.551 138.935), (-181.328 139.026, -181.588 139.047, -181.848 139.065, -181.328 139.026), (-182.109 139.078, -182.37 139.087, -182.631 139.092, -182.109 139.078), (-182.892 139.092, -183.153 139.089, -182.631 139.092, -182.892 139.092), (-183.674 139.068, -183.934 139.052, -183.413 139.081, -183.674 139.068), (-184.454 139.006, -184.714 138.977, -184.195 139.031, -184.454 139.006), (-185.231 138.906, -185.488 138.864, -185.745 138.818, -185.231 138.906), (-186.001 138.767, -186.256 138.713, -186.51 138.654, -186.001 138.767), (-186.764 138.592, -187.016 138.525, -186.51 138.654, -186.764 138.592), (-187.517 138.379, -187.766 138.3, -187.267 138.454, -187.517 138.379), (-188.259 138.129, -188.503 138.038, -188.013 138.217, -188.259 138.129), (-188.988 137.844, -189.227 137.741, -189.465 137.634, -188.988 137.844), (-189.702 137.523, -189.936 137.409, -190.169 137.29, -189.702 137.523), (-190.399 137.168, -190.628 137.042, -190.854 136.913, -190.399 137.168), (-191.078 136.779, -191.301 136.642, -191.52 136.502, -191.078 136.779), (-191.738 136.358, -191.953 136.21, -191.52 136.502, -191.738 136.358), (-192.376 135.904, -192.584 135.746, -192.789 135.585, -192.376 135.904), (-192.991 135.42, -193.191 135.252, -192.789 135.585, -192.991 135.42), (-193.582 134.906, -193.773 134.729, -193.961 134.548, -193.582 134.906), (-194.147 134.365, -194.329 134.178, -194.508 133.988, -194.147 134.365), (-194.684 133.796, -194.857 133.6, -195.027 133.402, -194.684 133.796), (-195.193 133.201, -195.357 132.998, -195.517 132.792, -195.193 133.201), (-195.673 132.583, -195.826 132.371, -195.976 132.158, -195.673 132.583), (-196.122 131.941, -196.264 131.723, -196.403 131.502, -196.122 131.941), (-180.358 128.269, -180.217 128.115, -180.054 127.983, -179.873 127.878, -179.679 127.8, -179.475 127.753, -179.266 127.736, -179.058 127.751, -178.854 127.796, -178.658 127.871, -178.477 127.975, -178.312 128.105, -178.169 128.257, -178.05 128.43, -177.959 128.618, -177.896 128.817, -177.864 129.024, -177.862 129.233, -177.892 129.44, -177.953 129.641, -178.043 129.83, -178.16 130.003, -178.301 130.157, -178.464 130.289, -178.645 130.394, -178.839 130.472, -179.043 130.519, -179.252 130.536, -179.46 130.521, -179.665 130.476, -179.86 130.401, -180.041 130.297, -180.206 130.167, -180.349 130.015, -180.468 129.842, -180.559 129.654, -180.622 129.455, -180.655 129.248, -180.656 129.039, -180.626 128.832, -180.565 128.631, -180.475 128.442, -180.358 128.269), (-196.617 -21.915, -196.643 -22.123, -196.637 -22.332, -196.6 -22.538, -196.533 -22.736, -196.437 -22.922, -196.315 -23.092, -196.169 -23.241, -196.002 -23.367, -195.818 -23.467, -195.621 -23.538, -195.416 -23.579, -195.207 -23.589, -194.998 -23.568, -194.796 -23.516, -194.603 -23.434, -194.425 -23.325, -194.265 -23.19, -194.127 -23.033, -194.013 -22.857, -193.928 -22.666, -193.872 -22.464, -193.846 -22.257, -193.852 -22.047, -193.888 -21.841, -193.955 -21.643, -194.051 -21.457, -194.174 -21.288, -194.32 -21.138, -194.487 -21.012, -194.671 -20.912, -194.868 -20.841, -195.073 -20.8, -195.282 -20.79, -195.49 -20.811, -195.693 -20.863, -195.886 -20.945, -196.064 -21.055, -196.224 -21.189, -196.362 -21.347, -196.475 -21.523, -196.561 -21.714, -196.617 -21.915), (-181.07582480367333 -11.642080276760575, -181.07582480367336 -11.642080276760588, -194.174 -21.288, -181.07582480367333 -11.642080276760575), (-183.271 122.952, -183.226 122.845, -183.157 122.751, -183.068 122.676, -182.965 122.624, -182.852 122.596, -182.736 122.596, -182.623 122.622, -182.519 122.673, -182.429 122.748, -182.36 122.84, -182.313 122.947, -182.292 123.061, -182.298 123.177, -182.331 123.288, -182.389 123.389, -182.468 123.474, -182.565 123.538, -182.673 123.578, -182.789 123.593, -182.904 123.58, -183.013 123.541, -183.111 123.477, -183.191 123.393, -183.249 123.293, -183.283 123.182, -183.291 123.066, -183.271 122.952), (-186.992 -26.954, -186.825 -27.08, -186.641 -27.179, -186.444 -27.251, -186.239 -27.292, -186.03 -27.302, -185.821 -27.28, -185.619 -27.228, -185.426 -27.147, -185.248 -27.037, -185.088 -26.902, -184.95 -26.745, -184.837 -26.569, -184.751 -26.378, -184.695 -26.177, -184.669 -25.969, -184.675 -25.76, -184.711 -25.554, -184.778 -25.356, -184.874 -25.17, -184.997 -25, -185.143 -24.851, -185.31 -24.725, -185.494 -24.625, -185.691 -24.554, -185.896 -24.513, -186.105 -24.503, -186.313 -24.524, -186.516 -24.576, -186.709 -24.658, -186.887 -24.767, -187.047 -24.902, -187.185 -25.059, -187.298 -25.235, -187.384 -25.426, -187.44 -25.628, -187.466 -25.835, -187.46 -26.044, -187.423 -26.25, -187.356 -26.449, -187.26 -26.635, -187.138 -26.804, -186.992 -26.954), (-185.904 118.385, -186.108 118.432, -186.316 118.449, -186.525 118.435, -186.729 118.389, -186.924 118.314, -187.106 118.21, -187.27 118.081, -187.414 117.928, -187.532 117.756, -187.624 117.568, -187.687 117.368, -187.719 117.161, -187.72 116.952, -187.69 116.745, -187.63 116.545, -187.54 116.356, -187.423 116.182, -187.281 116.028, -187.118 115.897, -186.938 115.791, -186.743 115.714, -186.54 115.666, -186.331 115.649, -186.122 115.664, -185.918 115.709, -185.723 115.785, -185.541 115.888, -185.377 116.018, -185.234 116.17, -185.115 116.343, -185.023 116.531, -184.96 116.73, -184.928 116.937, -184.927 117.146, -184.957 117.353, -185.018 117.554, -185.107 117.743, -185.224 117.916, -185.366 118.07, -185.529 118.202, -185.709 118.307, -185.904 118.385), (-187.745 125.746, -187.626 125.918, -187.534 126.106, -187.472 126.306, -187.439 126.513, -187.438 126.722, -187.468 126.929, -187.529 127.129, -187.619 127.318, -187.736 127.492, -187.877 127.646, -188.04 127.777, -188.221 127.883, -188.415 127.96, -188.619 128.008, -188.827 128.025, -189.036 128.01, -189.24 127.965, -189.435 127.889, -189.617 127.786, -189.781 127.656, -189.925 127.504, -190.043 127.331, -190.135 127.143, -190.198 126.944, -190.23 126.737, -190.231 126.528, -190.201 126.321, -190.141 126.12, -190.051 125.931, -189.934 125.758, -189.792 125.604, -189.63 125.472, -189.449 125.367, -189.255 125.289, -189.051 125.242, -188.842 125.225, -188.633 125.239, -188.429 125.285, -188.234 125.36, -188.052 125.464, -187.888 125.594, -187.745 125.746), (-191.178 -35.012, -191.173 -35.221, -191.136 -35.427, -191.069 -35.626, -190.973 -35.812, -190.851 -35.981, -190.704 -36.131, -190.537 -36.257, -190.353 -36.356, -190.156 -36.428, -189.951 -36.469, -189.742 -36.479, -189.534 -36.457, -189.331 -36.405, -189.139 -36.324, -188.96 -36.214, -188.8 -36.079, -188.662 -35.922, -188.549 -35.746, -188.463 -35.555, -188.407 -35.354, -188.382 -35.146, -188.387 -34.937, -188.424 -34.731, -188.491 -34.533, -188.587 -34.347, -188.709 -34.177, -188.856 -34.028, -189.023 -33.902, -189.207 -33.802, -189.403 -33.731, -189.609 -33.69, -189.818 -33.68, -190.026 -33.701, -190.229 -33.753, -190.421 -33.835, -190.599 -33.944, -190.759 -34.079, -190.898 -34.236, -191.011 -34.412, -191.096 -34.603, -191.153 -34.805, -191.178 -35.012), (-192.151 -28.98, -192.081 -28.887, -192.034 -28.781, -192.013 -28.667, -192.019 -28.551, -192.052 -28.439, -192.109 -28.338, -192.188 -28.253, -192.285 -28.189, -192.394 -28.149, -192.509 -28.134, -192.624 -28.147, -192.734 -28.186, -192.831 -28.249, -192.911 -28.333, -192.97 -28.434, -193.004 -28.545, -193.011 -28.66, -192.992 -28.775, -192.947 -28.882, -192.878 -28.975, -192.79 -29.05, -192.686 -29.103, -192.573 -29.131, -192.457 -29.131, -192.344 -29.105, -192.24 -29.054, -192.151 -28.98), (-200.33 -31.092, -200.355 -31.3, -200.35 -31.509, -200.313 -31.715, -200.246 -31.913, -200.15 -32.099, -200.028 -32.269, -199.881 -32.418, -199.714 -32.544, -199.53 -32.644, -199.333 -32.715, -199.128 -32.756, -198.919 -32.766, -198.711 -32.745, -198.508 -32.693, -198.316 -32.611, -198.137 -32.502, -197.977 -32.367, -197.839 -32.21, -197.726 -32.034, -197.64 -31.843, -197.584 -31.641, -197.559 -31.434, -197.564 -31.224, -197.601 -31.018, -197.668 -30.82, -197.764 -30.634, -197.886 -30.465, -198.033 -30.315, -198.2 -30.189, -198.384 -30.089, -198.58 -30.018, -198.786 -29.977, -198.995 -29.967, -199.203 -29.988, -199.405 -30.04, -199.598 -30.122, -199.776 -30.232, -199.936 -30.366, -200.075 -30.524, -200.188 -30.7, -200.273 -30.891, -200.33 -31.092), (-208.503 -29.179, -208.512 -28.657, -208.51 -28.918, -208.503 -29.179), (-208.492 -29.44, -208.477 -29.7, -208.503 -29.179, -208.492 -29.44), (-208.457 -29.96, -208.373 -30.739, -208.251 -31.512, -208.092 -32.278, -207.895 -33.036, -207.661 -33.783, -207.391 -34.517, -206.406 -36.568, -205.141 -38.459, -202.329 -32.796, -202.431 -32.556, -202.611 -32.066, -202.767 -31.568, -202.898 -31.063, -203.004 -30.552, -203.085 -30.037, -203.141 -29.518, -203.172 -28.997, -203.177 -28.476, -203.156 -27.954, -203.11 -27.434, -203.039 -26.918, -202.942 -26.405, -202.821 -25.897, -202.675 -25.397, -202.504 -24.903, -202.31 -24.419, -202.092 -23.945, -201.851 -23.482, -201.588 -23.032, -201.303 -22.594, -200.997 -22.172, -200.671 -21.765, -200.325 -21.374, -199.961 -21, -199.578 -20.645, -199.179 -20.309, -198.764 -19.993, -198.334 -19.698, -200.58 -14.817, -201.246 -15.228, -201.891 -15.671, -202.514 -16.146, -203.112 -16.65, -203.686 -17.182, -204.233 -17.743, -204.751 -18.329, -205.241 -18.94, -205.699 -19.574, -206.127 -20.23, -206.522 -20.905, -206.883 -21.6, -207.21 -22.311, -207.501 -23.037, -207.757 -23.777, -207.976 -24.529, -208.159 -25.29, -208.304 -26.059, -208.411 -26.834, -208.48 -27.614, -208.51 -28.396, -208.503 -29.179, -208.457 -29.96), (-208.433 -30.22, -208.405 -30.48, -208.373 -30.739, -208.433 -30.22), (-208.337 -30.997, -208.296 -31.255, -208.251 -31.512, -208.337 -30.997), (-208.202 -31.768, -208.149 -32.023, -208.092 -32.278, -208.202 -31.768), (-208.03 -32.532, -207.965 -32.784, -207.895 -33.036, -208.03 -32.532), (-207.821 -33.286, -207.743 -33.535, -207.661 -33.783, -207.821 -33.286), (-207.575 -34.029, -207.485 -34.274, -207.391 -34.517, -207.575 -34.029), (-199.964 -14.478, -197.871 -19.413, -199.662 -14.321, -200.125 -14.561, -200.58 -14.817, -199.964 -14.478), (-200.804 -14.951, -201.026 -15.088, -201.246 -15.228, -200.804 -14.951), (-201.463 -15.372, -201.678 -15.52, -201.246 -15.228, -201.463 -15.372), (-202.101 -15.826, -202.309 -15.984, -202.514 -16.146, -202.101 -15.826), (-202.716 -16.31, -202.916 -16.478, -202.514 -16.146, -202.716 -16.31), (-203.306 -16.824, -203.498 -17.002, -203.686 -17.182, -203.306 -16.824), (-203.871 -17.366, -204.053 -17.553, -204.233 -17.743, -203.871 -17.366), (-204.409 -17.935, -204.582 -18.131, -204.751 -18.329, -204.409 -17.935), (-204.918 -18.53, -205.081 -18.733, -205.241 -18.94, -204.918 -18.53), (-205.397 -19.149, -205.55 -19.36, -205.241 -18.94, -205.397 -19.149), (-205.845 -19.79, -205.988 -20.009, -205.699 -19.574, -205.845 -19.79), (-206.262 -20.453, -206.394 -20.678, -206.127 -20.23, -206.262 -20.453), (-206.646 -21.135, -206.766 -21.366, -206.883 -21.6, -206.646 -21.135), (-206.996 -21.835, -207.105 -22.072, -207.21 -22.311, -206.996 -21.835), (-207.311 -22.552, -207.408 -22.794, -207.21 -22.311, -207.311 -22.552), (-207.591 -23.283, -207.676 -23.529, -207.501 -23.037, -207.591 -23.283), (-207.834 -24.026, -207.907 -24.277, -207.757 -23.777, -207.834 -24.026), (-208.041 -24.781, -208.102 -25.035, -208.159 -25.29, -208.041 -24.781), (-208.211 -25.545, -208.259 -25.802, -208.304 -26.059, -208.211 -25.545), (-208.343 -26.317, -208.379 -26.575, -208.411 -26.834, -208.343 -26.317), (-208.438 -27.094, -208.461 -27.354, -208.48 -27.614, -208.438 -27.094), (-208.494 -27.875, -208.504 -28.135, -208.48 -27.614, -208.494 -27.875)), ((-178.22 -4.23, -178.524 -4.148, -178.774 -4.081, -178.967 -4.029, -179.139 -3.983, -179.289 -3.942, -179.382 -3.918, -179.413 -3.909, -175.832 -2.264, -175.842 -2.295, -175.871 -2.386, -175.917 -2.532, -175.971 -2.7, -176.026 -2.875, -176.089 -3.073, -176.164 -3.308, -176.241 -3.553, -176.595 -4.666, -177.901 -4.315, -178.22 -4.23)), ((-165.296 88.442, -165.22 88.359, -165.165 88.262, -165.132 88.155, -165.124 88.044, -165.141 87.933, -165.182 87.829, -165.245 87.736, -165.327 87.66, -165.425 87.605, -165.532 87.572, -165.643 87.564, -165.754 87.581, -165.858 87.622, -165.95 87.685, -166.026 87.768, -166.082 87.865, -166.115 87.972, -166.123 88.083, -166.106 88.194, -166.065 88.298, -166.001 88.391, -165.919 88.467, -165.822 88.522, -165.715 88.555, -165.603 88.563, -165.493 88.546, -165.389 88.505, -165.296 88.442)), ((-154.562 125.922, -154.684 126.228, -154.8 126.52, -154.896 126.761, -154.97 126.947, -155.036 127.113, -155.093 127.257, -155.128 127.346, -155.14 127.376, -151.681 125.489, -151.711 125.479, -151.801 125.447, -151.947 125.397, -152.113 125.34, -152.287 125.279, -152.482 125.212, -152.716 125.131, -152.958 125.047, -154.062 124.665, -154.562 125.922)))